{
"type": "FeatureCollection",
"name": "Alur_Irigasi",
"crs": { "type": "name", "properties": { "name": "urn:ogc:def:crs:OGC:1.3:CRS84" } },
"features": [
{ "type": "Feature", "properties": { "field_1": 1041188, "field_2": "Sungai/ Rawa", "field_3": "Alur Irigasi", "field_4": 631300.5, "field_5": 9224681.5 }, "geometry": { "type": "Point", "coordinates": [ 112.188715524755679, -7.012694425492834 ] } },
{ "type": "Feature", "properties": { "field_1": 1041271, "field_2": "Sungai/ Rawa", "field_3": "Alur Irigasi", "field_4": 631300.5, "field_5": 9223644.0 }, "geometry": { "type": "Point", "coordinates": [ 112.18873933314255, -7.022077573607426 ] } },
{ "type": "Feature", "properties": { "field_1": 1041370, "field_2": "Sungai/ Rawa", "field_3": "Alur Irigasi", "field_4": 631300.5, "field_5": 9222406.5 }, "geometry": { "type": "Point", "coordinates": [ 112.188767773770607, -7.033269516355688 ] } },
{ "type": "Feature", "properties": { "field_1": 1041418, "field_2": "Sungai/ Rawa", "field_3": "Alur Irigasi", "field_4": 631300.5, "field_5": 9221806.5 }, "geometry": { "type": "Point", "coordinates": [ 112.188781579878523, -7.038695910878155 ] } },
{ "type": "Feature", "properties": { "field_1": 1041430, "field_2": "Sungai/ Rawa", "field_3": "Alur Irigasi", "field_4": 631300.5, "field_5": 9221656.5 }, "geometry": { "type": "Point", "coordinates": [ 112.18878503311096, -7.040052509308445 ] } },
{ "type": "Feature", "properties": { "field_1": 1041471, "field_2": "Sungai/ Rawa", "field_3": "Alur Irigasi", "field_4": 631300.5, "field_5": 9221144.0 }, "geometry": { "type": "Point", "coordinates": [ 112.18879683680251, -7.044687553340365 ] } },
{ "type": "Feature", "properties": { "field_1": 1061036, "field_2": "Sungai/ Rawa", "field_3": "Alur Irigasi", "field_4": 632300.5, "field_5": 9226781.5 }, "geometry": { "type": "Point", "coordinates": [ 112.197719122899244, -6.993679081648687 ] } },
{ "type": "Feature", "properties": { "field_1": 1061043, "field_2": "Sungai/ Rawa", "field_3": "Alur Irigasi", "field_4": 632300.5, "field_5": 9226694.0 }, "geometry": { "type": "Point", "coordinates": [ 112.197721139235981, -6.994470429668384 ] } },
{ "type": "Feature", "properties": { "field_1": 1061138, "field_2": "Sungai/ Rawa", "field_3": "Alur Irigasi", "field_4": 632300.5, "field_5": 9225506.5 }, "geometry": { "type": "Point", "coordinates": [ 112.197748526923689, -7.005210150110841 ] } },
{ "type": "Feature", "properties": { "field_1": 1101418, "field_2": "Sungai/ Rawa", "field_3": "Alur Irigasi", "field_4": 634300.5, "field_5": 9222106.5 }, "geometry": { "type": "Point", "coordinates": [ 112.215932098360312, -7.035912960979502 ] } },
{ "type": "Feature", "properties": { "field_1": 1101419, "field_2": "Sungai/ Rawa", "field_3": "Alur Irigasi", "field_4": 634300.5, "field_5": 9222094.0 }, "geometry": { "type": "Point", "coordinates": [ 112.215932392556894, -7.036026009733464 ] } },
{ "type": "Feature", "properties": { "field_1": 1101420, "field_2": "Sungai/ Rawa", "field_3": "Alur Irigasi", "field_4": 634300.5, "field_5": 9222081.5 }, "geometry": { "type": "Point", "coordinates": [ 112.215932686758322, -7.03613905848687 ] } },
{ "type": "Feature", "properties": { "field_1": 1192080, "field_2": "Sungai/ Rawa", "field_3": "Alur Irigasi", "field_4": 636569.3, "field_5": 9217800.39 }, "geometry": { "type": "Point", "coordinates": [ 112.236573516806772, -7.074802859496718 ] } },
{ "type": "Feature", "properties": { "field_1": 1192212, "field_2": "Sungai/ Rawa", "field_3": "Alur Irigasi", "field_4": 638219.3, "field_5": 9217800.39 }, "geometry": { "type": "Point", "coordinates": [ 112.251511110708563, -7.074762947557894 ] } },
{ "type": "Feature", "properties": { "field_1": 1192315, "field_2": "Lainnya", "field_3": "Alur Irigasi", "field_4": 639506.8, "field_5": 9217800.3 }, "geometry": { "type": "Point", "coordinates": [ 112.263166902384, -7.074732285426304 ] } },
{ "type": "Feature", "properties": { "field_1": 1192316, "field_2": "Lainnya", "field_3": "Alur Irigasi", "field_4": 639519.3, "field_5": 9217800.39 }, "geometry": { "type": "Point", "coordinates": [ 112.263280062914731, -7.074731164469065 ] } },
{ "type": "Feature", "properties": { "field_1": 1201051, "field_2": "Sungai/ Rawa", "field_3": "Alur Irigasi", "field_4": 639300.5, "field_5": 9227194.0 }, "geometry": { "type": "Point", "coordinates": [ 112.261070071474535, -6.989783109027914 ] } },
{ "type": "Feature", "properties": { "field_1": 1201141, "field_2": "Sungai/ Rawa", "field_3": "Alur Irigasi", "field_4": 639300.5, "field_5": 9226069.0 }, "geometry": { "type": "Point", "coordinates": [ 112.261097370215424, -6.999957340174352 ] } },
{ "type": "Feature", "properties": { "field_1": 1201350, "field_2": "Sungai/ Rawa", "field_3": "Alur Irigasi", "field_4": 639300.5, "field_5": 9223456.5 }, "geometry": { "type": "Point", "coordinates": [ 112.261160920938053, -7.023584148484836 ] } },
{ "type": "Feature", "properties": { "field_1": 1201389, "field_2": "Sungai/ Rawa", "field_3": "Alur Irigasi", "field_4": 639300.5, "field_5": 9222969.0 }, "geometry": { "type": "Point", "coordinates": [ 112.261172803985048, -7.027992976053328 ] } },
{ "type": "Feature", "properties": { "field_1": 1201438, "field_2": "Sungai/ Rawa", "field_3": "Alur Irigasi", "field_4": 639300.5, "field_5": 9222356.5 }, "geometry": { "type": "Point", "coordinates": [ 112.261187744801802, -7.033532271027803 ] } },
{ "type": "Feature", "properties": { "field_1": 1201450, "field_2": "Sungai/ Rawa", "field_3": "Alur Irigasi", "field_4": 639300.5, "field_5": 9222206.5 }, "geometry": { "type": "Point", "coordinates": [ 112.261191405616671, -7.034888832858328 ] } },
{ "type": "Feature", "properties": { "field_1": 1201471, "field_2": "Sungai/ Rawa", "field_3": "Alur Irigasi", "field_4": 639300.5, "field_5": 9221944.0 }, "geometry": { "type": "Point", "coordinates": [ 112.261197813784122, -7.037262815868489 ] } },
{ "type": "Feature", "properties": { "field_1": 1201493, "field_2": "Sungai/ Rawa", "field_3": "Alur Irigasi", "field_4": 639300.5, "field_5": 9221669.0 }, "geometry": { "type": "Point", "coordinates": [ 112.261204529479613, -7.039749845424775 ] } },
{ "type": "Feature", "properties": { "field_1": 1211590, "field_2": "Lainnya", "field_3": "Alur Irigasi", "field_4": 630344.3, "field_5": 9218800.39 }, "geometry": { "type": "Point", "coordinates": [ 112.180194326967751, -7.065905118552791 ] } },
{ "type": "Feature", "properties": { "field_1": 1211591, "field_2": "Lainnya", "field_3": "Alur Irigasi", "field_4": 630356.8, "field_5": 9218800.3 }, "geometry": { "type": "Point", "coordinates": [ 112.18030749314606, -7.065905646010522 ] } },
{ "type": "Feature", "properties": { "field_1": 1211592, "field_2": "Lainnya", "field_3": "Alur Irigasi", "field_4": 630369.3, "field_5": 9218800.39 }, "geometry": { "type": "Point", "coordinates": [ 112.180420655189664, -7.065904545519516 ] } },
{ "type": "Feature", "properties": { "field_1": 1211593, "field_2": "Lainnya", "field_3": "Alur Irigasi", "field_4": 630381.8, "field_5": 9218800.3 }, "geometry": { "type": "Point", "coordinates": [ 112.180533821358949, -7.065905072922271 ] } },
{ "type": "Feature", "properties": { "field_1": 1211594, "field_2": "Lainnya", "field_3": "Alur Irigasi", "field_4": 630394.3, "field_5": 9218800.39 }, "geometry": { "type": "Point", "coordinates": [ 112.180646983392748, -7.065903972376421 ] } },
{ "type": "Feature", "properties": { "field_1": 1211595, "field_2": "Lainnya", "field_3": "Alur Irigasi", "field_4": 630406.8, "field_5": 9218800.3 }, "geometry": { "type": "Point", "coordinates": [ 112.180760149553024, -7.0659044997242 ] } },
{ "type": "Feature", "properties": { "field_1": 1211596, "field_2": "Lainnya", "field_3": "Alur Irigasi", "field_4": 630419.3, "field_5": 9218800.39 }, "geometry": { "type": "Point", "coordinates": [ 112.180873311577002, -7.065903399123507 ] } },
{ "type": "Feature", "properties": { "field_1": 1211597, "field_2": "Lainnya", "field_3": "Alur Irigasi", "field_4": 630431.8, "field_5": 9218800.3 }, "geometry": { "type": "Point", "coordinates": [ 112.180986477728268, -7.065903926416309 ] } },
{ "type": "Feature", "properties": { "field_1": 1211598, "field_2": "Lainnya", "field_3": "Alur Irigasi", "field_4": 630444.3, "field_5": 9218800.39 }, "geometry": { "type": "Point", "coordinates": [ 112.181099639742442, -7.065902825760774 ] } },
{ "type": "Feature", "properties": { "field_1": 1211599, "field_2": "Lainnya", "field_3": "Alur Irigasi", "field_4": 630456.8, "field_5": 9218800.3 }, "geometry": { "type": "Point", "coordinates": [ 112.181212805884684, -7.0659033529986 ] } },
{ "type": "Feature", "properties": { "field_1": 1211600, "field_2": "Lainnya", "field_3": "Alur Irigasi", "field_4": 630469.3, "field_5": 9218800.39 }, "geometry": { "type": "Point", "coordinates": [ 112.181325967889052, -7.06590225228822 ] } },
{ "type": "Feature", "properties": { "field_1": 1211601, "field_2": "Lainnya", "field_3": "Alur Irigasi", "field_4": 630481.8, "field_5": 9218800.3 }, "geometry": { "type": "Point", "coordinates": [ 112.181439134022256, -7.065902779471069 ] } },
{ "type": "Feature", "properties": { "field_1": 1232088, "field_2": "Sungai/ Rawa", "field_3": "Alur Irigasi", "field_4": 636519.3, "field_5": 9219800.39 }, "geometry": { "type": "Point", "coordinates": [ 112.236072804496033, -7.056716420971159 ] } },
{ "type": "Feature", "properties": { "field_1": 1232148, "field_2": "Sungai/ Rawa", "field_3": "Alur Irigasi", "field_4": 637269.3, "field_5": 9219800.39 }, "geometry": { "type": "Point", "coordinates": [ 112.242862367999038, -7.056698391815961 ] } },
{ "type": "Feature", "properties": { "field_1": 1232185, "field_2": "Sungai/ Rawa", "field_3": "Alur Irigasi", "field_4": 637731.8, "field_5": 9219800.3 }, "geometry": { "type": "Point", "coordinates": [ 112.247049258788408, -7.056688038579036 ] } },
{ "type": "Feature", "properties": { "field_1": 1232205, "field_2": "Sungai/ Rawa", "field_3": "Alur Irigasi", "field_4": 637981.8, "field_5": 9219800.3 }, "geometry": { "type": "Point", "coordinates": [ 112.249312438993442, -7.056681986638893 ] } },
{ "type": "Feature", "properties": { "field_1": 1232229, "field_2": "Sungai/ Rawa", "field_3": "Alur Irigasi", "field_4": 638281.8, "field_5": 9219800.3 }, "geometry": { "type": "Point", "coordinates": [ 112.252028252610103, -7.056674709835096 ] } },
{ "type": "Feature", "properties": { "field_1": 1232245, "field_2": "Sungai/ Rawa", "field_3": "Alur Irigasi", "field_4": 638481.8, "field_5": 9219800.3 }, "geometry": { "type": "Point", "coordinates": [ 112.253838793424777, -7.056669849859495 ] } },
{ "type": "Feature", "properties": { "field_1": 1232280, "field_2": "Sungai/ Rawa", "field_3": "Alur Irigasi", "field_4": 638919.3, "field_5": 9219800.39 }, "geometry": { "type": "Point", "coordinates": [ 112.257799344796538, -7.056658380256976 ] } },
{ "type": "Feature", "properties": { "field_1": 1232304, "field_2": "Sungai/ Rawa", "field_3": "Alur Irigasi", "field_4": 639219.3, "field_5": 9219800.39 }, "geometry": { "type": "Point", "coordinates": [ 112.260515149405592, -7.056651054105814 ] } },
{ "type": "Feature", "properties": { "field_1": 1232395, "field_2": "Sungai/ Rawa", "field_3": "Alur Irigasi", "field_4": 640356.8, "field_5": 9219800.3 }, "geometry": { "type": "Point", "coordinates": [ 112.270812551094963, -7.056623946265658 ] } },
{ "type": "Feature", "properties": { "field_1": 1232402, "field_2": "Sungai/ Rawa", "field_3": "Alur Irigasi", "field_4": 640444.3, "field_5": 9219800.39 }, "geometry": { "type": "Point", "coordinates": [ 112.271604654793123, -7.056620975100308 ] } },
{ "type": "Feature", "properties": { "field_1": 1232429, "field_2": "Sungai/ Rawa", "field_3": "Alur Irigasi", "field_4": 640781.8, "field_5": 9219800.3 }, "geometry": { "type": "Point", "coordinates": [ 112.274659920378298, -7.056613455696709 ] } },
{ "type": "Feature", "properties": { "field_1": 1232504, "field_2": "Sungai/ Rawa", "field_3": "Alur Irigasi", "field_4": 641719.3, "field_5": 9219800.39 }, "geometry": { "type": "Point", "coordinates": [ 112.283146741353079, -7.056589388749453 ] } },
{ "type": "Feature", "properties": { "field_1": 1232603, "field_2": "Sungai/ Rawa", "field_3": "Alur Irigasi", "field_4": 642956.8, "field_5": 9219800.3 }, "geometry": { "type": "Point", "coordinates": [ 112.29434930616263, -7.05655927257719 ] } },
{ "type": "Feature", "properties": { "field_1": 1232606, "field_2": "Sungai/ Rawa", "field_3": "Alur Irigasi", "field_4": 642994.3, "field_5": 9219800.39 }, "geometry": { "type": "Point", "coordinates": [ 112.294688774706472, -7.05655751718144 ] } },
{ "type": "Feature", "properties": { "field_1": 1232620, "field_2": "Sungai/ Rawa", "field_3": "Alur Irigasi", "field_4": 643169.3, "field_5": 9219800.39 }, "geometry": { "type": "Point", "coordinates": [ 112.296272971183612, -7.056553120392539 ] } },
{ "type": "Feature", "properties": { "field_1": 1232632, "field_2": "Sungai/ Rawa", "field_3": "Alur Irigasi", "field_4": 643319.3, "field_5": 9219800.39 }, "geometry": { "type": "Point", "coordinates": [ 112.29763085307242, -7.056549347439833 ] } },
{ "type": "Feature", "properties": { "field_1": 1241893, "field_2": "Sungai/ Rawa", "field_3": "Alur Irigasi", "field_4": 641300.5, "field_5": 9217769.0 }, "geometry": { "type": "Point", "coordinates": [ 112.279406031187776, -7.074971014692342 ] } },
{ "type": "Feature", "properties": { "field_1": 1241894, "field_2": "Sungai/ Rawa", "field_3": "Alur Irigasi", "field_4": 641300.5, "field_5": 9217756.59 }, "geometry": { "type": "Point", "coordinates": [ 112.27940634023399, -7.075083246582357 ] } },
{ "type": "Feature", "properties": { "field_1": 1241895, "field_2": "Sungai/ Rawa", "field_3": "Alur Irigasi", "field_4": 641300.5, "field_5": 9217744.0 }, "geometry": { "type": "Point", "coordinates": [ 112.279406653767879, -7.075197106331609 ] } },
{ "type": "Feature", "properties": { "field_1": 1341652, "field_2": "Sungai/ Rawa", "field_3": "Alur Irigasi", "field_4": 646300.5, "field_5": 9218731.59 }, "geometry": { "type": "Point", "coordinates": [ 112.324645650525028, -7.066139243325319 ] } },
{ "type": "Feature", "properties": { "field_1": 1341653, "field_2": "Sungai/ Rawa", "field_3": "Alur Irigasi", "field_4": 646300.5, "field_5": 9218719.0 }, "geometry": { "type": "Point", "coordinates": [ 112.324645974728938, -7.066253101061503 ] } },
{ "type": "Feature", "properties": { "field_1": 1341654, "field_2": "Sungai/ Rawa", "field_3": "Alur Irigasi", "field_4": 646300.5, "field_5": 9218706.59 }, "geometry": { "type": "Point", "coordinates": [ 112.324646294302937, -7.066365330966116 ] } },
{ "type": "Feature", "properties": { "field_1": 1341655, "field_2": "Sungai/ Rawa", "field_3": "Alur Irigasi", "field_4": 646300.5, "field_5": 9218694.0 }, "geometry": { "type": "Point", "coordinates": [ 112.324646618517477, -7.06647918870117 ] } },
{ "type": "Feature", "properties": { "field_1": 1341656, "field_2": "Sungai/ Rawa", "field_3": "Alur Irigasi", "field_4": 646300.5, "field_5": 9218681.59 }, "geometry": { "type": "Point", "coordinates": [ 112.324646938101949, -7.066591418604669 ] } },
{ "type": "Feature", "properties": { "field_1": 1342638, "field_2": "Sungai/ Rawa", "field_3": "Alur Irigasi", "field_4": 646300.5, "field_5": 9206406.5 }, "geometry": { "type": "Point", "coordinates": [ 112.324965597668225, -7.177600990367154 ] } },
{ "type": "Feature", "properties": { "field_1": 1361137, "field_2": "Sungai/ Rawa", "field_3": "Alur Irigasi", "field_4": 647300.5, "field_5": 9225169.0 }, "geometry": { "type": "Point", "coordinates": [ 112.333532070122942, -7.007896817343338 ] } },
{ "type": "Feature", "properties": { "field_1": 1361147, "field_2": "Sungai/ Rawa", "field_3": "Alur Irigasi", "field_4": 647300.5, "field_5": 9225044.0 }, "geometry": { "type": "Point", "coordinates": [ 112.333535283839296, -7.009027254235931 ] } },
{ "type": "Feature", "properties": { "field_1": 1361168, "field_2": "Sungai/ Rawa", "field_3": "Alur Irigasi", "field_4": 647300.5, "field_5": 9224781.5 }, "geometry": { "type": "Point", "coordinates": [ 112.333542034372911, -7.011401171528991 ] } },
{ "type": "Feature", "properties": { "field_1": 1361210, "field_2": "Sungai/ Rawa", "field_3": "Alur Irigasi", "field_4": 647300.5, "field_5": 9224256.5 }, "geometry": { "type": "Point", "coordinates": [ 112.333555542468972, -7.016149005377602 ] } },
{ "type": "Feature", "properties": { "field_1": 1361210, "field_2": "Sungai/ Rawa", "field_3": "Alur Irigasi", "field_4": 647300.5, "field_5": 9224256.5 }, "geometry": { "type": "Point", "coordinates": [ 112.333555542468972, -7.016149005377602 ] } },
{ "type": "Feature", "properties": { "field_1": 1361226, "field_2": "Sungai/ Rawa", "field_3": "Alur Irigasi", "field_4": 647300.5, "field_5": 9224056.5 }, "geometry": { "type": "Point", "coordinates": [ 112.33356069087553, -7.017957703727824 ] } },
{ "type": "Feature", "properties": { "field_1": 1361239, "field_2": "Sungai/ Rawa", "field_3": "Alur Irigasi", "field_4": 647300.5, "field_5": 9223894.0 }, "geometry": { "type": "Point", "coordinates": [ 112.333564874957389, -7.019427271032218 ] } },
{ "type": "Feature", "properties": { "field_1": 1361252, "field_2": "Sungai/ Rawa", "field_3": "Alur Irigasi", "field_4": 647300.5, "field_5": 9223731.5 }, "geometry": { "type": "Point", "coordinates": [ 112.333569059937176, -7.020896838242306 ] } },
{ "type": "Feature", "properties": { "field_1": 1361253, "field_2": "Sungai/ Rawa", "field_3": "Alur Irigasi", "field_4": 647300.5, "field_5": 9223719.0 }, "geometry": { "type": "Point", "coordinates": [ 112.333569381895899, -7.021009881869944 ] } },
{ "type": "Feature", "properties": { "field_1": 1361257, "field_2": "Sungai/ Rawa", "field_3": "Alur Irigasi", "field_4": 647300.5, "field_5": 9223669.0 }, "geometry": { "type": "Point", "coordinates": [ 112.333570669783882, -7.021462056374916 ] } },
{ "type": "Feature", "properties": { "field_1": 1361270, "field_2": "Sungai/ Rawa", "field_3": "Alur Irigasi", "field_4": 647300.5, "field_5": 9223506.5 }, "geometry": { "type": "Point", "coordinates": [ 112.333574856006976, -7.022931623454395 ] } },
{ "type": "Feature", "properties": { "field_1": 1361284, "field_2": "Sungai/ Rawa", "field_3": "Alur Irigasi", "field_4": 647300.5, "field_5": 9223331.5 }, "geometry": { "type": "Point", "coordinates": [ 112.333579365251467, -7.024514234049853 ] } },
{ "type": "Feature", "properties": { "field_1": 1361300, "field_2": "Sungai/ Rawa", "field_3": "Alur Irigasi", "field_4": 647300.5, "field_5": 9223131.5 }, "geometry": { "type": "Point", "coordinates": [ 112.333584519948971, -7.026322931739211 ] } },
{ "type": "Feature", "properties": { "field_1": 1361333, "field_2": "Sungai/ Rawa", "field_3": "Alur Irigasi", "field_4": 647300.5, "field_5": 9222719.0 }, "geometry": { "type": "Point", "coordinates": [ 112.333595155808652, -7.030053370271874 ] } },
{ "type": "Feature", "properties": { "field_1": 1361335, "field_2": "Sungai/ Rawa", "field_3": "Alur Irigasi", "field_4": 647300.5, "field_5": 9222694.0 }, "geometry": { "type": "Point", "coordinates": [ 112.333595800592178, -7.030279457436117 ] } },
{ "type": "Feature", "properties": { "field_1": 1361387, "field_2": "Sungai/ Rawa", "field_3": "Alur Irigasi", "field_4": 647300.5, "field_5": 9222044.0 }, "geometry": { "type": "Point", "coordinates": [ 112.333612572424855, -7.036157722921527 ] } },
{ "type": "Feature", "properties": { "field_1": 1361535, "field_2": "Sungai/ Rawa", "field_3": "Alur Irigasi", "field_4": 647300.5, "field_5": 9220194.0 }, "geometry": { "type": "Point", "coordinates": [ 112.333660386293019, -7.052888162559316 ] } },
{ "type": "Feature", "properties": { "field_1": 1361661, "field_2": "Sungai/ Rawa", "field_3": "Alur Irigasi", "field_4": 647300.5, "field_5": 9218619.0 }, "geometry": { "type": "Point", "coordinates": [ 112.333701184442162, -7.067131635277124 ] } },
{ "type": "Feature", "properties": { "field_1": 1361726, "field_2": "Sungai/ Rawa", "field_3": "Alur Irigasi", "field_4": 647300.5, "field_5": 9217806.59 }, "geometry": { "type": "Point", "coordinates": [ 112.333722261767605, -7.074478641106448 ] } },
{ "type": "Feature", "properties": { "field_1": 1361743, "field_2": "Sungai/ Rawa", "field_3": "Alur Irigasi", "field_4": 647300.5, "field_5": 9217594.0 }, "geometry": { "type": "Point", "coordinates": [ 112.333727780951492, -7.076401192097681 ] } },
{ "type": "Feature", "properties": { "field_1": 1361776, "field_2": "Sungai/ Rawa", "field_3": "Alur Irigasi", "field_4": 647300.5, "field_5": 9217181.59 }, "geometry": { "type": "Point", "coordinates": [ 112.333738492174263, -7.080130808522067 ] } },
{ "type": "Feature", "properties": { "field_1": 1361783, "field_2": "Sungai/ Rawa", "field_3": "Alur Irigasi", "field_4": 647300.5, "field_5": 9217094.0 }, "geometry": { "type": "Point", "coordinates": [ 112.33374076783025, -7.080922925759985 ] } },
{ "type": "Feature", "properties": { "field_1": 1361801, "field_2": "Sungai/ Rawa", "field_3": "Alur Irigasi", "field_4": 647300.5, "field_5": 9216869.0 }, "geometry": { "type": "Point", "coordinates": [ 112.333746614700942, -7.082957705614264 ] } },
{ "type": "Feature", "properties": { "field_1": 1361910, "field_2": "Sungai/ Rawa", "field_3": "Alur Irigasi", "field_4": 647300.5, "field_5": 9215506.59 }, "geometry": { "type": "Point", "coordinates": [ 112.333782055209298, -7.095278610255219 ] } },
{ "type": "Feature", "properties": { "field_1": 1362018, "field_2": "Sungai/ Rawa", "field_3": "Alur Irigasi", "field_4": 647300.5, "field_5": 9214156.59 }, "geometry": { "type": "Point", "coordinates": [ 112.333817235202844, -7.10748727891042 ] } },
{ "type": "Feature", "properties": { "field_1": 1362136, "field_2": "Sungai/ Rawa", "field_3": "Alur Irigasi", "field_4": 647300.5, "field_5": 9212681.59 }, "geometry": { "type": "Point", "coordinates": [ 112.333855743515542, -7.120826372315891 ] } },
{ "type": "Feature", "properties": { "field_1": 1421053, "field_2": "Sungai/ Rawa", "field_3": "Alur Irigasi", "field_4": 650300.5, "field_5": 9225169.0 }, "geometry": { "type": "Point", "coordinates": [ 112.36068632731525, -7.007818978526315 ] } },
{ "type": "Feature", "properties": { "field_1": 1421092, "field_2": "Sungai/ Rawa", "field_3": "Alur Irigasi", "field_4": 650300.5, "field_5": 9224681.5 }, "geometry": { "type": "Point", "coordinates": [ 112.360699118899703, -7.012227632650668 ] } },
{ "type": "Feature", "properties": { "field_1": 1421265, "field_2": "Sungai/ Rawa", "field_3": "Alur Irigasi", "field_4": 650300.5, "field_5": 9222519.0 }, "geometry": { "type": "Point", "coordinates": [ 112.360755960470058, -7.031783959935838 ] } },
{ "type": "Feature", "properties": { "field_1": 1421288, "field_2": "Sungai/ Rawa", "field_3": "Alur Irigasi", "field_4": 650300.5, "field_5": 9222231.5 }, "geometry": { "type": "Point", "coordinates": [ 112.360763529662322, -7.034383932823279 ] } },
{ "type": "Feature", "properties": { "field_1": 1421292, "field_2": "Sungai/ Rawa", "field_3": "Alur Irigasi", "field_4": 650300.5, "field_5": 9222181.5 }, "geometry": { "type": "Point", "coordinates": [ 112.36076484633638, -7.034836101990868 ] } },
{ "type": "Feature", "properties": { "field_1": 1421323, "field_2": "Sungai/ Rawa", "field_3": "Alur Irigasi", "field_4": 650300.5, "field_5": 9221794.0 }, "geometry": { "type": "Point", "coordinates": [ 112.360775053501897, -7.038340412735951 ] } },
{ "type": "Feature", "properties": { "field_1": 1421334, "field_2": "Sungai/ Rawa", "field_3": "Alur Irigasi", "field_4": 650300.5, "field_5": 9221656.5 }, "geometry": { "type": "Point", "coordinates": [ 112.36077867665189, -7.039583877709678 ] } },
{ "type": "Feature", "properties": { "field_1": 1421334, "field_2": "Sungai/ Rawa", "field_3": "Alur Irigasi", "field_4": 650300.5, "field_5": 9221656.5 }, "geometry": { "type": "Point", "coordinates": [ 112.36077867665189, -7.039583877709678 ] } },
{ "type": "Feature", "properties": { "field_1": 1421335, "field_2": "Sungai/ Rawa", "field_3": "Alur Irigasi", "field_4": 650300.5, "field_5": 9221644.0 }, "geometry": { "type": "Point", "coordinates": [ 112.360779006061705, -7.039696919976655 ] } },
{ "type": "Feature", "properties": { "field_1": 1421336, "field_2": "Sungai/ Rawa", "field_3": "Alur Irigasi", "field_4": 650300.5, "field_5": 9221631.5 }, "geometry": { "type": "Point", "coordinates": [ 112.360779335476934, -7.039809962243072 ] } },
{ "type": "Feature", "properties": { "field_1": 1421369, "field_2": "Sungai/ Rawa", "field_3": "Alur Irigasi", "field_4": 650300.5, "field_5": 9221219.0 }, "geometry": { "type": "Point", "coordinates": [ 112.360790209221577, -7.043540356720524 ] } },
{ "type": "Feature", "properties": { "field_1": 1421407, "field_2": "Sungai/ Rawa", "field_3": "Alur Irigasi", "field_4": 650300.5, "field_5": 9220744.0 }, "geometry": { "type": "Point", "coordinates": [ 112.360802737818489, -7.047835961726306 ] } },
{ "type": "Feature", "properties": { "field_1": 1421419, "field_2": "Sungai/ Rawa", "field_3": "Alur Irigasi", "field_4": 650300.5, "field_5": 9220594.0 }, "geometry": { "type": "Point", "coordinates": [ 112.36080669584436, -7.04919246840201 ] } },
{ "type": "Feature", "properties": { "field_1": 1421431, "field_2": "Sungai/ Rawa", "field_3": "Alur Irigasi", "field_4": 650300.5, "field_5": 9220444.0 }, "geometry": { "type": "Point", "coordinates": [ 112.360810654651175, -7.050548974996939 ] } },
{ "type": "Feature", "properties": { "field_1": 1421432, "field_2": "Sungai/ Rawa", "field_3": "Alur Irigasi", "field_4": 650300.5, "field_5": 9220431.59 }, "geometry": { "type": "Point", "coordinates": [ 112.360810982211419, -7.05066120330561 ] } },
{ "type": "Feature", "properties": { "field_1": 1421474, "field_2": "Sungai/ Rawa", "field_3": "Alur Irigasi", "field_4": 650300.5, "field_5": 9219906.59 }, "geometry": { "type": "Point", "coordinates": [ 112.360824844411198, -7.055408975728136 ] } },
{ "type": "Feature", "properties": { "field_1": 1421480, "field_2": "Sungai/ Rawa", "field_3": "Alur Irigasi", "field_4": 650300.5, "field_5": 9219831.59 }, "geometry": { "type": "Point", "coordinates": [ 112.360826825506408, -7.056087228850524 ] } },
{ "type": "Feature", "properties": { "field_1": 1421488, "field_2": "Sungai/ Rawa", "field_3": "Alur Irigasi", "field_4": 650300.5, "field_5": 9219731.59 }, "geometry": { "type": "Point", "coordinates": [ 112.360829467270392, -7.056991566315596 ] } },
{ "type": "Feature", "properties": { "field_1": 1421547, "field_2": "Sungai/ Rawa", "field_3": "Alur Irigasi", "field_4": 650300.5, "field_5": 9218994.0 }, "geometry": { "type": "Point", "coordinates": [ 112.36084896337951, -7.063661867913789 ] } },
{ "type": "Feature", "properties": { "field_1": 1421548, "field_2": "Sungai/ Rawa", "field_3": "Alur Irigasi", "field_4": 650300.5, "field_5": 9218981.59 }, "geometry": { "type": "Point", "coordinates": [ 112.36084929156435, -7.063774096157784 ] } },
{ "type": "Feature", "properties": { "field_1": 1421560, "field_2": "Sungai/ Rawa", "field_3": "Alur Irigasi", "field_4": 650300.5, "field_5": 9218831.59 }, "geometry": { "type": "Point", "coordinates": [ 112.360853258766198, -7.065130601883467 ] } },
{ "type": "Feature", "properties": { "field_1": 1421589, "field_2": "Sungai/ Rawa", "field_3": "Alur Irigasi", "field_4": 650300.5, "field_5": 9218469.0 }, "geometry": { "type": "Point", "coordinates": [ 112.360862851776886, -7.068409637622907 ] } },
{ "type": "Feature", "properties": { "field_1": 1421643, "field_2": "Sungai/ Rawa", "field_3": "Alur Irigasi", "field_4": 650300.5, "field_5": 9217794.0 }, "geometry": { "type": "Point", "coordinates": [ 112.360880722347147, -7.074513911505272 ] } },
{ "type": "Feature", "properties": { "field_1": 1421735, "field_2": "Sungai/ Rawa", "field_3": "Alur Irigasi", "field_4": 650300.5, "field_5": 9216644.0 }, "geometry": { "type": "Point", "coordinates": [ 112.360911204935078, -7.084913781745786 ] } },
{ "type": "Feature", "properties": { "field_1": 1421910, "field_2": "Sungai/ Rawa", "field_3": "Alur Irigasi", "field_4": 650300.5, "field_5": 9214456.59 }, "geometry": { "type": "Point", "coordinates": [ 112.360969312471369, -7.104695316538565 ] } },
{ "type": "Feature", "properties": { "field_1": 1422206, "field_2": "Sungai/ Rawa", "field_3": "Alur Irigasi", "field_4": 650300.5, "field_5": 9210756.59 }, "geometry": { "type": "Point", "coordinates": [ 112.361067979523668, -7.138155706903382 ] } },
{ "type": "Feature", "properties": { "field_1": 1422529, "field_2": "Sungai/ Rawa", "field_3": "Alur Irigasi", "field_4": 650300.5, "field_5": 9206719.0 }, "geometry": { "type": "Point", "coordinates": [ 112.361176191676734, -7.174668984591705 ] } },
{ "type": "Feature", "properties": { "field_1": 1441018, "field_2": "Sungai/ Rawa", "field_3": "Alur Irigasi", "field_4": 651300.5, "field_5": 9224656.5 }, "geometry": { "type": "Point", "coordinates": [ 112.369751214475272, -7.012427405210047 ] } },
{ "type": "Feature", "properties": { "field_1": 1441390, "field_2": "Sungai/ Rawa", "field_3": "Alur Irigasi", "field_4": 651300.5, "field_5": 9220006.59 }, "geometry": { "type": "Point", "coordinates": [ 112.369874456408454, -7.054478166633447 ] } },
{ "type": "Feature", "properties": { "field_1": 1441400, "field_2": "Sungai/ Rawa", "field_3": "Alur Irigasi", "field_4": 651300.5, "field_5": 9219881.59 }, "geometry": { "type": "Point", "coordinates": [ 112.369877779853439, -7.055608584254464 ] } },
{ "type": "Feature", "properties": { "field_1": 1441407, "field_2": "Sungai/ Rawa", "field_3": "Alur Irigasi", "field_4": 651300.5, "field_5": 9219794.0 }, "geometry": { "type": "Point", "coordinates": [ 112.369880108983125, -7.056400690456397 ] } },
{ "type": "Feature", "properties": { "field_1": 1321375, "field_2": "Sungai/ Rawa", "field_3": "Alur Irigasi", "field_4": 645300.5, "field_5": 9222194.0 }, "geometry": { "type": "Point", "coordinates": [ 112.315504652670299, -7.034852419508896 ] } },
{ "type": "Feature", "properties": { "field_1": 1321009, "field_2": "Sungai/ Rawa", "field_3": "Alur Irigasi", "field_4": 645300.5, "field_5": 9226769.0 }, "geometry": { "type": "Point", "coordinates": [ 112.315388530350887, -6.99347813531837 ] } },
{ "type": "Feature", "properties": { "field_1": 1321311, "field_2": "Sungai/ Rawa", "field_3": "Alur Irigasi", "field_4": 645300.5, "field_5": 9222994.0 }, "geometry": { "type": "Point", "coordinates": [ 112.315484296478346, -7.027617577388571 ] } },
{ "type": "Feature", "properties": { "field_1": 1321312, "field_2": "Sungai/ Rawa", "field_3": "Alur Irigasi", "field_4": 645300.5, "field_5": 9222981.5 }, "geometry": { "type": "Point", "coordinates": [ 112.315484614378732, -7.027730621814293 ] } },
{ "type": "Feature", "properties": { "field_1": 1302234, "field_2": "Sungai/ Rawa", "field_3": "Alur Irigasi", "field_4": 644300.5, "field_5": 9211856.59 }, "geometry": { "type": "Point", "coordinates": [ 112.306715725920213, -7.128364811868287 ] } },
{ "type": "Feature", "properties": { "field_1": 1322229, "field_2": "Sungai/ Rawa", "field_3": "Alur Irigasi", "field_4": 645300.5, "field_5": 9211519.0 }, "geometry": { "type": "Point", "coordinates": [ 112.315778336030149, -7.13139212408642 ] } },
{ "type": "Feature", "properties": { "field_1": 1322266, "field_2": "Sungai/ Rawa", "field_3": "Alur Irigasi", "field_4": 645300.5, "field_5": 9211056.59 }, "geometry": { "type": "Point", "coordinates": [ 112.315790277647054, -7.135573934445079 ] } },
{ "type": "Feature", "properties": { "field_1": 1322315, "field_2": "Sungai/ Rawa", "field_3": "Alur Irigasi", "field_4": 645300.5, "field_5": 9210444.0 }, "geometry": { "type": "Point", "coordinates": [ 112.315806108681358, -7.141113898233442 ] } },
{ "type": "Feature", "properties": { "field_1": 1322313, "field_2": "Sungai/ Rawa", "field_3": "Alur Irigasi", "field_4": 645300.5, "field_5": 9210469.0 }, "geometry": { "type": "Point", "coordinates": [ 112.315805462364949, -7.140887810510198 ] } },
{ "type": "Feature", "properties": { "field_1": 1322396, "field_2": "Sungai/ Rawa", "field_3": "Alur Irigasi", "field_4": 645300.5, "field_5": 9209431.59 }, "geometry": { "type": "Point", "coordinates": [ 112.315832299807596, -7.150269635202266 ] } },
{ "type": "Feature", "properties": { "field_1": 1322440, "field_2": "Sungai/ Rawa", "field_3": "Alur Irigasi", "field_4": 645300.5, "field_5": 9208881.59 }, "geometry": { "type": "Point", "coordinates": [ 112.315846542782836, -7.155243562516636 ] } },
{ "type": "Feature", "properties": { "field_1": 1322469, "field_2": "Sungai/ Rawa", "field_3": "Alur Irigasi", "field_4": 645300.5, "field_5": 9208519.0 }, "geometry": { "type": "Point", "coordinates": [ 112.3158559380866, -7.158522646105777 ] } },
{ "type": "Feature", "properties": { "field_1": 1322623, "field_2": "Sungai/ Rawa", "field_3": "Alur Irigasi", "field_4": 645300.5, "field_5": 9206594.0 }, "geometry": { "type": "Point", "coordinates": [ 112.315905891973543, -7.17593138049629 ] } },
{ "type": "Feature", "properties": { "field_1": 1322645, "field_2": "Sungai/ Rawa", "field_3": "Alur Irigasi", "field_4": 645300.5, "field_5": 9206319.0 }, "geometry": { "type": "Point", "coordinates": [ 112.315913038406237, -7.178418341449646 ] } },
{ "type": "Feature", "properties": { "field_1": 1322272, "field_2": "Sungai/ Rawa", "field_3": "Alur Irigasi", "field_4": 645300.5, "field_5": 9210981.59 }, "geometry": { "type": "Point", "coordinates": [ 112.315792215179187, -7.136252197767904 ] } },
{ "type": "Feature", "properties": { "field_1": 1322311, "field_2": "Sungai/ Rawa", "field_3": "Alur Irigasi", "field_4": 645300.5, "field_5": 9210494.0 }, "geometry": { "type": "Point", "coordinates": [ 112.315804816069516, -7.140661722784683 ] } },
{ "type": "Feature", "properties": { "field_1": 1322102, "field_2": "Sungai/ Rawa", "field_3": "Alur Irigasi", "field_4": 645300.5, "field_5": 9213106.59 }, "geometry": { "type": "Point", "coordinates": [ 112.31573739158182, -7.117034729061443 ] } },
{ "type": "Feature", "properties": { "field_1": 1322103, "field_2": "Sungai/ Rawa", "field_3": "Alur Irigasi", "field_4": 645300.5, "field_5": 9213094.0 }, "geometry": { "type": "Point", "coordinates": [ 112.31573771594897, -7.117148586959479 ] } },
{ "type": "Feature", "properties": { "field_1": 1321719, "field_2": "Sungai/ Rawa", "field_3": "Alur Irigasi", "field_4": 645300.5, "field_5": 9217894.0 }, "geometry": { "type": "Point", "coordinates": [ 112.315614435103228, -7.073739656630973 ] } },
{ "type": "Feature", "properties": { "field_1": 1321720, "field_2": "Sungai/ Rawa", "field_3": "Alur Irigasi", "field_4": 645300.5, "field_5": 9217881.59 }, "geometry": { "type": "Point", "coordinates": [ 112.315614752838385, -7.073851886909967 ] } }
]
}
