{
"type": "FeatureCollection",
"name": "Bahaya_Listrik",
"crs": { "type": "name", "properties": { "name": "urn:ogc:def:crs:OGC:1.3:CRS84" } },
"features": [
{ "type": "Feature", "properties": { "field_1": 1211134, "field_2": "Lainnya", "field_3": "Bahaya Listrik", "field_4": 624644.3, "field_5": 9218800.3 }, "geometry": { "type": "Point", "coordinates": [ 112.128591010225875, -7.066033717073378 ] } },
{ "type": "Feature", "properties": { "field_1": 1211135, "field_2": "Lainnya", "field_3": "Bahaya Listrik", "field_4": 624656.8, "field_5": 9218800.3 }, "geometry": { "type": "Point", "coordinates": [ 112.128704176437779, -7.066033443090458 ] } },
{ "type": "Feature", "properties": { "field_1": 1211136, "field_2": "Lainnya", "field_3": "Bahaya Listrik", "field_4": 624669.3, "field_5": 9218800.3 }, "geometry": { "type": "Point", "coordinates": [ 112.128817342645206, -7.06603316908008 ] } },
{ "type": "Feature", "properties": { "field_1": 1211137, "field_2": "Lainnya", "field_3": "Bahaya Listrik", "field_4": 624681.8, "field_5": 9218800.3 }, "geometry": { "type": "Point", "coordinates": [ 112.128930508848114, -7.066032895042245 ] } },
{ "type": "Feature", "properties": { "field_1": 1211138, "field_2": "Lainnya", "field_3": "Bahaya Listrik", "field_4": 624694.3, "field_5": 9218800.3 }, "geometry": { "type": "Point", "coordinates": [ 112.129043675046532, -7.066032620976952 ] } },
{ "type": "Feature", "properties": { "field_1": 1211139, "field_2": "Lainnya", "field_3": "Bahaya Listrik", "field_4": 624706.8, "field_5": 9218800.3 }, "geometry": { "type": "Point", "coordinates": [ 112.12915684124043, -7.066032346884201 ] } },
{ "type": "Feature", "properties": { "field_1": 1021001, "field_2": "Lainnya", "field_3": "Bahaya Listrik", "field_4": 630300.5, "field_5": 9225969.0 }, "geometry": { "type": "Point", "coordinates": [ 112.179634164223174, -7.00107305874424 ] } },
{ "type": "Feature", "properties": { "field_1": 1021002, "field_2": "Lainnya", "field_3": "Bahaya Listrik", "field_4": 630300.5, "field_5": 9225956.5 }, "geometry": { "type": "Point", "coordinates": [ 112.179634448211289, -7.00118610917283 ] } },
{ "type": "Feature", "properties": { "field_1": 1021003, "field_2": "Lainnya", "field_3": "Bahaya Listrik", "field_4": 630300.5, "field_5": 9225944.0 }, "geometry": { "type": "Point", "coordinates": [ 112.179634732204121, -7.001299159600863 ] } },
{ "type": "Feature", "properties": { "field_1": 1021004, "field_2": "Lainnya", "field_3": "Bahaya Listrik", "field_4": 630300.5, "field_5": 9225931.5 }, "geometry": { "type": "Point", "coordinates": [ 112.179635016201644, -7.001412210028346 ] } },
{ "type": "Feature", "properties": { "field_1": 1021005, "field_2": "Lainnya", "field_3": "Bahaya Listrik", "field_4": 630300.5, "field_5": 9225919.0 }, "geometry": { "type": "Point", "coordinates": [ 112.17963530020387, -7.001525260455272 ] } },
{ "type": "Feature", "properties": { "field_1": 1021006, "field_2": "Lainnya", "field_3": "Bahaya Listrik", "field_4": 630300.5, "field_5": 9225906.5 }, "geometry": { "type": "Point", "coordinates": [ 112.1796355842108, -7.001638310881645 ] } },
{ "type": "Feature", "properties": { "field_1": 1021007, "field_2": "Lainnya", "field_3": "Bahaya Listrik", "field_4": 630300.5, "field_5": 9225894.0 }, "geometry": { "type": "Point", "coordinates": [ 112.17963586822242, -7.001751361307466 ] } },
{ "type": "Feature", "properties": { "field_1": 1021008, "field_2": "Lainnya", "field_3": "Bahaya Listrik", "field_4": 630300.5, "field_5": 9225881.5 }, "geometry": { "type": "Point", "coordinates": [ 112.179636152238743, -7.001864411732733 ] } },
{ "type": "Feature", "properties": { "field_1": 1021009, "field_2": "Lainnya", "field_3": "Bahaya Listrik", "field_4": 630300.5, "field_5": 9225869.0 }, "geometry": { "type": "Point", "coordinates": [ 112.17963643625977, -7.001977462157446 ] } },
{ "type": "Feature", "properties": { "field_1": 1021010, "field_2": "Lainnya", "field_3": "Bahaya Listrik", "field_4": 630300.5, "field_5": 9225856.5 }, "geometry": { "type": "Point", "coordinates": [ 112.179636720285487, -7.002090512581606 ] } },
{ "type": "Feature", "properties": { "field_1": 1021011, "field_2": "Lainnya", "field_3": "Bahaya Listrik", "field_4": 630300.5, "field_5": 9225844.0 }, "geometry": { "type": "Point", "coordinates": [ 112.179637004315921, -7.002203563005213 ] } },
{ "type": "Feature", "properties": { "field_1": 1021012, "field_2": "Lainnya", "field_3": "Bahaya Listrik", "field_4": 630300.5, "field_5": 9225831.5 }, "geometry": { "type": "Point", "coordinates": [ 112.179637288351046, -7.002316613428264 ] } },
{ "type": "Feature", "properties": { "field_1": 1021013, "field_2": "Lainnya", "field_3": "Bahaya Listrik", "field_4": 630300.5, "field_5": 9225819.0 }, "geometry": { "type": "Point", "coordinates": [ 112.17963757239086, -7.002429663850763 ] } },
{ "type": "Feature", "properties": { "field_1": 1021014, "field_2": "Lainnya", "field_3": "Bahaya Listrik", "field_4": 630300.5, "field_5": 9225806.5 }, "geometry": { "type": "Point", "coordinates": [ 112.179637856435392, -7.002542714272709 ] } },
{ "type": "Feature", "properties": { "field_1": 1021015, "field_2": "Lainnya", "field_3": "Bahaya Listrik", "field_4": 630300.5, "field_5": 9225794.0 }, "geometry": { "type": "Point", "coordinates": [ 112.179638140484599, -7.002655764694101 ] } },
{ "type": "Feature", "properties": { "field_1": 1021016, "field_2": "Lainnya", "field_3": "Bahaya Listrik", "field_4": 630300.5, "field_5": 9225781.5 }, "geometry": { "type": "Point", "coordinates": [ 112.179638424538524, -7.00276881511494 ] } },
{ "type": "Feature", "properties": { "field_1": 1021017, "field_2": "Lainnya", "field_3": "Bahaya Listrik", "field_4": 630300.5, "field_5": 9225769.0 }, "geometry": { "type": "Point", "coordinates": [ 112.179638708597153, -7.002881865535225 ] } },
{ "type": "Feature", "properties": { "field_1": 1021018, "field_2": "Lainnya", "field_3": "Bahaya Listrik", "field_4": 630300.5, "field_5": 9225756.5 }, "geometry": { "type": "Point", "coordinates": [ 112.179638992660472, -7.002994915954956 ] } },
{ "type": "Feature", "properties": { "field_1": 1021019, "field_2": "Lainnya", "field_3": "Bahaya Listrik", "field_4": 630300.5, "field_5": 9225744.0 }, "geometry": { "type": "Point", "coordinates": [ 112.179639276728494, -7.003107966374134 ] } },
{ "type": "Feature", "properties": { "field_1": 1021020, "field_2": "Lainnya", "field_3": "Bahaya Listrik", "field_4": 630300.5, "field_5": 9225731.5 }, "geometry": { "type": "Point", "coordinates": [ 112.179639560801206, -7.003221016792756 ] } },
{ "type": "Feature", "properties": { "field_1": 1021021, "field_2": "Lainnya", "field_3": "Bahaya Listrik", "field_4": 630300.5, "field_5": 9225719.0 }, "geometry": { "type": "Point", "coordinates": [ 112.179639844878636, -7.003334067210829 ] } },
{ "type": "Feature", "properties": { "field_1": 1021022, "field_2": "Lainnya", "field_3": "Bahaya Listrik", "field_4": 630300.5, "field_5": 9225706.5 }, "geometry": { "type": "Point", "coordinates": [ 112.179640128960756, -7.003447117628344 ] } },
{ "type": "Feature", "properties": { "field_1": 1021023, "field_2": "Lainnya", "field_3": "Bahaya Listrik", "field_4": 630300.5, "field_5": 9225694.0 }, "geometry": { "type": "Point", "coordinates": [ 112.179640413047565, -7.003560168045307 ] } },
{ "type": "Feature", "properties": { "field_1": 1021024, "field_2": "Lainnya", "field_3": "Bahaya Listrik", "field_4": 630300.5, "field_5": 9225681.5 }, "geometry": { "type": "Point", "coordinates": [ 112.179640697139078, -7.003673218461716 ] } },
{ "type": "Feature", "properties": { "field_1": 1021025, "field_2": "Lainnya", "field_3": "Bahaya Listrik", "field_4": 630300.5, "field_5": 9225669.0 }, "geometry": { "type": "Point", "coordinates": [ 112.179640981235295, -7.003786268877572 ] } },
{ "type": "Feature", "properties": { "field_1": 1021026, "field_2": "Lainnya", "field_3": "Bahaya Listrik", "field_4": 630300.5, "field_5": 9225656.5 }, "geometry": { "type": "Point", "coordinates": [ 112.179641265336215, -7.003899319292873 ] } },
{ "type": "Feature", "properties": { "field_1": 1021027, "field_2": "Lainnya", "field_3": "Bahaya Listrik", "field_4": 630300.5, "field_5": 9225644.0 }, "geometry": { "type": "Point", "coordinates": [ 112.17964154944184, -7.00401236970762 ] } },
{ "type": "Feature", "properties": { "field_1": 1021028, "field_2": "Lainnya", "field_3": "Bahaya Listrik", "field_4": 630300.5, "field_5": 9225631.5 }, "geometry": { "type": "Point", "coordinates": [ 112.179641833552168, -7.004125420121816 ] } },
{ "type": "Feature", "properties": { "field_1": 1021029, "field_2": "Lainnya", "field_3": "Bahaya Listrik", "field_4": 630300.5, "field_5": 9225619.0 }, "geometry": { "type": "Point", "coordinates": [ 112.179642117667171, -7.004238470535457 ] } },
{ "type": "Feature", "properties": { "field_1": 1021030, "field_2": "Lainnya", "field_3": "Bahaya Listrik", "field_4": 630300.5, "field_5": 9225606.5 }, "geometry": { "type": "Point", "coordinates": [ 112.179642401786893, -7.004351520948545 ] } },
{ "type": "Feature", "properties": { "field_1": 1021031, "field_2": "Lainnya", "field_3": "Bahaya Listrik", "field_4": 630300.5, "field_5": 9225594.0 }, "geometry": { "type": "Point", "coordinates": [ 112.179642685911304, -7.004464571361078 ] } },
{ "type": "Feature", "properties": { "field_1": 1021032, "field_2": "Lainnya", "field_3": "Bahaya Listrik", "field_4": 630300.5, "field_5": 9225581.5 }, "geometry": { "type": "Point", "coordinates": [ 112.179642970040433, -7.004577621773057 ] } },
{ "type": "Feature", "properties": { "field_1": 1021033, "field_2": "Lainnya", "field_3": "Bahaya Listrik", "field_4": 630300.5, "field_5": 9225569.0 }, "geometry": { "type": "Point", "coordinates": [ 112.179643254174238, -7.004690672184482 ] } },
{ "type": "Feature", "properties": { "field_1": 1021034, "field_2": "Lainnya", "field_3": "Bahaya Listrik", "field_4": 630300.5, "field_5": 9225556.5 }, "geometry": { "type": "Point", "coordinates": [ 112.17964353831276, -7.004803722595354 ] } },
{ "type": "Feature", "properties": { "field_1": 1021035, "field_2": "Lainnya", "field_3": "Bahaya Listrik", "field_4": 630300.5, "field_5": 9225544.0 }, "geometry": { "type": "Point", "coordinates": [ 112.179643822455972, -7.004916773005674 ] } },
{ "type": "Feature", "properties": { "field_1": 1021036, "field_2": "Lainnya", "field_3": "Bahaya Listrik", "field_4": 630300.5, "field_5": 9225531.5 }, "geometry": { "type": "Point", "coordinates": [ 112.179644106603888, -7.005029823415438 ] } },
{ "type": "Feature", "properties": { "field_1": 1021037, "field_2": "Lainnya", "field_3": "Bahaya Listrik", "field_4": 630300.5, "field_5": 9225519.0 }, "geometry": { "type": "Point", "coordinates": [ 112.179644390756494, -7.005142873824649 ] } },
{ "type": "Feature", "properties": { "field_1": 1021038, "field_2": "Lainnya", "field_3": "Bahaya Listrik", "field_4": 630300.5, "field_5": 9225506.5 }, "geometry": { "type": "Point", "coordinates": [ 112.179644674913817, -7.005255924233307 ] } },
{ "type": "Feature", "properties": { "field_1": 1021039, "field_2": "Lainnya", "field_3": "Bahaya Listrik", "field_4": 630300.5, "field_5": 9225494.0 }, "geometry": { "type": "Point", "coordinates": [ 112.17964495907583, -7.005368974641409 ] } },
{ "type": "Feature", "properties": { "field_1": 1021040, "field_2": "Lainnya", "field_3": "Bahaya Listrik", "field_4": 630300.5, "field_5": 9225481.5 }, "geometry": { "type": "Point", "coordinates": [ 112.179645243242547, -7.005482025048959 ] } },
{ "type": "Feature", "properties": { "field_1": 1021041, "field_2": "Lainnya", "field_3": "Bahaya Listrik", "field_4": 630300.5, "field_5": 9225469.0 }, "geometry": { "type": "Point", "coordinates": [ 112.179645527413953, -7.005595075455956 ] } },
{ "type": "Feature", "properties": { "field_1": 1021042, "field_2": "Lainnya", "field_3": "Bahaya Listrik", "field_4": 630300.5, "field_5": 9225456.5 }, "geometry": { "type": "Point", "coordinates": [ 112.179645811590063, -7.005708125862397 ] } },
{ "type": "Feature", "properties": { "field_1": 1021043, "field_2": "Lainnya", "field_3": "Bahaya Listrik", "field_4": 630300.5, "field_5": 9225444.0 }, "geometry": { "type": "Point", "coordinates": [ 112.179646095770877, -7.005821176268284 ] } },
{ "type": "Feature", "properties": { "field_1": 1021044, "field_2": "Lainnya", "field_3": "Bahaya Listrik", "field_4": 630300.5, "field_5": 9225431.5 }, "geometry": { "type": "Point", "coordinates": [ 112.179646379956395, -7.005934226673618 ] } },
{ "type": "Feature", "properties": { "field_1": 1021045, "field_2": "Lainnya", "field_3": "Bahaya Listrik", "field_4": 630300.5, "field_5": 9225419.0 }, "geometry": { "type": "Point", "coordinates": [ 112.179646664146603, -7.006047277078399 ] } },
{ "type": "Feature", "properties": { "field_1": 1021046, "field_2": "Lainnya", "field_3": "Bahaya Listrik", "field_4": 630300.5, "field_5": 9225406.5 }, "geometry": { "type": "Point", "coordinates": [ 112.179646948341514, -7.006160327482625 ] } },
{ "type": "Feature", "properties": { "field_1": 1021047, "field_2": "Lainnya", "field_3": "Bahaya Listrik", "field_4": 630300.5, "field_5": 9225394.0 }, "geometry": { "type": "Point", "coordinates": [ 112.179647232541143, -7.006273377886298 ] } },
{ "type": "Feature", "properties": { "field_1": 1021048, "field_2": "Lainnya", "field_3": "Bahaya Listrik", "field_4": 630300.5, "field_5": 9225381.5 }, "geometry": { "type": "Point", "coordinates": [ 112.179647516745447, -7.006386428289417 ] } },
{ "type": "Feature", "properties": { "field_1": 1021049, "field_2": "Lainnya", "field_3": "Bahaya Listrik", "field_4": 630300.5, "field_5": 9225369.0 }, "geometry": { "type": "Point", "coordinates": [ 112.17964780095447, -7.006499478691982 ] } },
{ "type": "Feature", "properties": { "field_1": 1021050, "field_2": "Lainnya", "field_3": "Bahaya Listrik", "field_4": 630300.5, "field_5": 9225356.5 }, "geometry": { "type": "Point", "coordinates": [ 112.179648085168168, -7.006612529093993 ] } },
{ "type": "Feature", "properties": { "field_1": 1021051, "field_2": "Lainnya", "field_3": "Bahaya Listrik", "field_4": 630300.5, "field_5": 9225344.0 }, "geometry": { "type": "Point", "coordinates": [ 112.179648369386584, -7.00672557949545 ] } },
{ "type": "Feature", "properties": { "field_1": 1021052, "field_2": "Lainnya", "field_3": "Bahaya Listrik", "field_4": 630300.5, "field_5": 9225331.5 }, "geometry": { "type": "Point", "coordinates": [ 112.179648653609704, -7.006838629896353 ] } },
{ "type": "Feature", "properties": { "field_1": 1021053, "field_2": "Lainnya", "field_3": "Bahaya Listrik", "field_4": 630300.5, "field_5": 9225319.0 }, "geometry": { "type": "Point", "coordinates": [ 112.179648937837499, -7.006951680296703 ] } },
{ "type": "Feature", "properties": { "field_1": 1021054, "field_2": "Lainnya", "field_3": "Bahaya Listrik", "field_4": 630300.5, "field_5": 9225306.5 }, "geometry": { "type": "Point", "coordinates": [ 112.179649222070026, -7.007064730696498 ] } },
{ "type": "Feature", "properties": { "field_1": 1021055, "field_2": "Lainnya", "field_3": "Bahaya Listrik", "field_4": 630300.5, "field_5": 9225294.0 }, "geometry": { "type": "Point", "coordinates": [ 112.179649506307229, -7.007177781095739 ] } },
{ "type": "Feature", "properties": { "field_1": 1021056, "field_2": "Lainnya", "field_3": "Bahaya Listrik", "field_4": 630300.5, "field_5": 9225281.5 }, "geometry": { "type": "Point", "coordinates": [ 112.179649790549135, -7.007290831494426 ] } },
{ "type": "Feature", "properties": { "field_1": 1021057, "field_2": "Lainnya", "field_3": "Bahaya Listrik", "field_4": 630300.5, "field_5": 9225269.0 }, "geometry": { "type": "Point", "coordinates": [ 112.179650074795759, -7.007403881892559 ] } },
{ "type": "Feature", "properties": { "field_1": 1021058, "field_2": "Lainnya", "field_3": "Bahaya Listrik", "field_4": 630300.5, "field_5": 9225256.5 }, "geometry": { "type": "Point", "coordinates": [ 112.179650359047059, -7.00751693229014 ] } },
{ "type": "Feature", "properties": { "field_1": 1021059, "field_2": "Lainnya", "field_3": "Bahaya Listrik", "field_4": 630300.5, "field_5": 9225244.0 }, "geometry": { "type": "Point", "coordinates": [ 112.179650643303077, -7.007629982687165 ] } },
{ "type": "Feature", "properties": { "field_1": 1021060, "field_2": "Lainnya", "field_3": "Bahaya Listrik", "field_4": 630300.5, "field_5": 9225231.5 }, "geometry": { "type": "Point", "coordinates": [ 112.179650927563785, -7.007743033083636 ] } },
{ "type": "Feature", "properties": { "field_1": 1021061, "field_2": "Lainnya", "field_3": "Bahaya Listrik", "field_4": 630300.5, "field_5": 9225219.0 }, "geometry": { "type": "Point", "coordinates": [ 112.179651211829196, -7.007856083479553 ] } },
{ "type": "Feature", "properties": { "field_1": 1021062, "field_2": "Lainnya", "field_3": "Bahaya Listrik", "field_4": 630300.5, "field_5": 9225206.5 }, "geometry": { "type": "Point", "coordinates": [ 112.179651496099311, -7.007969133874916 ] } },
{ "type": "Feature", "properties": { "field_1": 1021063, "field_2": "Lainnya", "field_3": "Bahaya Listrik", "field_4": 630300.5, "field_5": 9225194.0 }, "geometry": { "type": "Point", "coordinates": [ 112.179651780374115, -7.008082184269726 ] } },
{ "type": "Feature", "properties": { "field_1": 1021064, "field_2": "Lainnya", "field_3": "Bahaya Listrik", "field_4": 630300.5, "field_5": 9225181.5 }, "geometry": { "type": "Point", "coordinates": [ 112.179652064653624, -7.008195234663981 ] } },
{ "type": "Feature", "properties": { "field_1": 1021065, "field_2": "Lainnya", "field_3": "Bahaya Listrik", "field_4": 630300.5, "field_5": 9225169.0 }, "geometry": { "type": "Point", "coordinates": [ 112.179652348937836, -7.008308285057684 ] } },
{ "type": "Feature", "properties": { "field_1": 1021066, "field_2": "Lainnya", "field_3": "Bahaya Listrik", "field_4": 630300.5, "field_5": 9225156.5 }, "geometry": { "type": "Point", "coordinates": [ 112.179652633226752, -7.008421335450831 ] } },
{ "type": "Feature", "properties": { "field_1": 1021067, "field_2": "Lainnya", "field_3": "Bahaya Listrik", "field_4": 630300.5, "field_5": 9225144.0 }, "geometry": { "type": "Point", "coordinates": [ 112.179652917520357, -7.008534385843425 ] } },
{ "type": "Feature", "properties": { "field_1": 1021068, "field_2": "Lainnya", "field_3": "Bahaya Listrik", "field_4": 630300.5, "field_5": 9225131.5 }, "geometry": { "type": "Point", "coordinates": [ 112.179653201818653, -7.008647436235464 ] } },
{ "type": "Feature", "properties": { "field_1": 1021069, "field_2": "Lainnya", "field_3": "Bahaya Listrik", "field_4": 630300.5, "field_5": 9225119.0 }, "geometry": { "type": "Point", "coordinates": [ 112.17965348612168, -7.008760486626948 ] } },
{ "type": "Feature", "properties": { "field_1": 1021070, "field_2": "Lainnya", "field_3": "Bahaya Listrik", "field_4": 630300.5, "field_5": 9225106.5 }, "geometry": { "type": "Point", "coordinates": [ 112.179653770429383, -7.008873537017881 ] } },
{ "type": "Feature", "properties": { "field_1": 1021071, "field_2": "Lainnya", "field_3": "Bahaya Listrik", "field_4": 630300.5, "field_5": 9225094.0 }, "geometry": { "type": "Point", "coordinates": [ 112.179654054741803, -7.008986587408259 ] } },
{ "type": "Feature", "properties": { "field_1": 1021072, "field_2": "Lainnya", "field_3": "Bahaya Listrik", "field_4": 630300.5, "field_5": 9225081.5 }, "geometry": { "type": "Point", "coordinates": [ 112.179654339058899, -7.009099637798081 ] } },
{ "type": "Feature", "properties": { "field_1": 1021073, "field_2": "Lainnya", "field_3": "Bahaya Listrik", "field_4": 630300.5, "field_5": 9225069.0 }, "geometry": { "type": "Point", "coordinates": [ 112.179654623380713, -7.00921268818735 ] } },
{ "type": "Feature", "properties": { "field_1": 1021074, "field_2": "Lainnya", "field_3": "Bahaya Listrik", "field_4": 630300.5, "field_5": 9225056.5 }, "geometry": { "type": "Point", "coordinates": [ 112.179654907707217, -7.009325738576066 ] } },
{ "type": "Feature", "properties": { "field_1": 1021075, "field_2": "Lainnya", "field_3": "Bahaya Listrik", "field_4": 630300.5, "field_5": 9225044.0 }, "geometry": { "type": "Point", "coordinates": [ 112.179655192038439, -7.009438788964225 ] } },
{ "type": "Feature", "properties": { "field_1": 1021076, "field_2": "Lainnya", "field_3": "Bahaya Listrik", "field_4": 630300.5, "field_5": 9225031.5 }, "geometry": { "type": "Point", "coordinates": [ 112.179655476374336, -7.009551839351833 ] } },
{ "type": "Feature", "properties": { "field_1": 1021077, "field_2": "Lainnya", "field_3": "Bahaya Listrik", "field_4": 630300.5, "field_5": 9225019.0 }, "geometry": { "type": "Point", "coordinates": [ 112.179655760714951, -7.009664889738884 ] } },
{ "type": "Feature", "properties": { "field_1": 1021078, "field_2": "Lainnya", "field_3": "Bahaya Listrik", "field_4": 630300.5, "field_5": 9225006.5 }, "geometry": { "type": "Point", "coordinates": [ 112.179656045060256, -7.009777940125383 ] } },
{ "type": "Feature", "properties": { "field_1": 1021079, "field_2": "Lainnya", "field_3": "Bahaya Listrik", "field_4": 630300.5, "field_5": 9224994.0 }, "geometry": { "type": "Point", "coordinates": [ 112.179656329410278, -7.009890990511328 ] } },
{ "type": "Feature", "properties": { "field_1": 1021080, "field_2": "Lainnya", "field_3": "Bahaya Listrik", "field_4": 630300.5, "field_5": 9224981.5 }, "geometry": { "type": "Point", "coordinates": [ 112.179656613764976, -7.010004040896717 ] } },
{ "type": "Feature", "properties": { "field_1": 1021081, "field_2": "Lainnya", "field_3": "Bahaya Listrik", "field_4": 630300.5, "field_5": 9224969.0 }, "geometry": { "type": "Point", "coordinates": [ 112.179656898124392, -7.010117091281554 ] } },
{ "type": "Feature", "properties": { "field_1": 1021082, "field_2": "Lainnya", "field_3": "Bahaya Listrik", "field_4": 630300.5, "field_5": 9224956.5 }, "geometry": { "type": "Point", "coordinates": [ 112.179657182488498, -7.010230141665835 ] } },
{ "type": "Feature", "properties": { "field_1": 1021083, "field_2": "Lainnya", "field_3": "Bahaya Listrik", "field_4": 630300.5, "field_5": 9224944.0 }, "geometry": { "type": "Point", "coordinates": [ 112.179657466857293, -7.010343192049564 ] } },
{ "type": "Feature", "properties": { "field_1": 1021084, "field_2": "Lainnya", "field_3": "Bahaya Listrik", "field_4": 630300.5, "field_5": 9224931.5 }, "geometry": { "type": "Point", "coordinates": [ 112.17965775123082, -7.010456242432736 ] } },
{ "type": "Feature", "properties": { "field_1": 1021085, "field_2": "Lainnya", "field_3": "Bahaya Listrik", "field_4": 630300.5, "field_5": 9224919.0 }, "geometry": { "type": "Point", "coordinates": [ 112.179658035609023, -7.010569292815355 ] } },
{ "type": "Feature", "properties": { "field_1": 1021086, "field_2": "Lainnya", "field_3": "Bahaya Listrik", "field_4": 630300.5, "field_5": 9224906.5 }, "geometry": { "type": "Point", "coordinates": [ 112.17965831999193, -7.010682343197422 ] } },
{ "type": "Feature", "properties": { "field_1": 1021087, "field_2": "Lainnya", "field_3": "Bahaya Listrik", "field_4": 630300.5, "field_5": 9224894.0 }, "geometry": { "type": "Point", "coordinates": [ 112.17965860437954, -7.010795393578931 ] } },
{ "type": "Feature", "properties": { "field_1": 1021088, "field_2": "Lainnya", "field_3": "Bahaya Listrik", "field_4": 630300.5, "field_5": 9224881.5 }, "geometry": { "type": "Point", "coordinates": [ 112.179658888771854, -7.010908443959888 ] } },
{ "type": "Feature", "properties": { "field_1": 1021089, "field_2": "Lainnya", "field_3": "Bahaya Listrik", "field_4": 630300.5, "field_5": 9224869.0 }, "geometry": { "type": "Point", "coordinates": [ 112.179659173168858, -7.011021494340291 ] } },
{ "type": "Feature", "properties": { "field_1": 1021090, "field_2": "Lainnya", "field_3": "Bahaya Listrik", "field_4": 630300.5, "field_5": 9224856.5 }, "geometry": { "type": "Point", "coordinates": [ 112.179659457570565, -7.011134544720139 ] } },
{ "type": "Feature", "properties": { "field_1": 1021091, "field_2": "Lainnya", "field_3": "Bahaya Listrik", "field_4": 630300.5, "field_5": 9224844.0 }, "geometry": { "type": "Point", "coordinates": [ 112.179659741976977, -7.011247595099433 ] } },
{ "type": "Feature", "properties": { "field_1": 1021092, "field_2": "Lainnya", "field_3": "Bahaya Listrik", "field_4": 630300.5, "field_5": 9224831.5 }, "geometry": { "type": "Point", "coordinates": [ 112.179660026388092, -7.011360645478171 ] } },
{ "type": "Feature", "properties": { "field_1": 1021093, "field_2": "Lainnya", "field_3": "Bahaya Listrik", "field_4": 630300.5, "field_5": 9224819.0 }, "geometry": { "type": "Point", "coordinates": [ 112.179660310803897, -7.011473695856357 ] } },
{ "type": "Feature", "properties": { "field_1": 1021094, "field_2": "Lainnya", "field_3": "Bahaya Listrik", "field_4": 630300.5, "field_5": 9224806.5 }, "geometry": { "type": "Point", "coordinates": [ 112.179660595224405, -7.011586746233987 ] } },
{ "type": "Feature", "properties": { "field_1": 1021095, "field_2": "Lainnya", "field_3": "Bahaya Listrik", "field_4": 630300.5, "field_5": 9224794.0 }, "geometry": { "type": "Point", "coordinates": [ 112.179660879649617, -7.011699796611064 ] } },
{ "type": "Feature", "properties": { "field_1": 1021096, "field_2": "Lainnya", "field_3": "Bahaya Listrik", "field_4": 630300.5, "field_5": 9224781.5 }, "geometry": { "type": "Point", "coordinates": [ 112.179661164079519, -7.011812846987587 ] } },
{ "type": "Feature", "properties": { "field_1": 1021097, "field_2": "Lainnya", "field_3": "Bahaya Listrik", "field_4": 630300.5, "field_5": 9224769.0 }, "geometry": { "type": "Point", "coordinates": [ 112.179661448514139, -7.011925897363556 ] } },
{ "type": "Feature", "properties": { "field_1": 1021098, "field_2": "Lainnya", "field_3": "Bahaya Listrik", "field_4": 630300.5, "field_5": 9224756.5 }, "geometry": { "type": "Point", "coordinates": [ 112.179661732953448, -7.01203894773897 ] } },
{ "type": "Feature", "properties": { "field_1": 1021098, "field_2": "Lainnya", "field_3": "Bahaya Listrik", "field_4": 630300.5, "field_5": 9224756.5 }, "geometry": { "type": "Point", "coordinates": [ 112.179661732953448, -7.01203894773897 ] } },
{ "type": "Feature", "properties": { "field_1": 1021099, "field_2": "Lainnya", "field_3": "Bahaya Listrik", "field_4": 630300.5, "field_5": 9224744.0 }, "geometry": { "type": "Point", "coordinates": [ 112.179662017397462, -7.012151998113828 ] } },
{ "type": "Feature", "properties": { "field_1": 1021099, "field_2": "Lainnya", "field_3": "Bahaya Listrik", "field_4": 630300.5, "field_5": 9224744.0 }, "geometry": { "type": "Point", "coordinates": [ 112.179662017397462, -7.012151998113828 ] } },
{ "type": "Feature", "properties": { "field_1": 1021100, "field_2": "Lainnya", "field_3": "Bahaya Listrik", "field_4": 630300.5, "field_5": 9224731.5 }, "geometry": { "type": "Point", "coordinates": [ 112.179662301846179, -7.012265048488133 ] } },
{ "type": "Feature", "properties": { "field_1": 1021101, "field_2": "Lainnya", "field_3": "Bahaya Listrik", "field_4": 630300.5, "field_5": 9224719.0 }, "geometry": { "type": "Point", "coordinates": [ 112.179662586299571, -7.012378098861886 ] } },
{ "type": "Feature", "properties": { "field_1": 1021102, "field_2": "Lainnya", "field_3": "Bahaya Listrik", "field_4": 630300.5, "field_5": 9224706.5 }, "geometry": { "type": "Point", "coordinates": [ 112.179662870757682, -7.01249114923508 ] } },
{ "type": "Feature", "properties": { "field_1": 1021103, "field_2": "Lainnya", "field_3": "Bahaya Listrik", "field_4": 630300.5, "field_5": 9224694.0 }, "geometry": { "type": "Point", "coordinates": [ 112.179663155220496, -7.012604199607723 ] } },
{ "type": "Feature", "properties": { "field_1": 1021104, "field_2": "Lainnya", "field_3": "Bahaya Listrik", "field_4": 630300.5, "field_5": 9224681.5 }, "geometry": { "type": "Point", "coordinates": [ 112.179663439687999, -7.012717249979811 ] } },
{ "type": "Feature", "properties": { "field_1": 1021105, "field_2": "Lainnya", "field_3": "Bahaya Listrik", "field_4": 630300.5, "field_5": 9224669.0 }, "geometry": { "type": "Point", "coordinates": [ 112.179663724160207, -7.012830300351344 ] } },
{ "type": "Feature", "properties": { "field_1": 1021106, "field_2": "Lainnya", "field_3": "Bahaya Listrik", "field_4": 630300.5, "field_5": 9224656.5 }, "geometry": { "type": "Point", "coordinates": [ 112.179664008637133, -7.012943350722324 ] } },
{ "type": "Feature", "properties": { "field_1": 1021107, "field_2": "Lainnya", "field_3": "Bahaya Listrik", "field_4": 630300.5, "field_5": 9224644.0 }, "geometry": { "type": "Point", "coordinates": [ 112.179664293118734, -7.013056401092749 ] } },
{ "type": "Feature", "properties": { "field_1": 1021108, "field_2": "Lainnya", "field_3": "Bahaya Listrik", "field_4": 630300.5, "field_5": 9224631.5 }, "geometry": { "type": "Point", "coordinates": [ 112.179664577605053, -7.013169451462619 ] } },
{ "type": "Feature", "properties": { "field_1": 1021109, "field_2": "Lainnya", "field_3": "Bahaya Listrik", "field_4": 630300.5, "field_5": 9224619.0 }, "geometry": { "type": "Point", "coordinates": [ 112.179664862096061, -7.013282501831934 ] } },
{ "type": "Feature", "properties": { "field_1": 1021110, "field_2": "Lainnya", "field_3": "Bahaya Listrik", "field_4": 630300.5, "field_5": 9224606.5 }, "geometry": { "type": "Point", "coordinates": [ 112.179665146591773, -7.013395552200695 ] } },
{ "type": "Feature", "properties": { "field_1": 1021111, "field_2": "Lainnya", "field_3": "Bahaya Listrik", "field_4": 630300.5, "field_5": 9224594.0 }, "geometry": { "type": "Point", "coordinates": [ 112.179665431092189, -7.013508602568903 ] } },
{ "type": "Feature", "properties": { "field_1": 1021112, "field_2": "Lainnya", "field_3": "Bahaya Listrik", "field_4": 630300.5, "field_5": 9224581.5 }, "geometry": { "type": "Point", "coordinates": [ 112.179665715597309, -7.013621652936555 ] } },
{ "type": "Feature", "properties": { "field_1": 1021113, "field_2": "Lainnya", "field_3": "Bahaya Listrik", "field_4": 630300.5, "field_5": 9224569.0 }, "geometry": { "type": "Point", "coordinates": [ 112.179666000107105, -7.013734703303653 ] } },
{ "type": "Feature", "properties": { "field_1": 1021114, "field_2": "Lainnya", "field_3": "Bahaya Listrik", "field_4": 630300.5, "field_5": 9224556.5 }, "geometry": { "type": "Point", "coordinates": [ 112.179666284621632, -7.013847753670198 ] } },
{ "type": "Feature", "properties": { "field_1": 1021115, "field_2": "Lainnya", "field_3": "Bahaya Listrik", "field_4": 630300.5, "field_5": 9224544.0 }, "geometry": { "type": "Point", "coordinates": [ 112.179666569140835, -7.013960804036184 ] } },
{ "type": "Feature", "properties": { "field_1": 1021116, "field_2": "Lainnya", "field_3": "Bahaya Listrik", "field_4": 630300.5, "field_5": 9224531.5 }, "geometry": { "type": "Point", "coordinates": [ 112.179666853664756, -7.014073854401621 ] } },
{ "type": "Feature", "properties": { "field_1": 1021117, "field_2": "Lainnya", "field_3": "Bahaya Listrik", "field_4": 630300.5, "field_5": 9224519.0 }, "geometry": { "type": "Point", "coordinates": [ 112.179667138193352, -7.0141869047665 ] } },
{ "type": "Feature", "properties": { "field_1": 1021118, "field_2": "Lainnya", "field_3": "Bahaya Listrik", "field_4": 630300.5, "field_5": 9224506.5 }, "geometry": { "type": "Point", "coordinates": [ 112.179667422726666, -7.014299955130825 ] } },
{ "type": "Feature", "properties": { "field_1": 1021119, "field_2": "Lainnya", "field_3": "Bahaya Listrik", "field_4": 630300.5, "field_5": 9224494.0 }, "geometry": { "type": "Point", "coordinates": [ 112.179667707264684, -7.014413005494598 ] } },
{ "type": "Feature", "properties": { "field_1": 1021120, "field_2": "Lainnya", "field_3": "Bahaya Listrik", "field_4": 630300.5, "field_5": 9224481.5 }, "geometry": { "type": "Point", "coordinates": [ 112.179667991807406, -7.014526055857814 ] } },
{ "type": "Feature", "properties": { "field_1": 1021121, "field_2": "Lainnya", "field_3": "Bahaya Listrik", "field_4": 630300.5, "field_5": 9224469.0 }, "geometry": { "type": "Point", "coordinates": [ 112.179668276354818, -7.014639106220477 ] } },
{ "type": "Feature", "properties": { "field_1": 1021122, "field_2": "Lainnya", "field_3": "Bahaya Listrik", "field_4": 630300.5, "field_5": 9224456.5 }, "geometry": { "type": "Point", "coordinates": [ 112.179668560906933, -7.014752156582585 ] } },
{ "type": "Feature", "properties": { "field_1": 1021123, "field_2": "Lainnya", "field_3": "Bahaya Listrik", "field_4": 630300.5, "field_5": 9224444.0 }, "geometry": { "type": "Point", "coordinates": [ 112.179668845463738, -7.014865206944138 ] } },
{ "type": "Feature", "properties": { "field_1": 1021124, "field_2": "Lainnya", "field_3": "Bahaya Listrik", "field_4": 630300.5, "field_5": 9224431.5 }, "geometry": { "type": "Point", "coordinates": [ 112.17966913002526, -7.014978257305136 ] } },
{ "type": "Feature", "properties": { "field_1": 1021125, "field_2": "Lainnya", "field_3": "Bahaya Listrik", "field_4": 630300.5, "field_5": 9224419.0 }, "geometry": { "type": "Point", "coordinates": [ 112.179669414591473, -7.01509130766558 ] } },
{ "type": "Feature", "properties": { "field_1": 1021126, "field_2": "Lainnya", "field_3": "Bahaya Listrik", "field_4": 630300.5, "field_5": 9224406.5 }, "geometry": { "type": "Point", "coordinates": [ 112.179669699162389, -7.01520435802547 ] } },
{ "type": "Feature", "properties": { "field_1": 1021127, "field_2": "Lainnya", "field_3": "Bahaya Listrik", "field_4": 630300.5, "field_5": 9224394.0 }, "geometry": { "type": "Point", "coordinates": [ 112.179669983737995, -7.015317408384804 ] } },
{ "type": "Feature", "properties": { "field_1": 1021128, "field_2": "Lainnya", "field_3": "Bahaya Listrik", "field_4": 630300.5, "field_5": 9224381.5 }, "geometry": { "type": "Point", "coordinates": [ 112.179670268318304, -7.015430458743585 ] } },
{ "type": "Feature", "properties": { "field_1": 1021129, "field_2": "Lainnya", "field_3": "Bahaya Listrik", "field_4": 630300.5, "field_5": 9224369.0 }, "geometry": { "type": "Point", "coordinates": [ 112.179670552903332, -7.015543509101809 ] } },
{ "type": "Feature", "properties": { "field_1": 1021130, "field_2": "Lainnya", "field_3": "Bahaya Listrik", "field_4": 630300.5, "field_5": 9224356.5 }, "geometry": { "type": "Point", "coordinates": [ 112.179670837493049, -7.01565655945948 ] } },
{ "type": "Feature", "properties": { "field_1": 1021131, "field_2": "Lainnya", "field_3": "Bahaya Listrik", "field_4": 630300.5, "field_5": 9224344.0 }, "geometry": { "type": "Point", "coordinates": [ 112.17967112208747, -7.015769609816599 ] } },
{ "type": "Feature", "properties": { "field_1": 1021132, "field_2": "Lainnya", "field_3": "Bahaya Listrik", "field_4": 630300.5, "field_5": 9224331.5 }, "geometry": { "type": "Point", "coordinates": [ 112.17967140668658, -7.01588266017316 ] } },
{ "type": "Feature", "properties": { "field_1": 1021133, "field_2": "Lainnya", "field_3": "Bahaya Listrik", "field_4": 630300.5, "field_5": 9224319.0 }, "geometry": { "type": "Point", "coordinates": [ 112.179671691290395, -7.015995710529166 ] } },
{ "type": "Feature", "properties": { "field_1": 1021134, "field_2": "Lainnya", "field_3": "Bahaya Listrik", "field_4": 630300.5, "field_5": 9224306.5 }, "geometry": { "type": "Point", "coordinates": [ 112.179671975898913, -7.016108760884619 ] } },
{ "type": "Feature", "properties": { "field_1": 1021135, "field_2": "Lainnya", "field_3": "Bahaya Listrik", "field_4": 630300.5, "field_5": 9224294.0 }, "geometry": { "type": "Point", "coordinates": [ 112.179672260512135, -7.016221811239517 ] } },
{ "type": "Feature", "properties": { "field_1": 1021137, "field_2": "Lainnya", "field_3": "Bahaya Listrik", "field_4": 630300.5, "field_5": 9224269.0 }, "geometry": { "type": "Point", "coordinates": [ 112.179672829752661, -7.016447911947651 ] } },
{ "type": "Feature", "properties": { "field_1": 1021138, "field_2": "Lainnya", "field_3": "Bahaya Listrik", "field_4": 630300.5, "field_5": 9224256.5 }, "geometry": { "type": "Point", "coordinates": [ 112.17967311437998, -7.016560962300885 ] } },
{ "type": "Feature", "properties": { "field_1": 1021139, "field_2": "Lainnya", "field_3": "Bahaya Listrik", "field_4": 630300.5, "field_5": 9224244.0 }, "geometry": { "type": "Point", "coordinates": [ 112.179673399011989, -7.016674012653564 ] } },
{ "type": "Feature", "properties": { "field_1": 1021140, "field_2": "Lainnya", "field_3": "Bahaya Listrik", "field_4": 630300.5, "field_5": 9224231.5 }, "geometry": { "type": "Point", "coordinates": [ 112.179673683648716, -7.016787063005689 ] } },
{ "type": "Feature", "properties": { "field_1": 1021141, "field_2": "Lainnya", "field_3": "Bahaya Listrik", "field_4": 630300.5, "field_5": 9224219.0 }, "geometry": { "type": "Point", "coordinates": [ 112.179673968290146, -7.016900113357259 ] } },
{ "type": "Feature", "properties": { "field_1": 1021142, "field_2": "Lainnya", "field_3": "Bahaya Listrik", "field_4": 630300.5, "field_5": 9224206.5 }, "geometry": { "type": "Point", "coordinates": [ 112.179674252936266, -7.017013163708274 ] } },
{ "type": "Feature", "properties": { "field_1": 1021143, "field_2": "Lainnya", "field_3": "Bahaya Listrik", "field_4": 630300.5, "field_5": 9224194.0 }, "geometry": { "type": "Point", "coordinates": [ 112.179674537587076, -7.017126214058736 ] } },
{ "type": "Feature", "properties": { "field_1": 1021144, "field_2": "Lainnya", "field_3": "Bahaya Listrik", "field_4": 630300.5, "field_5": 9224181.5 }, "geometry": { "type": "Point", "coordinates": [ 112.179674822242603, -7.017239264408643 ] } },
{ "type": "Feature", "properties": { "field_1": 1021145, "field_2": "Lainnya", "field_3": "Bahaya Listrik", "field_4": 630300.5, "field_5": 9224169.0 }, "geometry": { "type": "Point", "coordinates": [ 112.179675106902806, -7.017352314757992 ] } },
{ "type": "Feature", "properties": { "field_1": 1021146, "field_2": "Lainnya", "field_3": "Bahaya Listrik", "field_4": 630300.5, "field_5": 9224156.5 }, "geometry": { "type": "Point", "coordinates": [ 112.179675391567741, -7.017465365106788 ] } },
{ "type": "Feature", "properties": { "field_1": 1021147, "field_2": "Lainnya", "field_3": "Bahaya Listrik", "field_4": 630300.5, "field_5": 9224144.0 }, "geometry": { "type": "Point", "coordinates": [ 112.179675676237352, -7.01757841545503 ] } },
{ "type": "Feature", "properties": { "field_1": 1021148, "field_2": "Lainnya", "field_3": "Bahaya Listrik", "field_4": 630300.5, "field_5": 9224131.5 }, "geometry": { "type": "Point", "coordinates": [ 112.17967596091168, -7.017691465802717 ] } },
{ "type": "Feature", "properties": { "field_1": 1021149, "field_2": "Lainnya", "field_3": "Bahaya Listrik", "field_4": 630300.5, "field_5": 9224119.0 }, "geometry": { "type": "Point", "coordinates": [ 112.179676245590699, -7.01780451614985 ] } },
{ "type": "Feature", "properties": { "field_1": 1021150, "field_2": "Lainnya", "field_3": "Bahaya Listrik", "field_4": 630300.5, "field_5": 9224106.5 }, "geometry": { "type": "Point", "coordinates": [ 112.179676530274421, -7.017917566496426 ] } },
{ "type": "Feature", "properties": { "field_1": 1021151, "field_2": "Lainnya", "field_3": "Bahaya Listrik", "field_4": 630300.5, "field_5": 9224094.0 }, "geometry": { "type": "Point", "coordinates": [ 112.179676814962846, -7.018030616842451 ] } },
{ "type": "Feature", "properties": { "field_1": 1021152, "field_2": "Lainnya", "field_3": "Bahaya Listrik", "field_4": 630300.5, "field_5": 9224081.5 }, "geometry": { "type": "Point", "coordinates": [ 112.179677099655962, -7.018143667187917 ] } },
{ "type": "Feature", "properties": { "field_1": 1021153, "field_2": "Lainnya", "field_3": "Bahaya Listrik", "field_4": 630300.5, "field_5": 9224069.0 }, "geometry": { "type": "Point", "coordinates": [ 112.179677384353795, -7.018256717532831 ] } },
{ "type": "Feature", "properties": { "field_1": 1021154, "field_2": "Lainnya", "field_3": "Bahaya Listrik", "field_4": 630300.5, "field_5": 9224056.5 }, "geometry": { "type": "Point", "coordinates": [ 112.179677669056318, -7.018369767877188 ] } },
{ "type": "Feature", "properties": { "field_1": 1021155, "field_2": "Lainnya", "field_3": "Bahaya Listrik", "field_4": 630300.5, "field_5": 9224044.0 }, "geometry": { "type": "Point", "coordinates": [ 112.179677953763544, -7.018482818220993 ] } },
{ "type": "Feature", "properties": { "field_1": 1021156, "field_2": "Lainnya", "field_3": "Bahaya Listrik", "field_4": 630300.5, "field_5": 9224031.5 }, "geometry": { "type": "Point", "coordinates": [ 112.179678238475461, -7.018595868564241 ] } },
{ "type": "Feature", "properties": { "field_1": 1021157, "field_2": "Lainnya", "field_3": "Bahaya Listrik", "field_4": 630300.5, "field_5": 9224019.0 }, "geometry": { "type": "Point", "coordinates": [ 112.179678523192095, -7.018708918906936 ] } },
{ "type": "Feature", "properties": { "field_1": 1021158, "field_2": "Lainnya", "field_3": "Bahaya Listrik", "field_4": 630300.5, "field_5": 9224006.5 }, "geometry": { "type": "Point", "coordinates": [ 112.179678807913419, -7.018821969249074 ] } },
{ "type": "Feature", "properties": { "field_1": 1021159, "field_2": "Lainnya", "field_3": "Bahaya Listrik", "field_4": 630300.5, "field_5": 9223994.0 }, "geometry": { "type": "Point", "coordinates": [ 112.179679092639446, -7.018935019590658 ] } },
{ "type": "Feature", "properties": { "field_1": 1021160, "field_2": "Lainnya", "field_3": "Bahaya Listrik", "field_4": 630300.5, "field_5": 9223981.5 }, "geometry": { "type": "Point", "coordinates": [ 112.179679377370164, -7.019048069931688 ] } },
{ "type": "Feature", "properties": { "field_1": 1021161, "field_2": "Lainnya", "field_3": "Bahaya Listrik", "field_4": 630300.5, "field_5": 9223969.0 }, "geometry": { "type": "Point", "coordinates": [ 112.179679662105599, -7.019161120272163 ] } },
{ "type": "Feature", "properties": { "field_1": 1021162, "field_2": "Lainnya", "field_3": "Bahaya Listrik", "field_4": 630300.5, "field_5": 9223956.5 }, "geometry": { "type": "Point", "coordinates": [ 112.179679946845724, -7.019274170612082 ] } },
{ "type": "Feature", "properties": { "field_1": 1021163, "field_2": "Lainnya", "field_3": "Bahaya Listrik", "field_4": 630300.5, "field_5": 9223944.0 }, "geometry": { "type": "Point", "coordinates": [ 112.179680231590552, -7.019387220951447 ] } },
{ "type": "Feature", "properties": { "field_1": 1021164, "field_2": "Lainnya", "field_3": "Bahaya Listrik", "field_4": 630300.5, "field_5": 9223931.5 }, "geometry": { "type": "Point", "coordinates": [ 112.179680516340071, -7.019500271290255 ] } },
{ "type": "Feature", "properties": { "field_1": 1021165, "field_2": "Lainnya", "field_3": "Bahaya Listrik", "field_4": 630300.5, "field_5": 9223919.0 }, "geometry": { "type": "Point", "coordinates": [ 112.179680801094307, -7.019613321628512 ] } },
{ "type": "Feature", "properties": { "field_1": 1021166, "field_2": "Lainnya", "field_3": "Bahaya Listrik", "field_4": 630300.5, "field_5": 9223906.5 }, "geometry": { "type": "Point", "coordinates": [ 112.179681085853233, -7.019726371966211 ] } },
{ "type": "Feature", "properties": { "field_1": 1021167, "field_2": "Lainnya", "field_3": "Bahaya Listrik", "field_4": 630300.5, "field_5": 9223894.0 }, "geometry": { "type": "Point", "coordinates": [ 112.179681370616862, -7.019839422303357 ] } },
{ "type": "Feature", "properties": { "field_1": 1021168, "field_2": "Lainnya", "field_3": "Bahaya Listrik", "field_4": 630300.5, "field_5": 9223881.5 }, "geometry": { "type": "Point", "coordinates": [ 112.179681655385195, -7.019952472639947 ] } },
{ "type": "Feature", "properties": { "field_1": 1021169, "field_2": "Lainnya", "field_3": "Bahaya Listrik", "field_4": 630300.5, "field_5": 9223869.0 }, "geometry": { "type": "Point", "coordinates": [ 112.179681940158233, -7.020065522975981 ] } },
{ "type": "Feature", "properties": { "field_1": 1021170, "field_2": "Lainnya", "field_3": "Bahaya Listrik", "field_4": 630300.5, "field_5": 9223856.5 }, "geometry": { "type": "Point", "coordinates": [ 112.179682224935959, -7.020178573311461 ] } },
{ "type": "Feature", "properties": { "field_1": 1021171, "field_2": "Lainnya", "field_3": "Bahaya Listrik", "field_4": 630300.5, "field_5": 9223844.0 }, "geometry": { "type": "Point", "coordinates": [ 112.17968250971839, -7.020291623646387 ] } },
{ "type": "Feature", "properties": { "field_1": 1021172, "field_2": "Lainnya", "field_3": "Bahaya Listrik", "field_4": 630300.5, "field_5": 9223831.5 }, "geometry": { "type": "Point", "coordinates": [ 112.179682794505524, -7.020404673980757 ] } },
{ "type": "Feature", "properties": { "field_1": 1021173, "field_2": "Lainnya", "field_3": "Bahaya Listrik", "field_4": 630300.5, "field_5": 9223819.0 }, "geometry": { "type": "Point", "coordinates": [ 112.179683079297348, -7.020517724314573 ] } },
{ "type": "Feature", "properties": { "field_1": 1021174, "field_2": "Lainnya", "field_3": "Bahaya Listrik", "field_4": 630300.5, "field_5": 9223806.5 }, "geometry": { "type": "Point", "coordinates": [ 112.179683364093876, -7.020630774647834 ] } },
{ "type": "Feature", "properties": { "field_1": 1021175, "field_2": "Lainnya", "field_3": "Bahaya Listrik", "field_4": 630300.5, "field_5": 9223794.0 }, "geometry": { "type": "Point", "coordinates": [ 112.179683648895107, -7.020743824980539 ] } },
{ "type": "Feature", "properties": { "field_1": 1021176, "field_2": "Lainnya", "field_3": "Bahaya Listrik", "field_4": 630300.5, "field_5": 9223781.5 }, "geometry": { "type": "Point", "coordinates": [ 112.179683933701043, -7.020856875312689 ] } },
{ "type": "Feature", "properties": { "field_1": 1021177, "field_2": "Lainnya", "field_3": "Bahaya Listrik", "field_4": 630300.5, "field_5": 9223769.0 }, "geometry": { "type": "Point", "coordinates": [ 112.179684218511682, -7.020969925644285 ] } },
{ "type": "Feature", "properties": { "field_1": 1021178, "field_2": "Lainnya", "field_3": "Bahaya Listrik", "field_4": 630300.5, "field_5": 9223756.5 }, "geometry": { "type": "Point", "coordinates": [ 112.179684503327024, -7.021082975975326 ] } },
{ "type": "Feature", "properties": { "field_1": 1021179, "field_2": "Lainnya", "field_3": "Bahaya Listrik", "field_4": 630300.5, "field_5": 9223744.0 }, "geometry": { "type": "Point", "coordinates": [ 112.179684788147057, -7.021196026305811 ] } },
{ "type": "Feature", "properties": { "field_1": 1021180, "field_2": "Lainnya", "field_3": "Bahaya Listrik", "field_4": 630300.5, "field_5": 9223731.5 }, "geometry": { "type": "Point", "coordinates": [ 112.179685072971793, -7.021309076635741 ] } },
{ "type": "Feature", "properties": { "field_1": 1021181, "field_2": "Lainnya", "field_3": "Bahaya Listrik", "field_4": 630300.5, "field_5": 9223719.0 }, "geometry": { "type": "Point", "coordinates": [ 112.179685357801233, -7.021422126965116 ] } },
{ "type": "Feature", "properties": { "field_1": 1021182, "field_2": "Lainnya", "field_3": "Bahaya Listrik", "field_4": 630300.5, "field_5": 9223706.5 }, "geometry": { "type": "Point", "coordinates": [ 112.179685642635363, -7.021535177293936 ] } },
{ "type": "Feature", "properties": { "field_1": 1021183, "field_2": "Lainnya", "field_3": "Bahaya Listrik", "field_4": 630300.5, "field_5": 9223694.0 }, "geometry": { "type": "Point", "coordinates": [ 112.17968592747421, -7.021648227622201 ] } },
{ "type": "Feature", "properties": { "field_1": 1021184, "field_2": "Lainnya", "field_3": "Bahaya Listrik", "field_4": 630300.5, "field_5": 9223681.5 }, "geometry": { "type": "Point", "coordinates": [ 112.179686212317733, -7.021761277949912 ] } },
{ "type": "Feature", "properties": { "field_1": 1021185, "field_2": "Lainnya", "field_3": "Bahaya Listrik", "field_4": 630300.5, "field_5": 9223669.0 }, "geometry": { "type": "Point", "coordinates": [ 112.179686497165989, -7.021874328277066 ] } },
{ "type": "Feature", "properties": { "field_1": 1021186, "field_2": "Lainnya", "field_3": "Bahaya Listrik", "field_4": 630300.5, "field_5": 9223656.5 }, "geometry": { "type": "Point", "coordinates": [ 112.179686782018919, -7.021987378603666 ] } },
{ "type": "Feature", "properties": { "field_1": 1021187, "field_2": "Lainnya", "field_3": "Bahaya Listrik", "field_4": 630300.5, "field_5": 9223644.0 }, "geometry": { "type": "Point", "coordinates": [ 112.179687066876554, -7.022100428929712 ] } },
{ "type": "Feature", "properties": { "field_1": 1021188, "field_2": "Lainnya", "field_3": "Bahaya Listrik", "field_4": 630300.5, "field_5": 9223631.5 }, "geometry": { "type": "Point", "coordinates": [ 112.179687351738906, -7.022213479255201 ] } },
{ "type": "Feature", "properties": { "field_1": 1021189, "field_2": "Lainnya", "field_3": "Bahaya Listrik", "field_4": 630300.5, "field_5": 9223619.0 }, "geometry": { "type": "Point", "coordinates": [ 112.179687636605948, -7.022326529580136 ] } },
{ "type": "Feature", "properties": { "field_1": 1021190, "field_2": "Lainnya", "field_3": "Bahaya Listrik", "field_4": 630300.5, "field_5": 9223606.5 }, "geometry": { "type": "Point", "coordinates": [ 112.179687921477679, -7.022439579904515 ] } },
{ "type": "Feature", "properties": { "field_1": 1021191, "field_2": "Lainnya", "field_3": "Bahaya Listrik", "field_4": 630300.5, "field_5": 9223594.0 }, "geometry": { "type": "Point", "coordinates": [ 112.179688206354129, -7.022552630228341 ] } },
{ "type": "Feature", "properties": { "field_1": 1021192, "field_2": "Lainnya", "field_3": "Bahaya Listrik", "field_4": 630300.5, "field_5": 9223581.5 }, "geometry": { "type": "Point", "coordinates": [ 112.179688491235268, -7.022665680551609 ] } },
{ "type": "Feature", "properties": { "field_1": 1021193, "field_2": "Lainnya", "field_3": "Bahaya Listrik", "field_4": 630300.5, "field_5": 9223569.0 }, "geometry": { "type": "Point", "coordinates": [ 112.179688776121111, -7.022778730874323 ] } },
{ "type": "Feature", "properties": { "field_1": 1021194, "field_2": "Lainnya", "field_3": "Bahaya Listrik", "field_4": 630300.5, "field_5": 9223556.5 }, "geometry": { "type": "Point", "coordinates": [ 112.179689061011658, -7.022891781196482 ] } },
{ "type": "Feature", "properties": { "field_1": 1021195, "field_2": "Lainnya", "field_3": "Bahaya Listrik", "field_4": 630300.5, "field_5": 9223544.0 }, "geometry": { "type": "Point", "coordinates": [ 112.179689345906894, -7.023004831518087 ] } },
{ "type": "Feature", "properties": { "field_1": 1021196, "field_2": "Lainnya", "field_3": "Bahaya Listrik", "field_4": 630300.5, "field_5": 9223531.5 }, "geometry": { "type": "Point", "coordinates": [ 112.179689630806848, -7.023117881839135 ] } },
{ "type": "Feature", "properties": { "field_1": 1021197, "field_2": "Lainnya", "field_3": "Bahaya Listrik", "field_4": 630300.5, "field_5": 9223519.0 }, "geometry": { "type": "Point", "coordinates": [ 112.179689915711506, -7.023230932159629 ] } },
{ "type": "Feature", "properties": { "field_1": 1021198, "field_2": "Lainnya", "field_3": "Bahaya Listrik", "field_4": 630300.5, "field_5": 9223506.5 }, "geometry": { "type": "Point", "coordinates": [ 112.17969020062084, -7.023343982479567 ] } },
{ "type": "Feature", "properties": { "field_1": 1021199, "field_2": "Lainnya", "field_3": "Bahaya Listrik", "field_4": 630300.5, "field_5": 9223494.0 }, "geometry": { "type": "Point", "coordinates": [ 112.179690485534891, -7.02345703279895 ] } },
{ "type": "Feature", "properties": { "field_1": 1021200, "field_2": "Lainnya", "field_3": "Bahaya Listrik", "field_4": 630300.5, "field_5": 9223481.5 }, "geometry": { "type": "Point", "coordinates": [ 112.179690770453632, -7.023570083117778 ] } },
{ "type": "Feature", "properties": { "field_1": 1021201, "field_2": "Lainnya", "field_3": "Bahaya Listrik", "field_4": 630300.5, "field_5": 9223469.0 }, "geometry": { "type": "Point", "coordinates": [ 112.179691055377091, -7.02368313343605 ] } },
{ "type": "Feature", "properties": { "field_1": 1021202, "field_2": "Lainnya", "field_3": "Bahaya Listrik", "field_4": 630300.5, "field_5": 9223456.5 }, "geometry": { "type": "Point", "coordinates": [ 112.17969134030524, -7.023796183753767 ] } },
{ "type": "Feature", "properties": { "field_1": 1021203, "field_2": "Lainnya", "field_3": "Bahaya Listrik", "field_4": 630300.5, "field_5": 9223444.0 }, "geometry": { "type": "Point", "coordinates": [ 112.179691625238092, -7.02390923407093 ] } },
{ "type": "Feature", "properties": { "field_1": 1021204, "field_2": "Lainnya", "field_3": "Bahaya Listrik", "field_4": 630300.5, "field_5": 9223431.5 }, "geometry": { "type": "Point", "coordinates": [ 112.179691910175634, -7.024022284387537 ] } },
{ "type": "Feature", "properties": { "field_1": 1021205, "field_2": "Lainnya", "field_3": "Bahaya Listrik", "field_4": 630300.5, "field_5": 9223419.0 }, "geometry": { "type": "Point", "coordinates": [ 112.179692195117894, -7.024135334703589 ] } },
{ "type": "Feature", "properties": { "field_1": 1021206, "field_2": "Lainnya", "field_3": "Bahaya Listrik", "field_4": 630300.5, "field_5": 9223406.5 }, "geometry": { "type": "Point", "coordinates": [ 112.179692480064844, -7.024248385019085 ] } },
{ "type": "Feature", "properties": { "field_1": 1021207, "field_2": "Lainnya", "field_3": "Bahaya Listrik", "field_4": 630300.5, "field_5": 9223394.0 }, "geometry": { "type": "Point", "coordinates": [ 112.179692765016497, -7.024361435334026 ] } },
{ "type": "Feature", "properties": { "field_1": 1021208, "field_2": "Lainnya", "field_3": "Bahaya Listrik", "field_4": 630300.5, "field_5": 9223381.5 }, "geometry": { "type": "Point", "coordinates": [ 112.179693049972855, -7.024474485648412 ] } },
{ "type": "Feature", "properties": { "field_1": 1021209, "field_2": "Lainnya", "field_3": "Bahaya Listrik", "field_4": 630300.5, "field_5": 9223369.0 }, "geometry": { "type": "Point", "coordinates": [ 112.179693334933901, -7.024587535962243 ] } },
{ "type": "Feature", "properties": { "field_1": 1021210, "field_2": "Lainnya", "field_3": "Bahaya Listrik", "field_4": 630300.5, "field_5": 9223356.5 }, "geometry": { "type": "Point", "coordinates": [ 112.179693619899652, -7.024700586275517 ] } },
{ "type": "Feature", "properties": { "field_1": 1021211, "field_2": "Lainnya", "field_3": "Bahaya Listrik", "field_4": 630300.5, "field_5": 9223344.0 }, "geometry": { "type": "Point", "coordinates": [ 112.179693904870106, -7.024813636588239 ] } },
{ "type": "Feature", "properties": { "field_1": 1021212, "field_2": "Lainnya", "field_3": "Bahaya Listrik", "field_4": 630300.5, "field_5": 9223331.5 }, "geometry": { "type": "Point", "coordinates": [ 112.179694189845264, -7.024926686900402 ] } },
{ "type": "Feature", "properties": { "field_1": 1021213, "field_2": "Lainnya", "field_3": "Bahaya Listrik", "field_4": 630300.5, "field_5": 9223319.0 }, "geometry": { "type": "Point", "coordinates": [ 112.179694474825126, -7.025039737212012 ] } },
{ "type": "Feature", "properties": { "field_1": 1021214, "field_2": "Lainnya", "field_3": "Bahaya Listrik", "field_4": 630300.5, "field_5": 9223306.5 }, "geometry": { "type": "Point", "coordinates": [ 112.179694759809692, -7.025152787523067 ] } },
{ "type": "Feature", "properties": { "field_1": 1021215, "field_2": "Lainnya", "field_3": "Bahaya Listrik", "field_4": 630300.5, "field_5": 9223294.0 }, "geometry": { "type": "Point", "coordinates": [ 112.179695044798933, -7.025265837833566 ] } },
{ "type": "Feature", "properties": { "field_1": 1021216, "field_2": "Lainnya", "field_3": "Bahaya Listrik", "field_4": 630300.5, "field_5": 9223281.5 }, "geometry": { "type": "Point", "coordinates": [ 112.179695329792906, -7.025378888143507 ] } },
{ "type": "Feature", "properties": { "field_1": 1021217, "field_2": "Lainnya", "field_3": "Bahaya Listrik", "field_4": 630300.5, "field_5": 9223269.0 }, "geometry": { "type": "Point", "coordinates": [ 112.179695614791555, -7.025491938452895 ] } },
{ "type": "Feature", "properties": { "field_1": 1021218, "field_2": "Lainnya", "field_3": "Bahaya Listrik", "field_4": 630300.5, "field_5": 9223256.5 }, "geometry": { "type": "Point", "coordinates": [ 112.179695899794922, -7.025604988761728 ] } },
{ "type": "Feature", "properties": { "field_1": 1021219, "field_2": "Lainnya", "field_3": "Bahaya Listrik", "field_4": 630300.5, "field_5": 9223244.0 }, "geometry": { "type": "Point", "coordinates": [ 112.179696184802992, -7.025718039070005 ] } },
{ "type": "Feature", "properties": { "field_1": 1021220, "field_2": "Lainnya", "field_3": "Bahaya Listrik", "field_4": 630300.5, "field_5": 9223231.5 }, "geometry": { "type": "Point", "coordinates": [ 112.179696469815752, -7.025831089377728 ] } },
{ "type": "Feature", "properties": { "field_1": 1021221, "field_2": "Lainnya", "field_3": "Bahaya Listrik", "field_4": 630300.5, "field_5": 9223219.0 }, "geometry": { "type": "Point", "coordinates": [ 112.179696754833202, -7.025944139684894 ] } },
{ "type": "Feature", "properties": { "field_1": 1021222, "field_2": "Lainnya", "field_3": "Bahaya Listrik", "field_4": 630300.5, "field_5": 9223206.5 }, "geometry": { "type": "Point", "coordinates": [ 112.17969703985537, -7.026057189991507 ] } },
{ "type": "Feature", "properties": { "field_1": 1021223, "field_2": "Lainnya", "field_3": "Bahaya Listrik", "field_4": 630300.5, "field_5": 9223194.0 }, "geometry": { "type": "Point", "coordinates": [ 112.179697324882241, -7.026170240297561 ] } },
{ "type": "Feature", "properties": { "field_1": 1021224, "field_2": "Lainnya", "field_3": "Bahaya Listrik", "field_4": 630300.5, "field_5": 9223181.5 }, "geometry": { "type": "Point", "coordinates": [ 112.179697609913802, -7.026283290603063 ] } },
{ "type": "Feature", "properties": { "field_1": 1021225, "field_2": "Lainnya", "field_3": "Bahaya Listrik", "field_4": 630300.5, "field_5": 9223169.0 }, "geometry": { "type": "Point", "coordinates": [ 112.179697894950067, -7.026396340908006 ] } },
{ "type": "Feature", "properties": { "field_1": 1021226, "field_2": "Lainnya", "field_3": "Bahaya Listrik", "field_4": 630300.5, "field_5": 9223156.5 }, "geometry": { "type": "Point", "coordinates": [ 112.179698179991036, -7.026509391212396 ] } },
{ "type": "Feature", "properties": { "field_1": 1021227, "field_2": "Lainnya", "field_3": "Bahaya Listrik", "field_4": 630300.5, "field_5": 9223144.0 }, "geometry": { "type": "Point", "coordinates": [ 112.179698465036708, -7.02662244151623 ] } },
{ "type": "Feature", "properties": { "field_1": 1021228, "field_2": "Lainnya", "field_3": "Bahaya Listrik", "field_4": 630300.5, "field_5": 9223131.5 }, "geometry": { "type": "Point", "coordinates": [ 112.17969875008707, -7.02673549181951 ] } },
{ "type": "Feature", "properties": { "field_1": 1021229, "field_2": "Lainnya", "field_3": "Bahaya Listrik", "field_4": 630300.5, "field_5": 9223119.0 }, "geometry": { "type": "Point", "coordinates": [ 112.179699035142136, -7.026848542122232 ] } },
{ "type": "Feature", "properties": { "field_1": 1021230, "field_2": "Lainnya", "field_3": "Bahaya Listrik", "field_4": 630300.5, "field_5": 9223106.5 }, "geometry": { "type": "Point", "coordinates": [ 112.179699320201905, -7.026961592424399 ] } },
{ "type": "Feature", "properties": { "field_1": 1041027, "field_2": "Lainnya", "field_3": "Bahaya Listrik", "field_4": 631300.5, "field_5": 9226694.0 }, "geometry": { "type": "Point", "coordinates": [ 112.188669435247135, -6.994493368262161 ] } },
{ "type": "Feature", "properties": { "field_1": 1041028, "field_2": "Lainnya", "field_3": "Bahaya Listrik", "field_4": 631300.5, "field_5": 9226681.5 }, "geometry": { "type": "Point", "coordinates": [ 112.188669721138524, -6.994606418351361 ] } },
{ "type": "Feature", "properties": { "field_1": 1041029, "field_2": "Lainnya", "field_3": "Bahaya Listrik", "field_4": 631300.5, "field_5": 9226669.0 }, "geometry": { "type": "Point", "coordinates": [ 112.188670007034645, -6.994719468440008 ] } },
{ "type": "Feature", "properties": { "field_1": 1041030, "field_2": "Lainnya", "field_3": "Bahaya Listrik", "field_4": 631300.5, "field_5": 9226656.5 }, "geometry": { "type": "Point", "coordinates": [ 112.188670292935527, -6.994832518528099 ] } },
{ "type": "Feature", "properties": { "field_1": 1041031, "field_2": "Lainnya", "field_3": "Bahaya Listrik", "field_4": 631300.5, "field_5": 9226644.0 }, "geometry": { "type": "Point", "coordinates": [ 112.188670578841126, -6.994945568615639 ] } },
{ "type": "Feature", "properties": { "field_1": 1041032, "field_2": "Lainnya", "field_3": "Bahaya Listrik", "field_4": 631300.5, "field_5": 9226631.5 }, "geometry": { "type": "Point", "coordinates": [ 112.188670864751458, -6.995058618702628 ] } },
{ "type": "Feature", "properties": { "field_1": 1041033, "field_2": "Lainnya", "field_3": "Bahaya Listrik", "field_4": 631300.5, "field_5": 9226619.0 }, "geometry": { "type": "Point", "coordinates": [ 112.188671150666522, -6.995171668789061 ] } },
{ "type": "Feature", "properties": { "field_1": 1041034, "field_2": "Lainnya", "field_3": "Bahaya Listrik", "field_4": 631300.5, "field_5": 9226606.5 }, "geometry": { "type": "Point", "coordinates": [ 112.188671436586318, -6.995284718874943 ] } },
{ "type": "Feature", "properties": { "field_1": 1041035, "field_2": "Lainnya", "field_3": "Bahaya Listrik", "field_4": 631300.5, "field_5": 9226594.0 }, "geometry": { "type": "Point", "coordinates": [ 112.188671722510875, -6.99539776896027 ] } },
{ "type": "Feature", "properties": { "field_1": 1041036, "field_2": "Lainnya", "field_3": "Bahaya Listrik", "field_4": 631300.5, "field_5": 9226581.5 }, "geometry": { "type": "Point", "coordinates": [ 112.18867200844015, -6.995510819045043 ] } },
{ "type": "Feature", "properties": { "field_1": 1041037, "field_2": "Lainnya", "field_3": "Bahaya Listrik", "field_4": 631300.5, "field_5": 9226569.0 }, "geometry": { "type": "Point", "coordinates": [ 112.188672294374157, -6.995623869129265 ] } },
{ "type": "Feature", "properties": { "field_1": 1041038, "field_2": "Lainnya", "field_3": "Bahaya Listrik", "field_4": 631300.5, "field_5": 9226556.5 }, "geometry": { "type": "Point", "coordinates": [ 112.188672580312911, -6.995736919212932 ] } },
{ "type": "Feature", "properties": { "field_1": 1041123, "field_2": "Lainnya", "field_3": "Bahaya Listrik", "field_4": 631300.5, "field_5": 9225494.0 }, "geometry": { "type": "Point", "coordinates": [ 112.188696902414577, -7.005346174301738 ] } },
{ "type": "Feature", "properties": { "field_1": 1041124, "field_2": "Lainnya", "field_3": "Bahaya Listrik", "field_4": 631300.5, "field_5": 9225481.5 }, "geometry": { "type": "Point", "coordinates": [ 112.188697188760585, -7.005459224337796 ] } },
{ "type": "Feature", "properties": { "field_1": 1041145, "field_2": "Lainnya", "field_3": "Bahaya Listrik", "field_4": 631300.5, "field_5": 9225219.0 }, "geometry": { "type": "Point", "coordinates": [ 112.188703203120681, -7.007833274967029 ] } },
{ "type": "Feature", "properties": { "field_1": 1041146, "field_2": "Lainnya", "field_3": "Bahaya Listrik", "field_4": 631300.5, "field_5": 9225206.5 }, "geometry": { "type": "Point", "coordinates": [ 112.188703489570884, -7.007946324990897 ] } },
{ "type": "Feature", "properties": { "field_1": 1041147, "field_2": "Lainnya", "field_3": "Bahaya Listrik", "field_4": 631300.5, "field_5": 9225194.0 }, "geometry": { "type": "Point", "coordinates": [ 112.188703776025818, -7.008059375014211 ] } },
{ "type": "Feature", "properties": { "field_1": 1041148, "field_2": "Lainnya", "field_3": "Bahaya Listrik", "field_4": 631300.5, "field_5": 9225181.5 }, "geometry": { "type": "Point", "coordinates": [ 112.188704062485485, -7.008172425036971 ] } },
{ "type": "Feature", "properties": { "field_1": 1041149, "field_2": "Lainnya", "field_3": "Bahaya Listrik", "field_4": 631300.5, "field_5": 9225169.0 }, "geometry": { "type": "Point", "coordinates": [ 112.188704348949884, -7.008285475059177 ] } },
{ "type": "Feature", "properties": { "field_1": 1041150, "field_2": "Lainnya", "field_3": "Bahaya Listrik", "field_4": 631300.5, "field_5": 9225156.5 }, "geometry": { "type": "Point", "coordinates": [ 112.188704635419015, -7.008398525080828 ] } },
{ "type": "Feature", "properties": { "field_1": 1041151, "field_2": "Lainnya", "field_3": "Bahaya Listrik", "field_4": 631300.5, "field_5": 9225144.0 }, "geometry": { "type": "Point", "coordinates": [ 112.188704921892892, -7.008511575101926 ] } },
{ "type": "Feature", "properties": { "field_1": 1041152, "field_2": "Lainnya", "field_3": "Bahaya Listrik", "field_4": 631300.5, "field_5": 9225131.5 }, "geometry": { "type": "Point", "coordinates": [ 112.188705208371502, -7.008624625122469 ] } },
{ "type": "Feature", "properties": { "field_1": 1041153, "field_2": "Lainnya", "field_3": "Bahaya Listrik", "field_4": 631300.5, "field_5": 9225119.0 }, "geometry": { "type": "Point", "coordinates": [ 112.188705494854858, -7.008737675142457 ] } },
{ "type": "Feature", "properties": { "field_1": 1041154, "field_2": "Lainnya", "field_3": "Bahaya Listrik", "field_4": 631300.5, "field_5": 9225106.5 }, "geometry": { "type": "Point", "coordinates": [ 112.188705781342932, -7.008850725161891 ] } },
{ "type": "Feature", "properties": { "field_1": 1041156, "field_2": "Lainnya", "field_3": "Bahaya Listrik", "field_4": 631300.5, "field_5": 9225081.5 }, "geometry": { "type": "Point", "coordinates": [ 112.188706354333306, -7.009076825199098 ] } },
{ "type": "Feature", "properties": { "field_1": 1041157, "field_2": "Lainnya", "field_3": "Bahaya Listrik", "field_4": 631300.5, "field_5": 9225069.0 }, "geometry": { "type": "Point", "coordinates": [ 112.188706640835605, -7.00918987521687 ] } },
{ "type": "Feature", "properties": { "field_1": 1041159, "field_2": "Lainnya", "field_3": "Bahaya Listrik", "field_4": 631300.5, "field_5": 9225044.0 }, "geometry": { "type": "Point", "coordinates": [ 112.188707213854386, -7.009415975250752 ] } },
{ "type": "Feature", "properties": { "field_1": 1041160, "field_2": "Lainnya", "field_3": "Bahaya Listrik", "field_4": 631300.5, "field_5": 9225031.5 }, "geometry": { "type": "Point", "coordinates": [ 112.188707500370882, -7.009529025266859 ] } },
{ "type": "Feature", "properties": { "field_1": 1041161, "field_2": "Lainnya", "field_3": "Bahaya Listrik", "field_4": 631300.5, "field_5": 9225019.0 }, "geometry": { "type": "Point", "coordinates": [ 112.188707786892124, -7.009642075282415 ] } },
{ "type": "Feature", "properties": { "field_1": 1041162, "field_2": "Lainnya", "field_3": "Bahaya Listrik", "field_4": 631300.5, "field_5": 9225006.5 }, "geometry": { "type": "Point", "coordinates": [ 112.188708073418098, -7.009755125297414 ] } },
{ "type": "Feature", "properties": { "field_1": 1061007, "field_2": "Lainnya", "field_3": "Bahaya Listrik", "field_4": 632300.5, "field_5": 9227144.0 }, "geometry": { "type": "Point", "coordinates": [ 112.197710771994807, -6.990400639564034 ] } },
{ "type": "Feature", "properties": { "field_1": 1061026, "field_2": "Lainnya", "field_3": "Bahaya Listrik", "field_4": 632300.5, "field_5": 9226906.5 }, "geometry": { "type": "Point", "coordinates": [ 112.197716242823773, -6.992548584430664 ] } },
{ "type": "Feature", "properties": { "field_1": 1061048, "field_2": "Lainnya", "field_3": "Bahaya Listrik", "field_4": 632300.5, "field_5": 9226631.5 }, "geometry": { "type": "Point", "coordinates": [ 112.197722579619651, -6.995035678237284 ] } },
{ "type": "Feature", "properties": { "field_1": 1081101, "field_2": "Lainnya", "field_3": "Bahaya Listrik", "field_4": 633300.5, "field_5": 9225769.0 }, "geometry": { "type": "Point", "coordinates": [ 112.206794303651748, -7.00281296665785 ] } },
{ "type": "Feature", "properties": { "field_1": 1121040, "field_2": "Lainnya", "field_3": "Bahaya Listrik", "field_4": 635300.5, "field_5": 9226531.5 }, "geometry": { "type": "Point", "coordinates": [ 112.224879897169131, -6.995870201847424 ] } },
{ "type": "Feature", "properties": { "field_1": 1121041, "field_2": "Lainnya", "field_3": "Bahaya Listrik", "field_4": 635300.5, "field_5": 9226519.0 }, "geometry": { "type": "Point", "coordinates": [ 112.224880191826927, -6.995983250415144 ] } },
{ "type": "Feature", "properties": { "field_1": 1121042, "field_2": "Lainnya", "field_3": "Bahaya Listrik", "field_4": 635300.5, "field_5": 9226506.5 }, "geometry": { "type": "Point", "coordinates": [ 112.224880486489596, -6.996096298982311 ] } },
{ "type": "Feature", "properties": { "field_1": 1121043, "field_2": "Lainnya", "field_3": "Bahaya Listrik", "field_4": 635300.5, "field_5": 9226494.0 }, "geometry": { "type": "Point", "coordinates": [ 112.22488078115714, -6.996209347548922 ] } },
{ "type": "Feature", "properties": { "field_1": 1121044, "field_2": "Lainnya", "field_3": "Bahaya Listrik", "field_4": 635300.5, "field_5": 9226481.5 }, "geometry": { "type": "Point", "coordinates": [ 112.224881075829586, -6.996322396114979 ] } },
{ "type": "Feature", "properties": { "field_1": 1121045, "field_2": "Lainnya", "field_3": "Bahaya Listrik", "field_4": 635300.5, "field_5": 9226469.0 }, "geometry": { "type": "Point", "coordinates": [ 112.224881370506893, -6.996435444680483 ] } },
{ "type": "Feature", "properties": { "field_1": 1121046, "field_2": "Lainnya", "field_3": "Bahaya Listrik", "field_4": 635300.5, "field_5": 9226456.5 }, "geometry": { "type": "Point", "coordinates": [ 112.224881665189073, -6.996548493245434 ] } },
{ "type": "Feature", "properties": { "field_1": 1121047, "field_2": "Lainnya", "field_3": "Bahaya Listrik", "field_4": 635300.5, "field_5": 9226444.0 }, "geometry": { "type": "Point", "coordinates": [ 112.224881959876157, -6.99666154180983 ] } },
{ "type": "Feature", "properties": { "field_1": 1121048, "field_2": "Lainnya", "field_3": "Bahaya Listrik", "field_4": 635300.5, "field_5": 9226431.5 }, "geometry": { "type": "Point", "coordinates": [ 112.224882254568087, -6.99677459037367 ] } },
{ "type": "Feature", "properties": { "field_1": 1121049, "field_2": "Lainnya", "field_3": "Bahaya Listrik", "field_4": 635300.5, "field_5": 9226419.0 }, "geometry": { "type": "Point", "coordinates": [ 112.224882549264919, -6.996887638936958 ] } },
{ "type": "Feature", "properties": { "field_1": 1121050, "field_2": "Lainnya", "field_3": "Bahaya Listrik", "field_4": 635300.5, "field_5": 9226406.5 }, "geometry": { "type": "Point", "coordinates": [ 112.224882843966626, -6.997000687499693 ] } },
{ "type": "Feature", "properties": { "field_1": 1121051, "field_2": "Lainnya", "field_3": "Bahaya Listrik", "field_4": 635300.5, "field_5": 9226394.0 }, "geometry": { "type": "Point", "coordinates": [ 112.224883138673221, -6.997113736061872 ] } },
{ "type": "Feature", "properties": { "field_1": 1141433, "field_2": "Lainnya", "field_3": "Bahaya Listrik", "field_4": 636300.5, "field_5": 9221619.0 }, "geometry": { "type": "Point", "coordinates": [ 112.234048540333887, -7.040274455377679 ] } },
{ "type": "Feature", "properties": { "field_1": 1141434, "field_2": "Lainnya", "field_3": "Bahaya Listrik", "field_4": 636300.5, "field_5": 9221606.5 }, "geometry": { "type": "Point", "coordinates": [ 112.234048839100041, -7.040387503341281 ] } },
{ "type": "Feature", "properties": { "field_1": 1141435, "field_2": "Lainnya", "field_3": "Bahaya Listrik", "field_4": 636300.5, "field_5": 9221594.0 }, "geometry": { "type": "Point", "coordinates": [ 112.234049137871125, -7.040500551304326 ] } },
{ "type": "Feature", "properties": { "field_1": 1141436, "field_2": "Lainnya", "field_3": "Bahaya Listrik", "field_4": 636300.5, "field_5": 9221581.5 }, "geometry": { "type": "Point", "coordinates": [ 112.234049436647126, -7.040613599266814 ] } },
{ "type": "Feature", "properties": { "field_1": 1141437, "field_2": "Lainnya", "field_3": "Bahaya Listrik", "field_4": 636300.5, "field_5": 9221569.0 }, "geometry": { "type": "Point", "coordinates": [ 112.234049735428044, -7.040726647228744 ] } },
{ "type": "Feature", "properties": { "field_1": 1141438, "field_2": "Lainnya", "field_3": "Bahaya Listrik", "field_4": 636300.5, "field_5": 9221556.5 }, "geometry": { "type": "Point", "coordinates": [ 112.23405003421388, -7.040839695190116 ] } },
{ "type": "Feature", "properties": { "field_1": 1141439, "field_2": "Lainnya", "field_3": "Bahaya Listrik", "field_4": 636300.5, "field_5": 9221544.0 }, "geometry": { "type": "Point", "coordinates": [ 112.234050333004632, -7.04095274315093 ] } },
{ "type": "Feature", "properties": { "field_1": 1141440, "field_2": "Lainnya", "field_3": "Bahaya Listrik", "field_4": 636300.5, "field_5": 9221531.5 }, "geometry": { "type": "Point", "coordinates": [ 112.234050631800301, -7.041065791111188 ] } },
{ "type": "Feature", "properties": { "field_1": 1141441, "field_2": "Lainnya", "field_3": "Bahaya Listrik", "field_4": 636300.5, "field_5": 9221519.0 }, "geometry": { "type": "Point", "coordinates": [ 112.234050930600887, -7.041178839070887 ] } },
{ "type": "Feature", "properties": { "field_1": 1141442, "field_2": "Lainnya", "field_3": "Bahaya Listrik", "field_4": 636300.5, "field_5": 9221506.5 }, "geometry": { "type": "Point", "coordinates": [ 112.23405122940639, -7.041291887030027 ] } },
{ "type": "Feature", "properties": { "field_1": 1141443, "field_2": "Lainnya", "field_3": "Bahaya Listrik", "field_4": 636300.5, "field_5": 9221494.0 }, "geometry": { "type": "Point", "coordinates": [ 112.234051528216824, -7.041404934988612 ] } },
{ "type": "Feature", "properties": { "field_1": 1141444, "field_2": "Lainnya", "field_3": "Bahaya Listrik", "field_4": 636300.5, "field_5": 9221481.5 }, "geometry": { "type": "Point", "coordinates": [ 112.234051827032161, -7.041517982946639 ] } },
{ "type": "Feature", "properties": { "field_1": 1141445, "field_2": "Lainnya", "field_3": "Bahaya Listrik", "field_4": 636300.5, "field_5": 9221469.0 }, "geometry": { "type": "Point", "coordinates": [ 112.234052125852415, -7.041631030904109 ] } },
{ "type": "Feature", "properties": { "field_1": 1141446, "field_2": "Lainnya", "field_3": "Bahaya Listrik", "field_4": 636300.5, "field_5": 9221456.5 }, "geometry": { "type": "Point", "coordinates": [ 112.234052424677586, -7.041744078861019 ] } },
{ "type": "Feature", "properties": { "field_1": 1141447, "field_2": "Lainnya", "field_3": "Bahaya Listrik", "field_4": 636300.5, "field_5": 9221444.0 }, "geometry": { "type": "Point", "coordinates": [ 112.234052723507688, -7.041857126817371 ] } },
{ "type": "Feature", "properties": { "field_1": 1141448, "field_2": "Lainnya", "field_3": "Bahaya Listrik", "field_4": 636300.5, "field_5": 9221431.5 }, "geometry": { "type": "Point", "coordinates": [ 112.234053022342692, -7.041970174773167 ] } },
{ "type": "Feature", "properties": { "field_1": 1141449, "field_2": "Lainnya", "field_3": "Bahaya Listrik", "field_4": 636300.5, "field_5": 9221419.0 }, "geometry": { "type": "Point", "coordinates": [ 112.234053321182643, -7.042083222728406 ] } },
{ "type": "Feature", "properties": { "field_1": 1141450, "field_2": "Lainnya", "field_3": "Bahaya Listrik", "field_4": 636300.5, "field_5": 9221406.5 }, "geometry": { "type": "Point", "coordinates": [ 112.234053620027481, -7.042196270683087 ] } },
{ "type": "Feature", "properties": { "field_1": 1161806, "field_2": "Lainnya", "field_3": "Bahaya Listrik", "field_4": 637300.5, "field_5": 9217106.59 }, "geometry": { "type": "Point", "coordinates": [ 112.24320994062883, -7.081059813830167 ] } },
{ "type": "Feature", "properties": { "field_1": 1161807, "field_2": "Lainnya", "field_3": "Bahaya Listrik", "field_4": 637300.5, "field_5": 9217094.0 }, "geometry": { "type": "Point", "coordinates": [ 112.243210245553712, -7.081173675144357 ] } },
{ "type": "Feature", "properties": { "field_1": 1161808, "field_2": "Lainnya", "field_3": "Bahaya Listrik", "field_4": 637300.5, "field_5": 9217081.59 }, "geometry": { "type": "Point", "coordinates": [ 112.24321054612399, -7.081285908575823 ] } },
{ "type": "Feature", "properties": { "field_1": 1161809, "field_2": "Lainnya", "field_3": "Bahaya Listrik", "field_4": 637300.5, "field_5": 9217069.0 }, "geometry": { "type": "Point", "coordinates": [ 112.243210851058862, -7.081399769888884 ] } },
{ "type": "Feature", "properties": { "field_1": 1161810, "field_2": "Lainnya", "field_3": "Bahaya Listrik", "field_4": 637300.5, "field_5": 9217056.59 }, "geometry": { "type": "Point", "coordinates": [ 112.243211151638974, -7.081512003319235 ] } },
{ "type": "Feature", "properties": { "field_1": 1161811, "field_2": "Lainnya", "field_3": "Bahaya Listrik", "field_4": 637300.5, "field_5": 9217044.0 }, "geometry": { "type": "Point", "coordinates": [ 112.243211456583836, -7.081625864631167 ] } },
{ "type": "Feature", "properties": { "field_1": 1161812, "field_2": "Lainnya", "field_3": "Bahaya Listrik", "field_4": 637300.5, "field_5": 9217031.59 }, "geometry": { "type": "Point", "coordinates": [ 112.243211757173796, -7.081738098060403 ] } },
{ "type": "Feature", "properties": { "field_1": 1172046, "field_2": "Lainnya", "field_3": "Bahaya Listrik", "field_4": 637094.3, "field_5": 9216800.39 }, "geometry": { "type": "Point", "coordinates": [ 112.241350573887573, -7.083834009190474 ] } },
{ "type": "Feature", "properties": { "field_1": 1172047, "field_2": "Lainnya", "field_3": "Bahaya Listrik", "field_4": 637106.8, "field_5": 9216800.3 }, "geometry": { "type": "Point", "coordinates": [ 112.241463741974698, -7.08383452102529 ] } },
{ "type": "Feature", "properties": { "field_1": 1172048, "field_2": "Lainnya", "field_3": "Bahaya Listrik", "field_4": 637119.3, "field_5": 9216800.39 }, "geometry": { "type": "Point", "coordinates": [ 112.241576905701777, -7.08383340494952 ] } },
{ "type": "Feature", "properties": { "field_1": 1172049, "field_2": "Lainnya", "field_3": "Bahaya Listrik", "field_4": 637131.8, "field_5": 9216800.3 }, "geometry": { "type": "Point", "coordinates": [ 112.241690073779395, -7.08383391672922 ] } },
{ "type": "Feature", "properties": { "field_1": 1201091, "field_2": "Lainnya", "field_3": "Bahaya Listrik", "field_4": 639300.5, "field_5": 9226694.0 }, "geometry": { "type": "Point", "coordinates": [ 112.261082199224703, -6.994304990092021 ] } },
{ "type": "Feature", "properties": { "field_1": 1201099, "field_2": "Lainnya", "field_3": "Bahaya Listrik", "field_4": 639300.5, "field_5": 9226594.0 }, "geometry": { "type": "Point", "coordinates": [ 112.261084625739244, -6.995209366198387 ] } },
{ "type": "Feature", "properties": { "field_1": 1201180, "field_2": "Lainnya", "field_3": "Bahaya Listrik", "field_4": 639300.5, "field_5": 9225581.5 }, "geometry": { "type": "Point", "coordinates": [ 112.261109212307019, -7.004366172275444 ] } },
{ "type": "Feature", "properties": { "field_1": 1211123, "field_2": "Lainnya", "field_3": "Bahaya Listrik", "field_4": 624506.8, "field_5": 9218800.3 }, "geometry": { "type": "Point", "coordinates": [ 112.127346181598, -7.066036729073313 ] } },
{ "type": "Feature", "properties": { "field_1": 1211540, "field_2": "Lainnya", "field_3": "Bahaya Listrik", "field_4": 629719.3, "field_5": 9218800.3 }, "geometry": { "type": "Point", "coordinates": [ 112.174536117368703, -7.065920222655462 ] } },
{ "type": "Feature", "properties": { "field_1": 1211541, "field_2": "Lainnya", "field_3": "Bahaya Listrik", "field_4": 629731.8, "field_5": 9218800.3 }, "geometry": { "type": "Point", "coordinates": [ 112.174649281716867, -7.065919937525273 ] } },
{ "type": "Feature", "properties": { "field_1": 1211542, "field_2": "Lainnya", "field_3": "Bahaya Listrik", "field_4": 629744.3, "field_5": 9218800.3 }, "geometry": { "type": "Point", "coordinates": [ 112.174762446060356, -7.065919652367628 ] } },
{ "type": "Feature", "properties": { "field_1": 1211543, "field_2": "Lainnya", "field_3": "Bahaya Listrik", "field_4": 629756.8, "field_5": 9218800.3 }, "geometry": { "type": "Point", "coordinates": [ 112.17487561039917, -7.065919367182528 ] } },
{ "type": "Feature", "properties": { "field_1": 1211544, "field_2": "Lainnya", "field_3": "Bahaya Listrik", "field_4": 629769.3, "field_5": 9218800.3 }, "geometry": { "type": "Point", "coordinates": [ 112.174988774733279, -7.065919081969973 ] } },
{ "type": "Feature", "properties": { "field_1": 1211545, "field_2": "Lainnya", "field_3": "Bahaya Listrik", "field_4": 629781.8, "field_5": 9218800.3 }, "geometry": { "type": "Point", "coordinates": [ 112.175101939062728, -7.065918796729964 ] } },
{ "type": "Feature", "properties": { "field_1": 1211546, "field_2": "Lainnya", "field_3": "Bahaya Listrik", "field_4": 629794.3, "field_5": 9218800.3 }, "geometry": { "type": "Point", "coordinates": [ 112.175215103387472, -7.065918511462498 ] } },
{ "type": "Feature", "properties": { "field_1": 1211547, "field_2": "Lainnya", "field_3": "Bahaya Listrik", "field_4": 629806.8, "field_5": 9218800.3 }, "geometry": { "type": "Point", "coordinates": [ 112.175328267707542, -7.065918226167577 ] } },
{ "type": "Feature", "properties": { "field_1": 1211548, "field_2": "Lainnya", "field_3": "Bahaya Listrik", "field_4": 629819.3, "field_5": 9218800.3 }, "geometry": { "type": "Point", "coordinates": [ 112.175441432022936, -7.065917940845201 ] } },
{ "type": "Feature", "properties": { "field_1": 1211549, "field_2": "Lainnya", "field_3": "Bahaya Listrik", "field_4": 629831.8, "field_5": 9218800.3 }, "geometry": { "type": "Point", "coordinates": [ 112.175554596333612, -7.065917655495371 ] } },
{ "type": "Feature", "properties": { "field_1": 1211550, "field_2": "Lainnya", "field_3": "Bahaya Listrik", "field_4": 629844.3, "field_5": 9218800.3 }, "geometry": { "type": "Point", "coordinates": [ 112.175667760639641, -7.065917370118085 ] } },
{ "type": "Feature", "properties": { "field_1": 1211551, "field_2": "Lainnya", "field_3": "Bahaya Listrik", "field_4": 629856.8, "field_5": 9218800.3 }, "geometry": { "type": "Point", "coordinates": [ 112.175780924940966, -7.065917084713344 ] } },
{ "type": "Feature", "properties": { "field_1": 1211552, "field_2": "Lainnya", "field_3": "Bahaya Listrik", "field_4": 629869.3, "field_5": 9218800.3 }, "geometry": { "type": "Point", "coordinates": [ 112.175894089237602, -7.065916799281148 ] } },
{ "type": "Feature", "properties": { "field_1": 1211553, "field_2": "Lainnya", "field_3": "Bahaya Listrik", "field_4": 629881.8, "field_5": 9218800.3 }, "geometry": { "type": "Point", "coordinates": [ 112.176007253529548, -7.065916513821496 ] } },
{ "type": "Feature", "properties": { "field_1": 1211554, "field_2": "Lainnya", "field_3": "Bahaya Listrik", "field_4": 629894.3, "field_5": 9218800.3 }, "geometry": { "type": "Point", "coordinates": [ 112.176120417816819, -7.065916228334389 ] } },
{ "type": "Feature", "properties": { "field_1": 1211555, "field_2": "Lainnya", "field_3": "Bahaya Listrik", "field_4": 629906.8, "field_5": 9218800.3 }, "geometry": { "type": "Point", "coordinates": [ 112.176233582099385, -7.065915942819829 ] } },
{ "type": "Feature", "properties": { "field_1": 1211556, "field_2": "Lainnya", "field_3": "Bahaya Listrik", "field_4": 629919.3, "field_5": 9218800.3 }, "geometry": { "type": "Point", "coordinates": [ 112.176346746377277, -7.06591565727781 ] } },
{ "type": "Feature", "properties": { "field_1": 1211557, "field_2": "Lainnya", "field_3": "Bahaya Listrik", "field_4": 629931.8, "field_5": 9218800.3 }, "geometry": { "type": "Point", "coordinates": [ 112.176459910650479, -7.065915371708337 ] } },
{ "type": "Feature", "properties": { "field_1": 1211558, "field_2": "Lainnya", "field_3": "Bahaya Listrik", "field_4": 629944.3, "field_5": 9218800.3 }, "geometry": { "type": "Point", "coordinates": [ 112.176573074918991, -7.065915086111411 ] } },
{ "type": "Feature", "properties": { "field_1": 1231778, "field_2": "Lainnya", "field_3": "Bahaya Listrik", "field_4": 632644.3, "field_5": 9219800.39 }, "geometry": { "type": "Point", "coordinates": [ 112.200993112679896, -7.056807999233977 ] } },
{ "type": "Feature", "properties": { "field_1": 1231779, "field_2": "Lainnya", "field_3": "Bahaya Listrik", "field_4": 632656.8, "field_5": 9219800.3 }, "geometry": { "type": "Point", "coordinates": [ 112.201106275821502, -7.056808522011059 ] } },
{ "type": "Feature", "properties": { "field_1": 1231780, "field_2": "Lainnya", "field_3": "Bahaya Listrik", "field_4": 632669.3, "field_5": 9219800.39 }, "geometry": { "type": "Point", "coordinates": [ 112.201219434761043, -7.05680741685117 ] } },
{ "type": "Feature", "properties": { "field_1": 1231781, "field_2": "Lainnya", "field_3": "Bahaya Listrik", "field_4": 632681.8, "field_5": 9219800.3 }, "geometry": { "type": "Point", "coordinates": [ 112.201332597893469, -7.056807939573344 ] } },
{ "type": "Feature", "properties": { "field_1": 1231782, "field_2": "Lainnya", "field_3": "Bahaya Listrik", "field_4": 632694.3, "field_5": 9219800.39 }, "geometry": { "type": "Point", "coordinates": [ 112.201445756823034, -7.056806834358685 ] } }
]
}
