{
"type": "FeatureCollection",
"name": "field_3_Cangkang Keong",
"crs": { "type": "name", "properties": { "name": "urn:ogc:def:crs:EPSG::32749" } },
"xy_coordinate_resolution": 1e-15,
"features": [
{ "type": "Feature", "properties": { "field_1": 1171802, "field_2": "Binatang berbahaya", "field_3": "Cangkang Keong", "field_4": 634044.3, "field_5": 9216800.39 }, "geometry": { "type": "Point", "coordinates": [ 634044.300000000046566, 9216800.390000000596046 ] } },
{ "type": "Feature", "properties": { "field_1": 1171803, "field_2": "Binatang berbahaya", "field_3": "Cangkang Keong", "field_4": 634056.8, "field_5": 9216800.3 }, "geometry": { "type": "Point", "coordinates": [ 634056.800000000046566, 9216800.300000000745058 ] } },
{ "type": "Feature", "properties": { "field_1": 1191345, "field_2": "Lainnya", "field_3": "Cangkang Keong", "field_4": 627381.8, "field_5": 9217800.3 }, "geometry": { "type": "Point", "coordinates": [ 627381.800000000046566, 9217800.300000000745058 ] } },
{ "type": "Feature", "properties": { "field_1": 1191346, "field_2": "Lainnya", "field_3": "Cangkang Keong", "field_4": 627394.3, "field_5": 9217800.3 }, "geometry": { "type": "Point", "coordinates": [ 627394.300000000046566, 9217800.300000000745058 ] } },
{ "type": "Feature", "properties": { "field_1": 1191347, "field_2": "Lainnya", "field_3": "Cangkang Keong", "field_4": 627406.8, "field_5": 9217800.3 }, "geometry": { "type": "Point", "coordinates": [ 627406.800000000046566, 9217800.300000000745058 ] } },
{ "type": "Feature", "properties": { "field_1": 1441273, "field_2": "Lainnya", "field_3": "Cangkang Keong", "field_4": 651300.5, "field_5": 9221469.0 }, "geometry": { "type": "Point", "coordinates": [ 651300.5, 9221469.0 ] } },
{ "type": "Feature", "properties": { "field_1": 1441274, "field_2": "Lainnya", "field_3": "Cangkang Keong", "field_4": 651300.5, "field_5": 9221456.5 }, "geometry": { "type": "Point", "coordinates": [ 651300.5, 9221456.5 ] } },
{ "type": "Feature", "properties": { "field_1": 1441275, "field_2": "Lainnya", "field_3": "Cangkang Keong", "field_4": 651300.5, "field_5": 9221444.0 }, "geometry": { "type": "Point", "coordinates": [ 651300.5, 9221444.0 ] } },
{ "type": "Feature", "properties": { "field_1": 1441276, "field_2": "Lainnya", "field_3": "Cangkang Keong", "field_4": 651300.5, "field_5": 9221431.5 }, "geometry": { "type": "Point", "coordinates": [ 651300.5, 9221431.5 ] } },
{ "type": "Feature", "properties": { "field_1": 1441278, "field_2": "Lainnya", "field_3": "Cangkang Keong", "field_4": 651300.5, "field_5": 9221406.5 }, "geometry": { "type": "Point", "coordinates": [ 651300.5, 9221406.5 ] } },
{ "type": "Feature", "properties": { "field_1": 1441279, "field_2": "Lainnya", "field_3": "Cangkang Keong", "field_4": 651300.5, "field_5": 9221394.0 }, "geometry": { "type": "Point", "coordinates": [ 651300.5, 9221394.0 ] } },
{ "type": "Feature", "properties": { "field_1": 1441280, "field_2": "Lainnya", "field_3": "Cangkang Keong", "field_4": 651300.5, "field_5": 9221381.5 }, "geometry": { "type": "Point", "coordinates": [ 651300.5, 9221381.5 ] } },
{ "type": "Feature", "properties": { "field_1": 1441281, "field_2": "Lainnya", "field_3": "Cangkang Keong", "field_4": 651300.5, "field_5": 9221369.0 }, "geometry": { "type": "Point", "coordinates": [ 651300.5, 9221369.0 ] } },
{ "type": "Feature", "properties": { "field_1": 1441282, "field_2": "Lainnya", "field_3": "Cangkang Keong", "field_4": 651300.5, "field_5": 9221356.5 }, "geometry": { "type": "Point", "coordinates": [ 651300.5, 9221356.5 ] } },
{ "type": "Feature", "properties": { "field_1": 1441283, "field_2": "Lainnya", "field_3": "Cangkang Keong", "field_4": 651300.5, "field_5": 9221344.0 }, "geometry": { "type": "Point", "coordinates": [ 651300.5, 9221344.0 ] } },
{ "type": "Feature", "properties": { "field_1": 1441284, "field_2": "Lainnya", "field_3": "Cangkang Keong", "field_4": 651300.5, "field_5": 9221331.5 }, "geometry": { "type": "Point", "coordinates": [ 651300.5, 9221331.5 ] } },
{ "type": "Feature", "properties": { "field_1": 1441285, "field_2": "Lainnya", "field_3": "Cangkang Keong", "field_4": 651300.5, "field_5": 9221319.0 }, "geometry": { "type": "Point", "coordinates": [ 651300.5, 9221319.0 ] } },
{ "type": "Feature", "properties": { "field_1": 1441286, "field_2": "Lainnya", "field_3": "Cangkang Keong", "field_4": 651300.5, "field_5": 9221306.5 }, "geometry": { "type": "Point", "coordinates": [ 651300.5, 9221306.5 ] } },
{ "type": "Feature", "properties": { "field_1": 1441287, "field_2": "Lainnya", "field_3": "Cangkang Keong", "field_4": 651300.5, "field_5": 9221294.0 }, "geometry": { "type": "Point", "coordinates": [ 651300.5, 9221294.0 ] } },
{ "type": "Feature", "properties": { "field_1": 1441288, "field_2": "Lainnya", "field_3": "Cangkang Keong", "field_4": 651300.5, "field_5": 9221281.5 }, "geometry": { "type": "Point", "coordinates": [ 651300.5, 9221281.5 ] } },
{ "type": "Feature", "properties": { "field_1": 1441289, "field_2": "Lainnya", "field_3": "Cangkang Keong", "field_4": 651300.5, "field_5": 9221269.0 }, "geometry": { "type": "Point", "coordinates": [ 651300.5, 9221269.0 ] } },
{ "type": "Feature", "properties": { "field_1": 1441290, "field_2": "Lainnya", "field_3": "Cangkang Keong", "field_4": 651300.5, "field_5": 9221256.5 }, "geometry": { "type": "Point", "coordinates": [ 651300.5, 9221256.5 ] } },
{ "type": "Feature", "properties": { "field_1": 1441291, "field_2": "Lainnya", "field_3": "Cangkang Keong", "field_4": 651300.5, "field_5": 9221244.0 }, "geometry": { "type": "Point", "coordinates": [ 651300.5, 9221244.0 ] } },
{ "type": "Feature", "properties": { "field_1": 1441292, "field_2": "Lainnya", "field_3": "Cangkang Keong", "field_4": 651300.5, "field_5": 9221231.5 }, "geometry": { "type": "Point", "coordinates": [ 651300.5, 9221231.5 ] } },
{ "type": "Feature", "properties": { "field_1": 1441293, "field_2": "Lainnya", "field_3": "Cangkang Keong", "field_4": 651300.5, "field_5": 9221219.0 }, "geometry": { "type": "Point", "coordinates": [ 651300.5, 9221219.0 ] } },
{ "type": "Feature", "properties": { "field_1": 1441294, "field_2": "Lainnya", "field_3": "Cangkang Keong", "field_4": 651300.5, "field_5": 9221206.5 }, "geometry": { "type": "Point", "coordinates": [ 651300.5, 9221206.5 ] } },
{ "type": "Feature", "properties": { "field_1": 1441295, "field_2": "Lainnya", "field_3": "Cangkang Keong", "field_4": 651300.5, "field_5": 9221194.0 }, "geometry": { "type": "Point", "coordinates": [ 651300.5, 9221194.0 ] } },
{ "type": "Feature", "properties": { "field_1": 1441296, "field_2": "Lainnya", "field_3": "Cangkang Keong", "field_4": 651300.5, "field_5": 9221181.5 }, "geometry": { "type": "Point", "coordinates": [ 651300.5, 9221181.5 ] } },
{ "type": "Feature", "properties": { "field_1": 1441297, "field_2": "Lainnya", "field_3": "Cangkang Keong", "field_4": 651300.5, "field_5": 9221169.0 }, "geometry": { "type": "Point", "coordinates": [ 651300.5, 9221169.0 ] } },
{ "type": "Feature", "properties": { "field_1": 1441298, "field_2": "Lainnya", "field_3": "Cangkang Keong", "field_4": 651300.5, "field_5": 9221156.5 }, "geometry": { "type": "Point", "coordinates": [ 651300.5, 9221156.5 ] } },
{ "type": "Feature", "properties": { "field_1": 1441299, "field_2": "Lainnya", "field_3": "Cangkang Keong", "field_4": 651300.5, "field_5": 9221144.0 }, "geometry": { "type": "Point", "coordinates": [ 651300.5, 9221144.0 ] } },
{ "type": "Feature", "properties": { "field_1": 1441300, "field_2": "Lainnya", "field_3": "Cangkang Keong", "field_4": 651300.5, "field_5": 9221131.5 }, "geometry": { "type": "Point", "coordinates": [ 651300.5, 9221131.5 ] } },
{ "type": "Feature", "properties": { "field_1": 1441301, "field_2": "Lainnya", "field_3": "Cangkang Keong", "field_4": 651300.5, "field_5": 9221119.0 }, "geometry": { "type": "Point", "coordinates": [ 651300.5, 9221119.0 ] } },
{ "type": "Feature", "properties": { "field_1": 1441302, "field_2": "Lainnya", "field_3": "Cangkang Keong", "field_4": 651300.5, "field_5": 9221106.5 }, "geometry": { "type": "Point", "coordinates": [ 651300.5, 9221106.5 ] } },
{ "type": "Feature", "properties": { "field_1": 1441303, "field_2": "Lainnya", "field_3": "Cangkang Keong", "field_4": 651300.5, "field_5": 9221094.0 }, "geometry": { "type": "Point", "coordinates": [ 651300.5, 9221094.0 ] } },
{ "type": "Feature", "properties": { "field_1": 1441304, "field_2": "Lainnya", "field_3": "Cangkang Keong", "field_4": 651300.5, "field_5": 9221081.5 }, "geometry": { "type": "Point", "coordinates": [ 651300.5, 9221081.5 ] } },
{ "type": "Feature", "properties": { "field_1": 1441305, "field_2": "Lainnya", "field_3": "Cangkang Keong", "field_4": 651300.5, "field_5": 9221069.0 }, "geometry": { "type": "Point", "coordinates": [ 651300.5, 9221069.0 ] } },
{ "type": "Feature", "properties": { "field_1": 1441306, "field_2": "Lainnya", "field_3": "Cangkang Keong", "field_4": 651300.5, "field_5": 9221056.5 }, "geometry": { "type": "Point", "coordinates": [ 651300.5, 9221056.5 ] } },
{ "type": "Feature", "properties": { "field_1": 1441307, "field_2": "Lainnya", "field_3": "Cangkang Keong", "field_4": 651300.5, "field_5": 9221044.0 }, "geometry": { "type": "Point", "coordinates": [ 651300.5, 9221044.0 ] } },
{ "type": "Feature", "properties": { "field_1": 1441308, "field_2": "Lainnya", "field_3": "Cangkang Keong", "field_4": 651300.5, "field_5": 9221031.5 }, "geometry": { "type": "Point", "coordinates": [ 651300.5, 9221031.5 ] } },
{ "type": "Feature", "properties": { "field_1": 1441309, "field_2": "Lainnya", "field_3": "Cangkang Keong", "field_4": 651300.5, "field_5": 9221019.0 }, "geometry": { "type": "Point", "coordinates": [ 651300.5, 9221019.0 ] } },
{ "type": "Feature", "properties": { "field_1": 1441310, "field_2": "Lainnya", "field_3": "Cangkang Keong", "field_4": 651300.5, "field_5": 9221006.5 }, "geometry": { "type": "Point", "coordinates": [ 651300.5, 9221006.5 ] } },
{ "type": "Feature", "properties": { "field_1": 1441311, "field_2": "Lainnya", "field_3": "Cangkang Keong", "field_4": 651300.5, "field_5": 9220994.0 }, "geometry": { "type": "Point", "coordinates": [ 651300.5, 9220994.0 ] } },
{ "type": "Feature", "properties": { "field_1": 1441312, "field_2": "Lainnya", "field_3": "Cangkang Keong", "field_4": 651300.5, "field_5": 9220981.5 }, "geometry": { "type": "Point", "coordinates": [ 651300.5, 9220981.5 ] } },
{ "type": "Feature", "properties": { "field_1": 1441313, "field_2": "Lainnya", "field_3": "Cangkang Keong", "field_4": 651300.5, "field_5": 9220969.0 }, "geometry": { "type": "Point", "coordinates": [ 651300.5, 9220969.0 ] } },
{ "type": "Feature", "properties": { "field_1": 1441314, "field_2": "Lainnya", "field_3": "Cangkang Keong", "field_4": 651300.5, "field_5": 9220956.5 }, "geometry": { "type": "Point", "coordinates": [ 651300.5, 9220956.5 ] } },
{ "type": "Feature", "properties": { "field_1": 1441315, "field_2": "Lainnya", "field_3": "Cangkang Keong", "field_4": 651300.5, "field_5": 9220944.0 }, "geometry": { "type": "Point", "coordinates": [ 651300.5, 9220944.0 ] } },
{ "type": "Feature", "properties": { "field_1": 1441316, "field_2": "Lainnya", "field_3": "Cangkang Keong", "field_4": 651300.5, "field_5": 9220931.5 }, "geometry": { "type": "Point", "coordinates": [ 651300.5, 9220931.5 ] } },
{ "type": "Feature", "properties": { "field_1": 1441317, "field_2": "Lainnya", "field_3": "Cangkang Keong", "field_4": 651300.5, "field_5": 9220919.0 }, "geometry": { "type": "Point", "coordinates": [ 651300.5, 9220919.0 ] } },
{ "type": "Feature", "properties": { "field_1": 1441318, "field_2": "Lainnya", "field_3": "Cangkang Keong", "field_4": 651300.5, "field_5": 9220906.5 }, "geometry": { "type": "Point", "coordinates": [ 651300.5, 9220906.5 ] } },
{ "type": "Feature", "properties": { "field_1": 1441319, "field_2": "Lainnya", "field_3": "Cangkang Keong", "field_4": 651300.5, "field_5": 9220894.0 }, "geometry": { "type": "Point", "coordinates": [ 651300.5, 9220894.0 ] } },
{ "type": "Feature", "properties": { "field_1": 1441320, "field_2": "Lainnya", "field_3": "Cangkang Keong", "field_4": 651300.5, "field_5": 9220881.5 }, "geometry": { "type": "Point", "coordinates": [ 651300.5, 9220881.5 ] } },
{ "type": "Feature", "properties": { "field_1": 1441321, "field_2": "Lainnya", "field_3": "Cangkang Keong", "field_4": 651300.5, "field_5": 9220869.0 }, "geometry": { "type": "Point", "coordinates": [ 651300.5, 9220869.0 ] } },
{ "type": "Feature", "properties": { "field_1": 1441322, "field_2": "Lainnya", "field_3": "Cangkang Keong", "field_4": 651300.5, "field_5": 9220856.5 }, "geometry": { "type": "Point", "coordinates": [ 651300.5, 9220856.5 ] } },
{ "type": "Feature", "properties": { "field_1": 1441323, "field_2": "Lainnya", "field_3": "Cangkang Keong", "field_4": 651300.5, "field_5": 9220844.0 }, "geometry": { "type": "Point", "coordinates": [ 651300.5, 9220844.0 ] } },
{ "type": "Feature", "properties": { "field_1": 1441324, "field_2": "Lainnya", "field_3": "Cangkang Keong", "field_4": 651300.5, "field_5": 9220831.5 }, "geometry": { "type": "Point", "coordinates": [ 651300.5, 9220831.5 ] } },
{ "type": "Feature", "properties": { "field_1": 1441325, "field_2": "Lainnya", "field_3": "Cangkang Keong", "field_4": 651300.5, "field_5": 9220819.0 }, "geometry": { "type": "Point", "coordinates": [ 651300.5, 9220819.0 ] } },
{ "type": "Feature", "properties": { "field_1": 1441326, "field_2": "Lainnya", "field_3": "Cangkang Keong", "field_4": 651300.5, "field_5": 9220806.5 }, "geometry": { "type": "Point", "coordinates": [ 651300.5, 9220806.5 ] } },
{ "type": "Feature", "properties": { "field_1": 1441327, "field_2": "Lainnya", "field_3": "Cangkang Keong", "field_4": 651300.5, "field_5": 9220794.0 }, "geometry": { "type": "Point", "coordinates": [ 651300.5, 9220794.0 ] } },
{ "type": "Feature", "properties": { "field_1": 1441328, "field_2": "Lainnya", "field_3": "Cangkang Keong", "field_4": 651300.5, "field_5": 9220781.59 }, "geometry": { "type": "Point", "coordinates": [ 651300.5, 9220781.589999999850988 ] } },
{ "type": "Feature", "properties": { "field_1": 1441329, "field_2": "Lainnya", "field_3": "Cangkang Keong", "field_4": 651300.5, "field_5": 9220769.0 }, "geometry": { "type": "Point", "coordinates": [ 651300.5, 9220769.0 ] } },
{ "type": "Feature", "properties": { "field_1": 1441330, "field_2": "Lainnya", "field_3": "Cangkang Keong", "field_4": 651300.5, "field_5": 9220756.59 }, "geometry": { "type": "Point", "coordinates": [ 651300.5, 9220756.589999999850988 ] } },
{ "type": "Feature", "properties": { "field_1": 1441331, "field_2": "Lainnya", "field_3": "Cangkang Keong", "field_4": 651300.5, "field_5": 9220744.0 }, "geometry": { "type": "Point", "coordinates": [ 651300.5, 9220744.0 ] } },
{ "type": "Feature", "properties": { "field_1": 1441332, "field_2": "Lainnya", "field_3": "Cangkang Keong", "field_4": 651300.5, "field_5": 9220731.59 }, "geometry": { "type": "Point", "coordinates": [ 651300.5, 9220731.589999999850988 ] } },
{ "type": "Feature", "properties": { "field_1": 1441333, "field_2": "Lainnya", "field_3": "Cangkang Keong", "field_4": 651300.5, "field_5": 9220719.0 }, "geometry": { "type": "Point", "coordinates": [ 651300.5, 9220719.0 ] } },
{ "type": "Feature", "properties": { "field_1": 1441334, "field_2": "Lainnya", "field_3": "Cangkang Keong", "field_4": 651300.5, "field_5": 9220706.59 }, "geometry": { "type": "Point", "coordinates": [ 651300.5, 9220706.589999999850988 ] } },
{ "type": "Feature", "properties": { "field_1": 1441335, "field_2": "Lainnya", "field_3": "Cangkang Keong", "field_4": 651300.5, "field_5": 9220694.0 }, "geometry": { "type": "Point", "coordinates": [ 651300.5, 9220694.0 ] } },
{ "type": "Feature", "properties": { "field_1": 1441336, "field_2": "Lainnya", "field_3": "Cangkang Keong", "field_4": 651300.5, "field_5": 9220681.59 }, "geometry": { "type": "Point", "coordinates": [ 651300.5, 9220681.589999999850988 ] } },
{ "type": "Feature", "properties": { "field_1": 1441337, "field_2": "Lainnya", "field_3": "Cangkang Keong", "field_4": 651300.5, "field_5": 9220669.0 }, "geometry": { "type": "Point", "coordinates": [ 651300.5, 9220669.0 ] } },
{ "type": "Feature", "properties": { "field_1": 1441338, "field_2": "Lainnya", "field_3": "Cangkang Keong", "field_4": 651300.5, "field_5": 9220656.59 }, "geometry": { "type": "Point", "coordinates": [ 651300.5, 9220656.589999999850988 ] } },
{ "type": "Feature", "properties": { "field_1": 1441339, "field_2": "Lainnya", "field_3": "Cangkang Keong", "field_4": 651300.5, "field_5": 9220644.0 }, "geometry": { "type": "Point", "coordinates": [ 651300.5, 9220644.0 ] } },
{ "type": "Feature", "properties": { "field_1": 1441340, "field_2": "Lainnya", "field_3": "Cangkang Keong", "field_4": 651300.5, "field_5": 9220631.59 }, "geometry": { "type": "Point", "coordinates": [ 651300.5, 9220631.589999999850988 ] } },
{ "type": "Feature", "properties": { "field_1": 1441341, "field_2": "Lainnya", "field_3": "Cangkang Keong", "field_4": 651300.5, "field_5": 9220619.0 }, "geometry": { "type": "Point", "coordinates": [ 651300.5, 9220619.0 ] } },
{ "type": "Feature", "properties": { "field_1": 1441342, "field_2": "Lainnya", "field_3": "Cangkang Keong", "field_4": 651300.5, "field_5": 9220606.59 }, "geometry": { "type": "Point", "coordinates": [ 651300.5, 9220606.589999999850988 ] } },
{ "type": "Feature", "properties": { "field_1": 1441343, "field_2": "Lainnya", "field_3": "Cangkang Keong", "field_4": 651300.5, "field_5": 9220594.0 }, "geometry": { "type": "Point", "coordinates": [ 651300.5, 9220594.0 ] } },
{ "type": "Feature", "properties": { "field_1": 1441344, "field_2": "Lainnya", "field_3": "Cangkang Keong", "field_4": 651300.5, "field_5": 9220581.59 }, "geometry": { "type": "Point", "coordinates": [ 651300.5, 9220581.589999999850988 ] } },
{ "type": "Feature", "properties": { "field_1": 1441345, "field_2": "Lainnya", "field_3": "Cangkang Keong", "field_4": 651300.5, "field_5": 9220569.0 }, "geometry": { "type": "Point", "coordinates": [ 651300.5, 9220569.0 ] } },
{ "type": "Feature", "properties": { "field_1": 1441346, "field_2": "Lainnya", "field_3": "Cangkang Keong", "field_4": 651300.5, "field_5": 9220556.59 }, "geometry": { "type": "Point", "coordinates": [ 651300.5, 9220556.589999999850988 ] } },
{ "type": "Feature", "properties": { "field_1": 1441348, "field_2": "Lainnya", "field_3": "Cangkang Keong", "field_4": 651300.5, "field_5": 9220531.59 }, "geometry": { "type": "Point", "coordinates": [ 651300.5, 9220531.589999999850988 ] } },
{ "type": "Feature", "properties": { "field_1": 1441349, "field_2": "Lainnya", "field_3": "Cangkang Keong", "field_4": 651300.5, "field_5": 9220519.0 }, "geometry": { "type": "Point", "coordinates": [ 651300.5, 9220519.0 ] } },
{ "type": "Feature", "properties": { "field_1": 1441351, "field_2": "Lainnya", "field_3": "Cangkang Keong", "field_4": 651300.5, "field_5": 9220494.0 }, "geometry": { "type": "Point", "coordinates": [ 651300.5, 9220494.0 ] } },
{ "type": "Feature", "properties": { "field_1": 1441352, "field_2": "Lainnya", "field_3": "Cangkang Keong", "field_4": 651300.5, "field_5": 9220481.59 }, "geometry": { "type": "Point", "coordinates": [ 651300.5, 9220481.589999999850988 ] } },
{ "type": "Feature", "properties": { "field_1": 1441353, "field_2": "Lainnya", "field_3": "Cangkang Keong", "field_4": 651300.5, "field_5": 9220469.0 }, "geometry": { "type": "Point", "coordinates": [ 651300.5, 9220469.0 ] } },
{ "type": "Feature", "properties": { "field_1": 1441355, "field_2": "Lainnya", "field_3": "Cangkang Keong", "field_4": 651300.5, "field_5": 9220444.0 }, "geometry": { "type": "Point", "coordinates": [ 651300.5, 9220444.0 ] } },
{ "type": "Feature", "properties": { "field_1": 1441356, "field_2": "Lainnya", "field_3": "Cangkang Keong", "field_4": 651300.5, "field_5": 9220431.59 }, "geometry": { "type": "Point", "coordinates": [ 651300.5, 9220431.589999999850988 ] } },
{ "type": "Feature", "properties": { "field_1": 1441357, "field_2": "Lainnya", "field_3": "Cangkang Keong", "field_4": 651300.5, "field_5": 9220419.0 }, "geometry": { "type": "Point", "coordinates": [ 651300.5, 9220419.0 ] } },
{ "type": "Feature", "properties": { "field_1": 1441358, "field_2": "Lainnya", "field_3": "Cangkang Keong", "field_4": 651300.5, "field_5": 9220406.59 }, "geometry": { "type": "Point", "coordinates": [ 651300.5, 9220406.589999999850988 ] } },
{ "type": "Feature", "properties": { "field_1": 1441359, "field_2": "Lainnya", "field_3": "Cangkang Keong", "field_4": 651300.5, "field_5": 9220394.0 }, "geometry": { "type": "Point", "coordinates": [ 651300.5, 9220394.0 ] } },
{ "type": "Feature", "properties": { "field_1": 1441360, "field_2": "Lainnya", "field_3": "Cangkang Keong", "field_4": 651300.5, "field_5": 9220381.59 }, "geometry": { "type": "Point", "coordinates": [ 651300.5, 9220381.589999999850988 ] } },
{ "type": "Feature", "properties": { "field_1": 1441361, "field_2": "Lainnya", "field_3": "Cangkang Keong", "field_4": 651300.5, "field_5": 9220369.0 }, "geometry": { "type": "Point", "coordinates": [ 651300.5, 9220369.0 ] } },
{ "type": "Feature", "properties": { "field_1": 1441362, "field_2": "Lainnya", "field_3": "Cangkang Keong", "field_4": 651300.5, "field_5": 9220356.59 }, "geometry": { "type": "Point", "coordinates": [ 651300.5, 9220356.589999999850988 ] } },
{ "type": "Feature", "properties": { "field_1": 1441363, "field_2": "Lainnya", "field_3": "Cangkang Keong", "field_4": 651300.5, "field_5": 9220344.0 }, "geometry": { "type": "Point", "coordinates": [ 651300.5, 9220344.0 ] } },
{ "type": "Feature", "properties": { "field_1": 1441364, "field_2": "Lainnya", "field_3": "Cangkang Keong", "field_4": 651300.5, "field_5": 9220331.59 }, "geometry": { "type": "Point", "coordinates": [ 651300.5, 9220331.589999999850988 ] } },
{ "type": "Feature", "properties": { "field_1": 1441365, "field_2": "Lainnya", "field_3": "Cangkang Keong", "field_4": 651300.5, "field_5": 9220319.0 }, "geometry": { "type": "Point", "coordinates": [ 651300.5, 9220319.0 ] } },
{ "type": "Feature", "properties": { "field_1": 1441366, "field_2": "Lainnya", "field_3": "Cangkang Keong", "field_4": 651300.5, "field_5": 9220306.59 }, "geometry": { "type": "Point", "coordinates": [ 651300.5, 9220306.589999999850988 ] } },
{ "type": "Feature", "properties": { "field_1": 1441367, "field_2": "Lainnya", "field_3": "Cangkang Keong", "field_4": 651300.5, "field_5": 9220294.0 }, "geometry": { "type": "Point", "coordinates": [ 651300.5, 9220294.0 ] } },
{ "type": "Feature", "properties": { "field_1": 1441368, "field_2": "Lainnya", "field_3": "Cangkang Keong", "field_4": 651300.5, "field_5": 9220281.59 }, "geometry": { "type": "Point", "coordinates": [ 651300.5, 9220281.589999999850988 ] } },
{ "type": "Feature", "properties": { "field_1": 1441369, "field_2": "Lainnya", "field_3": "Cangkang Keong", "field_4": 651300.5, "field_5": 9220269.0 }, "geometry": { "type": "Point", "coordinates": [ 651300.5, 9220269.0 ] } },
{ "type": "Feature", "properties": { "field_1": 1441370, "field_2": "Lainnya", "field_3": "Cangkang Keong", "field_4": 651300.5, "field_5": 9220256.59 }, "geometry": { "type": "Point", "coordinates": [ 651300.5, 9220256.589999999850988 ] } },
{ "type": "Feature", "properties": { "field_1": 1441371, "field_2": "Lainnya", "field_3": "Cangkang Keong", "field_4": 651300.5, "field_5": 9220244.0 }, "geometry": { "type": "Point", "coordinates": [ 651300.5, 9220244.0 ] } },
{ "type": "Feature", "properties": { "field_1": 1441372, "field_2": "Lainnya", "field_3": "Cangkang Keong", "field_4": 651300.5, "field_5": 9220231.59 }, "geometry": { "type": "Point", "coordinates": [ 651300.5, 9220231.589999999850988 ] } },
{ "type": "Feature", "properties": { "field_1": 1441373, "field_2": "Lainnya", "field_3": "Cangkang Keong", "field_4": 651300.5, "field_5": 9220219.0 }, "geometry": { "type": "Point", "coordinates": [ 651300.5, 9220219.0 ] } },
{ "type": "Feature", "properties": { "field_1": 1441374, "field_2": "Lainnya", "field_3": "Cangkang Keong", "field_4": 651300.5, "field_5": 9220206.59 }, "geometry": { "type": "Point", "coordinates": [ 651300.5, 9220206.589999999850988 ] } },
{ "type": "Feature", "properties": { "field_1": 1441375, "field_2": "Lainnya", "field_3": "Cangkang Keong", "field_4": 651300.5, "field_5": 9220194.0 }, "geometry": { "type": "Point", "coordinates": [ 651300.5, 9220194.0 ] } },
{ "type": "Feature", "properties": { "field_1": 1441376, "field_2": "Lainnya", "field_3": "Cangkang Keong", "field_4": 651300.5, "field_5": 9220181.59 }, "geometry": { "type": "Point", "coordinates": [ 651300.5, 9220181.589999999850988 ] } },
{ "type": "Feature", "properties": { "field_1": 1441377, "field_2": "Lainnya", "field_3": "Cangkang Keong", "field_4": 651300.5, "field_5": 9220169.0 }, "geometry": { "type": "Point", "coordinates": [ 651300.5, 9220169.0 ] } },
{ "type": "Feature", "properties": { "field_1": 1441378, "field_2": "Lainnya", "field_3": "Cangkang Keong", "field_4": 651300.5, "field_5": 9220156.59 }, "geometry": { "type": "Point", "coordinates": [ 651300.5, 9220156.589999999850988 ] } },
{ "type": "Feature", "properties": { "field_1": 1441379, "field_2": "Lainnya", "field_3": "Cangkang Keong", "field_4": 651300.5, "field_5": 9220144.0 }, "geometry": { "type": "Point", "coordinates": [ 651300.5, 9220144.0 ] } },
{ "type": "Feature", "properties": { "field_1": 1441380, "field_2": "Lainnya", "field_3": "Cangkang Keong", "field_4": 651300.5, "field_5": 9220131.59 }, "geometry": { "type": "Point", "coordinates": [ 651300.5, 9220131.589999999850988 ] } },
{ "type": "Feature", "properties": { "field_1": 1441381, "field_2": "Lainnya", "field_3": "Cangkang Keong", "field_4": 651300.5, "field_5": 9220119.0 }, "geometry": { "type": "Point", "coordinates": [ 651300.5, 9220119.0 ] } },
{ "type": "Feature", "properties": { "field_1": 1441382, "field_2": "Lainnya", "field_3": "Cangkang Keong", "field_4": 651300.5, "field_5": 9220106.59 }, "geometry": { "type": "Point", "coordinates": [ 651300.5, 9220106.589999999850988 ] } },
{ "type": "Feature", "properties": { "field_1": 1441383, "field_2": "Lainnya", "field_3": "Cangkang Keong", "field_4": 651300.5, "field_5": 9220094.0 }, "geometry": { "type": "Point", "coordinates": [ 651300.5, 9220094.0 ] } },
{ "type": "Feature", "properties": { "field_1": 1441384, "field_2": "Lainnya", "field_3": "Cangkang Keong", "field_4": 651300.5, "field_5": 9220081.59 }, "geometry": { "type": "Point", "coordinates": [ 651300.5, 9220081.589999999850988 ] } },
{ "type": "Feature", "properties": { "field_1": 1441385, "field_2": "Lainnya", "field_3": "Cangkang Keong", "field_4": 651300.5, "field_5": 9220069.0 }, "geometry": { "type": "Point", "coordinates": [ 651300.5, 9220069.0 ] } },
{ "type": "Feature", "properties": { "field_1": 1441386, "field_2": "Lainnya", "field_3": "Cangkang Keong", "field_4": 651300.5, "field_5": 9220056.59 }, "geometry": { "type": "Point", "coordinates": [ 651300.5, 9220056.589999999850988 ] } },
{ "type": "Feature", "properties": { "field_1": 1441387, "field_2": "Lainnya", "field_3": "Cangkang Keong", "field_4": 651300.5, "field_5": 9220044.0 }, "geometry": { "type": "Point", "coordinates": [ 651300.5, 9220044.0 ] } },
{ "type": "Feature", "properties": { "field_1": 1441388, "field_2": "Lainnya", "field_3": "Cangkang Keong", "field_4": 651300.5, "field_5": 9220031.59 }, "geometry": { "type": "Point", "coordinates": [ 651300.5, 9220031.589999999850988 ] } },
{ "type": "Feature", "properties": { "field_1": 1441389, "field_2": "Lainnya", "field_3": "Cangkang Keong", "field_4": 651300.5, "field_5": 9220019.0 }, "geometry": { "type": "Point", "coordinates": [ 651300.5, 9220019.0 ] } },
{ "type": "Feature", "properties": { "field_1": 1441391, "field_2": "Lainnya", "field_3": "Cangkang Keong", "field_4": 651300.5, "field_5": 9219994.0 }, "geometry": { "type": "Point", "coordinates": [ 651300.5, 9219994.0 ] } },
{ "type": "Feature", "properties": { "field_1": 1441392, "field_2": "Lainnya", "field_3": "Cangkang Keong", "field_4": 651300.5, "field_5": 9219981.59 }, "geometry": { "type": "Point", "coordinates": [ 651300.5, 9219981.589999999850988 ] } },
{ "type": "Feature", "properties": { "field_1": 1441393, "field_2": "Lainnya", "field_3": "Cangkang Keong", "field_4": 651300.5, "field_5": 9219969.0 }, "geometry": { "type": "Point", "coordinates": [ 651300.5, 9219969.0 ] } },
{ "type": "Feature", "properties": { "field_1": 1441394, "field_2": "Lainnya", "field_3": "Cangkang Keong", "field_4": 651300.5, "field_5": 9219956.59 }, "geometry": { "type": "Point", "coordinates": [ 651300.5, 9219956.589999999850988 ] } },
{ "type": "Feature", "properties": { "field_1": 1441395, "field_2": "Lainnya", "field_3": "Cangkang Keong", "field_4": 651300.5, "field_5": 9219944.0 }, "geometry": { "type": "Point", "coordinates": [ 651300.5, 9219944.0 ] } },
{ "type": "Feature", "properties": { "field_1": 1441396, "field_2": "Lainnya", "field_3": "Cangkang Keong", "field_4": 651300.5, "field_5": 9219931.59 }, "geometry": { "type": "Point", "coordinates": [ 651300.5, 9219931.589999999850988 ] } },
{ "type": "Feature", "properties": { "field_1": 1441397, "field_2": "Lainnya", "field_3": "Cangkang Keong", "field_4": 651300.5, "field_5": 9219919.0 }, "geometry": { "type": "Point", "coordinates": [ 651300.5, 9219919.0 ] } }
]
}
