{
"type": "FeatureCollection",
"name": "Lumpur_Hisap",
"crs": { "type": "name", "properties": { "name": "urn:ogc:def:crs:OGC:1.3:CRS84" } },
"features": [
{ "type": "Feature", "properties": { "field_1": 1061225, "field_2": "Sungai/ Rawa", "field_3": "Lumpur Hisap", "field_4": 632300.5, "field_5": 9224419.0 }, "geometry": { "type": "Point", "coordinates": [ 112.197773646058351, -7.015045468655416 ] } },
{ "type": "Feature", "properties": { "field_1": 1121610, "field_2": "Sungai / Rawa", "field_3": "Lumpur Hisap", "field_4": 635300.5, "field_5": 9219406.59 }, "geometry": { "type": "Point", "coordinates": [ 112.225048641430149, -7.060306981398654 ] } },
{ "type": "Feature", "properties": { "field_1": 1121611, "field_2": "Sungai / Rawa", "field_3": "Lumpur Hisap", "field_4": 635300.5, "field_5": 9219394.0 }, "geometry": { "type": "Point", "coordinates": [ 112.22504894101175, -7.060420843596601 ] } },
{ "type": "Feature", "properties": { "field_1": 1121612, "field_2": "Sungai / Rawa", "field_3": "Lumpur Hisap", "field_4": 635300.5, "field_5": 9219381.59 }, "geometry": { "type": "Point", "coordinates": [ 112.225049236315058, -7.060533077899189 ] } },
{ "type": "Feature", "properties": { "field_1": 1121613, "field_2": "Sungai / Rawa", "field_3": "Lumpur Hisap", "field_4": 635300.5, "field_5": 9219369.0 }, "geometry": { "type": "Point", "coordinates": [ 112.225049535906479, -7.060646940096009 ] } },
{ "type": "Feature", "properties": { "field_1": 1121614, "field_2": "Sungai / Rawa", "field_3": "Lumpur Hisap", "field_4": 635300.5, "field_5": 9219356.59 }, "geometry": { "type": "Point", "coordinates": [ 112.225049831219479, -7.060759174397487 ] } },
{ "type": "Feature", "properties": { "field_1": 1121615, "field_2": "Sungai / Rawa", "field_3": "Lumpur Hisap", "field_4": 635300.5, "field_5": 9219344.0 }, "geometry": { "type": "Point", "coordinates": [ 112.225050130820748, -7.06087303659318 ] } },
{ "type": "Feature", "properties": { "field_1": 1121616, "field_2": "Sungai / Rawa", "field_3": "Lumpur Hisap", "field_4": 635300.5, "field_5": 9219331.59 }, "geometry": { "type": "Point", "coordinates": [ 112.22505042614344, -7.060985270893546 ] } },
{ "type": "Feature", "properties": { "field_1": 1121617, "field_2": "Sungai / Rawa", "field_3": "Lumpur Hisap", "field_4": 635300.5, "field_5": 9219319.0 }, "geometry": { "type": "Point", "coordinates": [ 112.225050725754542, -7.061099133088115 ] } },
{ "type": "Feature", "properties": { "field_1": 1121618, "field_2": "Sungai / Rawa", "field_3": "Lumpur Hisap", "field_4": 635300.5, "field_5": 9219306.59 }, "geometry": { "type": "Point", "coordinates": [ 112.225051021086941, -7.061211367387373 ] } },
{ "type": "Feature", "properties": { "field_1": 1121619, "field_2": "Sungai / Rawa", "field_3": "Lumpur Hisap", "field_4": 635300.5, "field_5": 9219294.0 }, "geometry": { "type": "Point", "coordinates": [ 112.225051320707877, -7.061325229580815 ] } },
{ "type": "Feature", "properties": { "field_1": 1121620, "field_2": "Sungai / Rawa", "field_3": "Lumpur Hisap", "field_4": 635300.5, "field_5": 9219281.59 }, "geometry": { "type": "Point", "coordinates": [ 112.225051616049953, -7.061437463878962 ] } },
{ "type": "Feature", "properties": { "field_1": 1121621, "field_2": "Sungai / Rawa", "field_3": "Lumpur Hisap", "field_4": 635300.5, "field_5": 9219269.0 }, "geometry": { "type": "Point", "coordinates": [ 112.225051915680723, -7.061551326071279 ] } },
{ "type": "Feature", "properties": { "field_1": 1121622, "field_2": "Sungai / Rawa", "field_3": "Lumpur Hisap", "field_4": 635300.5, "field_5": 9219256.59 }, "geometry": { "type": "Point", "coordinates": [ 112.225052211032519, -7.061663560368315 ] } },
{ "type": "Feature", "properties": { "field_1": 1121623, "field_2": "Sungai / Rawa", "field_3": "Lumpur Hisap", "field_4": 635300.5, "field_5": 9219244.0 }, "geometry": { "type": "Point", "coordinates": [ 112.225052510673123, -7.061777422559505 ] } },
{ "type": "Feature", "properties": { "field_1": 1121624, "field_2": "Sungai / Rawa", "field_3": "Lumpur Hisap", "field_4": 635300.5, "field_5": 9219231.59 }, "geometry": { "type": "Point", "coordinates": [ 112.225052806034597, -7.061889656855432 ] } },
{ "type": "Feature", "properties": { "field_1": 1121625, "field_2": "Sungai / Rawa", "field_3": "Lumpur Hisap", "field_4": 635300.5, "field_5": 9219219.0 }, "geometry": { "type": "Point", "coordinates": [ 112.225053105685049, -7.062003519045496 ] } },
{ "type": "Feature", "properties": { "field_1": 1121626, "field_2": "Sungai / Rawa", "field_3": "Lumpur Hisap", "field_4": 635300.5, "field_5": 9219206.59 }, "geometry": { "type": "Point", "coordinates": [ 112.225053401056215, -7.062115753340313 ] } },
{ "type": "Feature", "properties": { "field_1": 1121627, "field_2": "Sungai / Rawa", "field_3": "Lumpur Hisap", "field_4": 635300.5, "field_5": 9219194.0 }, "geometry": { "type": "Point", "coordinates": [ 112.225053700716501, -7.062229615529251 ] } },
{ "type": "Feature", "properties": { "field_1": 1121628, "field_2": "Sungai / Rawa", "field_3": "Lumpur Hisap", "field_4": 635300.5, "field_5": 9219181.59 }, "geometry": { "type": "Point", "coordinates": [ 112.225053996097373, -7.062341849822958 ] } },
{ "type": "Feature", "properties": { "field_1": 1161834, "field_2": "Sungai/Rawa", "field_3": "Lumpur Hisap", "field_4": 637300.5, "field_5": 9216756.59 }, "geometry": { "type": "Point", "coordinates": [ 112.243218419365164, -7.084225140065143 ] } },
{ "type": "Feature", "properties": { "field_1": 1161835, "field_2": "Sungai/Rawa", "field_3": "Lumpur Hisap", "field_4": 637300.5, "field_5": 9216744.0 }, "geometry": { "type": "Point", "coordinates": [ 112.243218724429823, -7.084339001363513 ] } },
{ "type": "Feature", "properties": { "field_1": 1161836, "field_2": "Sungai/Rawa", "field_3": "Lumpur Hisap", "field_4": 637300.5, "field_5": 9216731.59 }, "geometry": { "type": "Point", "coordinates": [ 112.243219025137861, -7.08445123477938 ] } },
{ "type": "Feature", "properties": { "field_1": 1421224, "field_2": "Lainnya", "field_3": "Lumpur Hisap", "field_4": 650300.5, "field_5": 9223031.5 }, "geometry": { "type": "Point", "coordinates": [ 112.360742474675732, -7.027149224924126 ] } },
{ "type": "Feature", "properties": { "field_1": 1322268, "field_2": "Sungai/ Rawa", "field_3": "Lumpur Hisap", "field_4": 645300.5, "field_5": 9211031.59 }, "geometry": { "type": "Point", "coordinates": [ 112.315790923470118, -7.135800022221622 ] } }
]
}
