{
"type": "FeatureCollection",
"name": "Pohon_Lapuk",
"crs": { "type": "name", "properties": { "name": "urn:ogc:def:crs:OGC:1.3:CRS84" } },
"features": [
{ "type": "Feature", "properties": { "field_1": 1241780, "field_2": "Lainnya", "field_3": "Pohon Lapuk", "field_4": 641300.5, "field_5": 9219181.59 }, "geometry": { "type": "Point", "coordinates": [ 112.279370886309664, -7.062196019499169 ] } },
{ "type": "Feature", "properties": { "field_1": 1241781, "field_2": "Lainnya", "field_3": "Pohon Lapuk", "field_4": 641300.5, "field_5": 9219169.0 }, "geometry": { "type": "Point", "coordinates": [ 112.279371199258037, -7.062309879312803 ] } },
{ "type": "Feature", "properties": { "field_1": 1241782, "field_2": "Lainnya", "field_3": "Pohon Lapuk", "field_4": 641300.5, "field_5": 9219156.59 }, "geometry": { "type": "Point", "coordinates": [ 112.27937150773721, -7.062422111265163 ] } },
{ "type": "Feature", "properties": { "field_1": 1241783, "field_2": "Lainnya", "field_3": "Pohon Lapuk", "field_4": 641300.5, "field_5": 9219144.0 }, "geometry": { "type": "Point", "coordinates": [ 112.279371820695829, -7.062535971077669 ] } },
{ "type": "Feature", "properties": { "field_1": 1241784, "field_2": "Lainnya", "field_3": "Pohon Lapuk", "field_4": 641300.5, "field_5": 9219131.59 }, "geometry": { "type": "Point", "coordinates": [ 112.279372129185134, -7.062648203028917 ] } },
{ "type": "Feature", "properties": { "field_1": 1241785, "field_2": "Lainnya", "field_3": "Pohon Lapuk", "field_4": 641300.5, "field_5": 9219119.0 }, "geometry": { "type": "Point", "coordinates": [ 112.279372442154028, -7.062762062840294 ] } },
{ "type": "Feature", "properties": { "field_1": 1241786, "field_2": "Lainnya", "field_3": "Pohon Lapuk", "field_4": 641300.5, "field_5": 9219106.59 }, "geometry": { "type": "Point", "coordinates": [ 112.279372750653465, -7.062874294790429 ] } },
{ "type": "Feature", "properties": { "field_1": 1241787, "field_2": "Lainnya", "field_3": "Pohon Lapuk", "field_4": 641300.5, "field_5": 9219094.0 }, "geometry": { "type": "Point", "coordinates": [ 112.279373063632619, -7.062988154600677 ] } },
{ "type": "Feature", "properties": { "field_1": 1342843, "field_2": "Pohon Lapuk", "field_3": "Pohon Lapuk", "field_4": 646300.5, "field_5": 9203844.0 }, "geometry": { "type": "Point", "coordinates": [ 112.325032762738445, -7.200774847302672 ] } }
]
}
