{
"type": "FeatureCollection",
"name": "Pohon Lapuk",
"crs": { "type": "name", "properties": { "name": "urn:ogc:def:crs:EPSG::32749" } },
"features": [
{ "type": "Feature", "properties": { "field_1": 1102280, "field_2": "Pohon lapuk", "field_3": "Potensi Kebakaran", "field_4": 634300.5, "field_5": 9211331.59 }, "geometry": { "type": "Point", "coordinates": [ 634300.5, 9211331.589999999850988 ] } },
{ "type": "Feature", "properties": { "field_1": 1102298, "field_2": "Pohon lapuk", "field_3": "Potensi Kebakaran", "field_4": 634300.5, "field_5": 9211106.59 }, "geometry": { "type": "Point", "coordinates": [ 634300.5, 9211106.589999999850988 ] } },
{ "type": "Feature", "properties": { "field_1": 1102304, "field_2": "Pohon lapuk", "field_3": "Potensi Kebakaran", "field_4": 634300.5, "field_5": 9211031.59 }, "geometry": { "type": "Point", "coordinates": [ 634300.5, 9211031.589999999850988 ] } },
{ "type": "Feature", "properties": { "field_1": 1342843, "field_2": "Pohon lapuk", "field_3": "Pohon lapuk", "field_4": 646300.5, "field_5": 9203844.0 }, "geometry": { "type": "Point", "coordinates": [ 646300.5, 9203844.0 ] } }
]
}
