{
"type": "FeatureCollection",
"name": "Potensi Banjir",
"crs": { "type": "name", "properties": { "name": "urn:ogc:def:crs:EPSG::32749" } },
"features": [
{ "type": "Feature", "properties": { "field_1": 1041085, "field_2": "Potensi banjir", "field_3": "Potensi Banjir", "field_4": 631300.5, "field_5": 9225969.0 }, "geometry": { "type": "Point", "coordinates": [ 631300.5, 9225969.0 ] } },
{ "type": "Feature", "properties": { "field_1": 1041086, "field_2": "Potensi banjir", "field_3": "Potensi Banjir", "field_4": 631300.5, "field_5": 9225956.5 }, "geometry": { "type": "Point", "coordinates": [ 631300.5, 9225956.5 ] } },
{ "type": "Feature", "properties": { "field_1": 1041087, "field_2": "Potensi banjir", "field_3": "Potensi Banjir", "field_4": 631300.5, "field_5": 9225944.0 }, "geometry": { "type": "Point", "coordinates": [ 631300.5, 9225944.0 ] } },
{ "type": "Feature", "properties": { "field_1": 1041139, "field_2": "Potensi banjir", "field_3": "Sungai", "field_4": 631300.5, "field_5": 9225294.0 }, "geometry": { "type": "Point", "coordinates": [ 631300.5, 9225294.0 ] } },
{ "type": "Feature", "properties": { "field_1": 1041140, "field_2": "Potensi banjir", "field_3": "Sungai", "field_4": 631300.5, "field_5": 9225281.5 }, "geometry": { "type": "Point", "coordinates": [ 631300.5, 9225281.5 ] } },
{ "type": "Feature", "properties": { "field_1": 1041141, "field_2": "Potensi banjir", "field_3": "Sungai", "field_4": 631300.5, "field_5": 9225269.0 }, "geometry": { "type": "Point", "coordinates": [ 631300.5, 9225269.0 ] } },
{ "type": "Feature", "properties": { "field_1": 1041155, "field_2": "Potensi banjir", "field_3": "Potensi Banjir", "field_4": 631300.5, "field_5": 9225094.0 }, "geometry": { "type": "Point", "coordinates": [ 631300.5, 9225094.0 ] } },
{ "type": "Feature", "properties": { "field_1": 1041158, "field_2": "Potensi banjir", "field_3": "Potensi Banjir", "field_4": 631300.5, "field_5": 9225056.5 }, "geometry": { "type": "Point", "coordinates": [ 631300.5, 9225056.5 ] } },
{ "type": "Feature", "properties": { "field_1": 1041243, "field_2": "Potensi banjir", "field_3": "Potensi Banjir", "field_4": 631300.5, "field_5": 9223994.0 }, "geometry": { "type": "Point", "coordinates": [ 631300.5, 9223994.0 ] } },
{ "type": "Feature", "properties": { "field_1": 1041245, "field_2": "Potensi banjir", "field_3": "Potensi Banjir", "field_4": 631300.5, "field_5": 9223969.0 }, "geometry": { "type": "Point", "coordinates": [ 631300.5, 9223969.0 ] } }
]
}
