{
"type": "FeatureCollection",
"name": "field_3_Potensi Banjir",
"crs": { "type": "name", "properties": { "name": "urn:ogc:def:crs:EPSG::32749" } },
"xy_coordinate_resolution": 1e-15,
"features": [
{ "type": "Feature", "properties": { "field_1": 1041085, "field_2": "Potensi banjir", "field_3": "Potensi Banjir", "field_4": 631300.5, "field_5": 9225969.0 }, "geometry": { "type": "Point", "coordinates": [ 631300.5, 9225969.0 ] } },
{ "type": "Feature", "properties": { "field_1": 1041086, "field_2": "Potensi banjir", "field_3": "Potensi Banjir", "field_4": 631300.5, "field_5": 9225956.5 }, "geometry": { "type": "Point", "coordinates": [ 631300.5, 9225956.5 ] } },
{ "type": "Feature", "properties": { "field_1": 1041087, "field_2": "Potensi banjir", "field_3": "Potensi Banjir", "field_4": 631300.5, "field_5": 9225944.0 }, "geometry": { "type": "Point", "coordinates": [ 631300.5, 9225944.0 ] } },
{ "type": "Feature", "properties": { "field_1": 1041155, "field_2": "Potensi banjir", "field_3": "Potensi Banjir", "field_4": 631300.5, "field_5": 9225094.0 }, "geometry": { "type": "Point", "coordinates": [ 631300.5, 9225094.0 ] } },
{ "type": "Feature", "properties": { "field_1": 1041158, "field_2": "Potensi banjir", "field_3": "Potensi Banjir", "field_4": 631300.5, "field_5": 9225056.5 }, "geometry": { "type": "Point", "coordinates": [ 631300.5, 9225056.5 ] } },
{ "type": "Feature", "properties": { "field_1": 1041243, "field_2": "Potensi banjir", "field_3": "Potensi Banjir", "field_4": 631300.5, "field_5": 9223994.0 }, "geometry": { "type": "Point", "coordinates": [ 631300.5, 9223994.0 ] } },
{ "type": "Feature", "properties": { "field_1": 1041245, "field_2": "Potensi banjir", "field_3": "Potensi Banjir", "field_4": 631300.5, "field_5": 9223969.0 }, "geometry": { "type": "Point", "coordinates": [ 631300.5, 9223969.0 ] } },
{ "type": "Feature", "properties": { "field_1": 1441558, "field_2": "Sungai/ Rawa", "field_3": "Potensi Banjir", "field_4": 651300.5, "field_5": 9217906.59 }, "geometry": { "type": "Point", "coordinates": [ 651300.5, 9217906.589999999850988 ] } },
{ "type": "Feature", "properties": { "field_1": 1441559, "field_2": "Sungai/ Rawa", "field_3": "Potensi Banjir", "field_4": 651300.5, "field_5": 9217894.0 }, "geometry": { "type": "Point", "coordinates": [ 651300.5, 9217894.0 ] } },
{ "type": "Feature", "properties": { "field_1": 1441560, "field_2": "Sungai/ Rawa", "field_3": "Potensi Banjir", "field_4": 651300.5, "field_5": 9217881.59 }, "geometry": { "type": "Point", "coordinates": [ 651300.5, 9217881.589999999850988 ] } },
{ "type": "Feature", "properties": { "field_1": 1442315, "field_2": "Lainnya", "field_3": "Potensi Banjir", "field_4": 651300.5, "field_5": 9208444.0 }, "geometry": { "type": "Point", "coordinates": [ 651300.5, 9208444.0 ] } },
{ "type": "Feature", "properties": { "field_1": 1442316, "field_2": "Lainnya", "field_3": "Potensi Banjir", "field_4": 651300.5, "field_5": 9208431.5 }, "geometry": { "type": "Point", "coordinates": [ 651300.5, 9208431.5 ] } },
{ "type": "Feature", "properties": { "field_1": 1442317, "field_2": "Lainnya", "field_3": "Potensi Banjir", "field_4": 651300.5, "field_5": 9208419.0 }, "geometry": { "type": "Point", "coordinates": [ 651300.5, 9208419.0 ] } },
{ "type": "Feature", "properties": { "field_1": 1442318, "field_2": "Lainnya", "field_3": "Potensi Banjir", "field_4": 651300.5, "field_5": 9208406.5 }, "geometry": { "type": "Point", "coordinates": [ 651300.5, 9208406.5 ] } },
{ "type": "Feature", "properties": { "field_1": 1442319, "field_2": "Lainnya", "field_3": "Potensi Banjir", "field_4": 651300.5, "field_5": 9208394.0 }, "geometry": { "type": "Point", "coordinates": [ 651300.5, 9208394.0 ] } },
{ "type": "Feature", "properties": { "field_1": 1442320, "field_2": "Lainnya", "field_3": "Potensi Banjir", "field_4": 651300.5, "field_5": 9208381.5 }, "geometry": { "type": "Point", "coordinates": [ 651300.5, 9208381.5 ] } },
{ "type": "Feature", "properties": { "field_1": 1442321, "field_2": "Lainnya", "field_3": "Potensi Banjir", "field_4": 651300.5, "field_5": 9208369.0 }, "geometry": { "type": "Point", "coordinates": [ 651300.5, 9208369.0 ] } },
{ "type": "Feature", "properties": { "field_1": 1442322, "field_2": "Lainnya", "field_3": "Potensi Banjir", "field_4": 651300.5, "field_5": 9208356.5 }, "geometry": { "type": "Point", "coordinates": [ 651300.5, 9208356.5 ] } },
{ "type": "Feature", "properties": { "field_1": 1442323, "field_2": "Lainnya", "field_3": "Potensi Banjir", "field_4": 651300.5, "field_5": 9208344.0 }, "geometry": { "type": "Point", "coordinates": [ 651300.5, 9208344.0 ] } },
{ "type": "Feature", "properties": { "field_1": 1442324, "field_2": "Lainnya", "field_3": "Potensi Banjir", "field_4": 651300.5, "field_5": 9208331.5 }, "geometry": { "type": "Point", "coordinates": [ 651300.5, 9208331.5 ] } },
{ "type": "Feature", "properties": { "field_1": 1442325, "field_2": "Lainnya", "field_3": "Potensi Banjir", "field_4": 651300.5, "field_5": 9208319.0 }, "geometry": { "type": "Point", "coordinates": [ 651300.5, 9208319.0 ] } },
{ "type": "Feature", "properties": { "field_1": 1442326, "field_2": "Lainnya", "field_3": "Potensi Banjir", "field_4": 651300.5, "field_5": 9208306.5 }, "geometry": { "type": "Point", "coordinates": [ 651300.5, 9208306.5 ] } },
{ "type": "Feature", "properties": { "field_1": 1442327, "field_2": "Lainnya", "field_3": "Potensi Banjir", "field_4": 651300.5, "field_5": 9208294.0 }, "geometry": { "type": "Point", "coordinates": [ 651300.5, 9208294.0 ] } },
{ "type": "Feature", "properties": { "field_1": 1442328, "field_2": "Lainnya", "field_3": "Potensi Banjir", "field_4": 651300.5, "field_5": 9208281.5 }, "geometry": { "type": "Point", "coordinates": [ 651300.5, 9208281.5 ] } },
{ "type": "Feature", "properties": { "field_1": 1442329, "field_2": "Lainnya", "field_3": "Potensi Banjir", "field_4": 651300.5, "field_5": 9208269.0 }, "geometry": { "type": "Point", "coordinates": [ 651300.5, 9208269.0 ] } },
{ "type": "Feature", "properties": { "field_1": 1442330, "field_2": "Lainnya", "field_3": "Potensi Banjir", "field_4": 651300.5, "field_5": 9208256.5 }, "geometry": { "type": "Point", "coordinates": [ 651300.5, 9208256.5 ] } },
{ "type": "Feature", "properties": { "field_1": 1442331, "field_2": "Lainnya", "field_3": "Potensi Banjir", "field_4": 651300.5, "field_5": 9208244.0 }, "geometry": { "type": "Point", "coordinates": [ 651300.5, 9208244.0 ] } },
{ "type": "Feature", "properties": { "field_1": 1442332, "field_2": "Lainnya", "field_3": "Potensi Banjir", "field_4": 651300.5, "field_5": 9208231.5 }, "geometry": { "type": "Point", "coordinates": [ 651300.5, 9208231.5 ] } },
{ "type": "Feature", "properties": { "field_1": 1442333, "field_2": "Lainnya", "field_3": "Potensi Banjir", "field_4": 651300.5, "field_5": 9208219.0 }, "geometry": { "type": "Point", "coordinates": [ 651300.5, 9208219.0 ] } },
{ "type": "Feature", "properties": { "field_1": 1442334, "field_2": "Lainnya", "field_3": "Potensi Banjir", "field_4": 651300.5, "field_5": 9208206.5 }, "geometry": { "type": "Point", "coordinates": [ 651300.5, 9208206.5 ] } },
{ "type": "Feature", "properties": { "field_1": 1442335, "field_2": "Lainnya", "field_3": "Potensi Banjir", "field_4": 651300.5, "field_5": 9208194.0 }, "geometry": { "type": "Point", "coordinates": [ 651300.5, 9208194.0 ] } },
{ "type": "Feature", "properties": { "field_1": 1442336, "field_2": "Lainnya", "field_3": "Potensi Banjir", "field_4": 651300.5, "field_5": 9208181.5 }, "geometry": { "type": "Point", "coordinates": [ 651300.5, 9208181.5 ] } },
{ "type": "Feature", "properties": { "field_1": 1442337, "field_2": "Lainnya", "field_3": "Potensi Banjir", "field_4": 651300.5, "field_5": 9208169.0 }, "geometry": { "type": "Point", "coordinates": [ 651300.5, 9208169.0 ] } },
{ "type": "Feature", "properties": { "field_1": 1442338, "field_2": "Lainnya", "field_3": "Potensi Banjir", "field_4": 651300.5, "field_5": 9208156.5 }, "geometry": { "type": "Point", "coordinates": [ 651300.5, 9208156.5 ] } },
{ "type": "Feature", "properties": { "field_1": 1442339, "field_2": "Lainnya", "field_3": "Potensi Banjir", "field_4": 651300.5, "field_5": 9208144.0 }, "geometry": { "type": "Point", "coordinates": [ 651300.5, 9208144.0 ] } },
{ "type": "Feature", "properties": { "field_1": 1442340, "field_2": "Lainnya", "field_3": "Potensi Banjir", "field_4": 651300.5, "field_5": 9208131.5 }, "geometry": { "type": "Point", "coordinates": [ 651300.5, 9208131.5 ] } },
{ "type": "Feature", "properties": { "field_1": 1442341, "field_2": "Lainnya", "field_3": "Potensi Banjir", "field_4": 651300.5, "field_5": 9208119.0 }, "geometry": { "type": "Point", "coordinates": [ 651300.5, 9208119.0 ] } },
{ "type": "Feature", "properties": { "field_1": 1442342, "field_2": "Lainnya", "field_3": "Potensi Banjir", "field_4": 651300.5, "field_5": 9208106.5 }, "geometry": { "type": "Point", "coordinates": [ 651300.5, 9208106.5 ] } },
{ "type": "Feature", "properties": { "field_1": 1442343, "field_2": "Lainnya", "field_3": "Potensi Banjir", "field_4": 651300.5, "field_5": 9208094.0 }, "geometry": { "type": "Point", "coordinates": [ 651300.5, 9208094.0 ] } },
{ "type": "Feature", "properties": { "field_1": 1442344, "field_2": "Lainnya", "field_3": "Potensi Banjir", "field_4": 651300.5, "field_5": 9208081.5 }, "geometry": { "type": "Point", "coordinates": [ 651300.5, 9208081.5 ] } },
{ "type": "Feature", "properties": { "field_1": 1442345, "field_2": "Lainnya", "field_3": "Potensi Banjir", "field_4": 651300.5, "field_5": 9208069.0 }, "geometry": { "type": "Point", "coordinates": [ 651300.5, 9208069.0 ] } },
{ "type": "Feature", "properties": { "field_1": 1442346, "field_2": "Lainnya", "field_3": "Potensi Banjir", "field_4": 651300.5, "field_5": 9208056.5 }, "geometry": { "type": "Point", "coordinates": [ 651300.5, 9208056.5 ] } },
{ "type": "Feature", "properties": { "field_1": 1442347, "field_2": "Lainnya", "field_3": "Potensi Banjir", "field_4": 651300.5, "field_5": 9208044.0 }, "geometry": { "type": "Point", "coordinates": [ 651300.5, 9208044.0 ] } },
{ "type": "Feature", "properties": { "field_1": 1442348, "field_2": "Lainnya", "field_3": "Potensi Banjir", "field_4": 651300.5, "field_5": 9208031.5 }, "geometry": { "type": "Point", "coordinates": [ 651300.5, 9208031.5 ] } },
{ "type": "Feature", "properties": { "field_1": 1322223, "field_2": "Potensi Banjir", "field_3": "Potensi Banjir", "field_4": 645300.5, "field_5": 9211594.0 }, "geometry": { "type": "Point", "coordinates": [ 645300.5, 9211594.0 ] } }
]
}
