{
"type": "FeatureCollection",
"name": "Potensi_Terjatuh",
"crs": { "type": "name", "properties": { "name": "urn:ogc:def:crs:OGC:1.3:CRS84" } },
"features": [
{ "type": "Feature", "properties": { "field_1": 1082270, "field_2": "Lainnya", "field_3": "Potensi Terjatuh", "field_4": 633300.5, "field_5": 9211156.59 }, "geometry": { "type": "Point", "coordinates": [ 112.207137295172629, -7.134966399975313 ] } },
{ "type": "Feature", "properties": { "field_1": 1082424, "field_2": "Lainnya", "field_3": "Potensi Terjatuh", "field_4": 633300.5, "field_5": 9209231.59 }, "geometry": { "type": "Point", "coordinates": [ 112.207182970216991, -7.152375884340275 ] } },
{ "type": "Feature", "properties": { "field_1": 1082425, "field_2": "Lainnya", "field_3": "Potensi Terjatuh", "field_4": 633300.5, "field_5": 9209219.0 }, "geometry": { "type": "Point", "coordinates": [ 112.207183269319515, -7.152489746845837 ] } },
{ "type": "Feature", "properties": { "field_1": 1082426, "field_2": "Lainnya", "field_3": "Potensi Terjatuh", "field_4": 633300.5, "field_5": 9209206.59 }, "geometry": { "type": "Point", "coordinates": [ 112.20718356415054, -7.152601981451634 ] } },
{ "type": "Feature", "properties": { "field_1": 1082427, "field_2": "Lainnya", "field_3": "Potensi Terjatuh", "field_4": 633300.5, "field_5": 9209194.0 }, "geometry": { "type": "Point", "coordinates": [ 112.20718386326277, -7.152715843956058 ] } },
{ "type": "Feature", "properties": { "field_1": 1082428, "field_2": "Lainnya", "field_3": "Potensi Terjatuh", "field_4": 633300.5, "field_5": 9209181.59 }, "geometry": { "type": "Point", "coordinates": [ 112.20718415810336, -7.152828078560732 ] } },
{ "type": "Feature", "properties": { "field_1": 1082429, "field_2": "Lainnya", "field_3": "Potensi Terjatuh", "field_4": 633300.5, "field_5": 9209169.0 }, "geometry": { "type": "Point", "coordinates": [ 112.207184457225267, -7.152941941064016 ] } },
{ "type": "Feature", "properties": { "field_1": 1082430, "field_2": "Lainnya", "field_3": "Potensi Terjatuh", "field_4": 633300.5, "field_5": 9209156.59 }, "geometry": { "type": "Point", "coordinates": [ 112.20718475207542, -7.153054175667567 ] } },
{ "type": "Feature", "properties": { "field_1": 1082431, "field_2": "Lainnya", "field_3": "Potensi Terjatuh", "field_4": 633300.5, "field_5": 9209144.0 }, "geometry": { "type": "Point", "coordinates": [ 112.207185051207048, -7.15316803816971 ] } },
{ "type": "Feature", "properties": { "field_1": 1082432, "field_2": "Lainnya", "field_3": "Potensi Terjatuh", "field_4": 633300.5, "field_5": 9209131.59 }, "geometry": { "type": "Point", "coordinates": [ 112.207185346066751, -7.153280272772137 ] } },
{ "type": "Feature", "properties": { "field_1": 1082433, "field_2": "Lainnya", "field_3": "Potensi Terjatuh", "field_4": 633300.5, "field_5": 9209119.0 }, "geometry": { "type": "Point", "coordinates": [ 112.207185645208085, -7.153394135273141 ] } },
{ "type": "Feature", "properties": { "field_1": 1082434, "field_2": "Lainnya", "field_3": "Potensi Terjatuh", "field_4": 633300.5, "field_5": 9209106.59 }, "geometry": { "type": "Point", "coordinates": [ 112.207185940077338, -7.153506369874445 ] } },
{ "type": "Feature", "properties": { "field_1": 1082435, "field_2": "Lainnya", "field_3": "Potensi Terjatuh", "field_4": 633300.5, "field_5": 9209094.0 }, "geometry": { "type": "Point", "coordinates": [ 112.207186239228363, -7.153620232374308 ] } },
{ "type": "Feature", "properties": { "field_1": 1082436, "field_2": "Lainnya", "field_3": "Potensi Terjatuh", "field_4": 633300.5, "field_5": 9209081.59 }, "geometry": { "type": "Point", "coordinates": [ 112.207186534107194, -7.15373246697449 ] } },
{ "type": "Feature", "properties": { "field_1": 1082437, "field_2": "Lainnya", "field_3": "Potensi Terjatuh", "field_4": 633300.5, "field_5": 9209069.0 }, "geometry": { "type": "Point", "coordinates": [ 112.20718683326794, -7.153846329473214 ] } },
{ "type": "Feature", "properties": { "field_1": 1082438, "field_2": "Lainnya", "field_3": "Potensi Terjatuh", "field_4": 633300.5, "field_5": 9209056.59 }, "geometry": { "type": "Point", "coordinates": [ 112.20718712815632, -7.15395856407227 ] } },
{ "type": "Feature", "properties": { "field_1": 1082439, "field_2": "Lainnya", "field_3": "Potensi Terjatuh", "field_4": 633300.5, "field_5": 9209044.0 }, "geometry": { "type": "Point", "coordinates": [ 112.207187427326744, -7.154072426569855 ] } },
{ "type": "Feature", "properties": { "field_1": 1082440, "field_2": "Lainnya", "field_3": "Potensi Terjatuh", "field_4": 633300.5, "field_5": 9209031.59 }, "geometry": { "type": "Point", "coordinates": [ 112.207187722224702, -7.154184661167788 ] } },
{ "type": "Feature", "properties": { "field_1": 1082441, "field_2": "Lainnya", "field_3": "Potensi Terjatuh", "field_4": 633300.5, "field_5": 9209019.0 }, "geometry": { "type": "Point", "coordinates": [ 112.207188021404818, -7.154298523664234 ] } },
{ "type": "Feature", "properties": { "field_1": 1082442, "field_2": "Lainnya", "field_3": "Potensi Terjatuh", "field_4": 633300.5, "field_5": 9209006.59 }, "geometry": { "type": "Point", "coordinates": [ 112.20718831631234, -7.154410758261043 ] } },
{ "type": "Feature", "properties": { "field_1": 1082443, "field_2": "Lainnya", "field_3": "Potensi Terjatuh", "field_4": 633300.5, "field_5": 9208994.0 }, "geometry": { "type": "Point", "coordinates": [ 112.207188615502162, -7.154524620756349 ] } },
{ "type": "Feature", "properties": { "field_1": 1082444, "field_2": "Lainnya", "field_3": "Potensi Terjatuh", "field_4": 633300.5, "field_5": 9208981.59 }, "geometry": { "type": "Point", "coordinates": [ 112.207188910419248, -7.154636855352034 ] } },
{ "type": "Feature", "properties": { "field_1": 1082445, "field_2": "Lainnya", "field_3": "Potensi Terjatuh", "field_4": 633300.5, "field_5": 9208969.0 }, "geometry": { "type": "Point", "coordinates": [ 112.207189209618761, -7.154750717846199 ] } },
{ "type": "Feature", "properties": { "field_1": 1082446, "field_2": "Lainnya", "field_3": "Potensi Terjatuh", "field_4": 633300.5, "field_5": 9208956.59 }, "geometry": { "type": "Point", "coordinates": [ 112.207189504545411, -7.154862952440761 ] } },
{ "type": "Feature", "properties": { "field_1": 1082447, "field_2": "Lainnya", "field_3": "Potensi Terjatuh", "field_4": 633300.5, "field_5": 9208944.0 }, "geometry": { "type": "Point", "coordinates": [ 112.20718980375463, -7.154976814933785 ] } },
{ "type": "Feature", "properties": { "field_1": 1082448, "field_2": "Lainnya", "field_3": "Potensi Terjatuh", "field_4": 633300.5, "field_5": 9208931.59 }, "geometry": { "type": "Point", "coordinates": [ 112.20719009869083, -7.155089049527224 ] } },
{ "type": "Feature", "properties": { "field_1": 1082449, "field_2": "Lainnya", "field_3": "Potensi Terjatuh", "field_4": 633300.5, "field_5": 9208919.0 }, "geometry": { "type": "Point", "coordinates": [ 112.207190397909756, -7.155202912019109 ] } },
{ "type": "Feature", "properties": { "field_1": 1082450, "field_2": "Lainnya", "field_3": "Potensi Terjatuh", "field_4": 633300.5, "field_5": 9208906.59 }, "geometry": { "type": "Point", "coordinates": [ 112.207190692855519, -7.155315146611425 ] } },
{ "type": "Feature", "properties": { "field_1": 1082451, "field_2": "Lainnya", "field_3": "Potensi Terjatuh", "field_4": 633300.5, "field_5": 9208894.0 }, "geometry": { "type": "Point", "coordinates": [ 112.207190992084151, -7.15542900910217 ] } },
{ "type": "Feature", "properties": { "field_1": 1082452, "field_2": "Lainnya", "field_3": "Potensi Terjatuh", "field_4": 633300.5, "field_5": 9208881.59 }, "geometry": { "type": "Point", "coordinates": [ 112.207191287039464, -7.15554124369336 ] } },
{ "type": "Feature", "properties": { "field_1": 1082453, "field_2": "Lainnya", "field_3": "Potensi Terjatuh", "field_4": 633300.5, "field_5": 9208869.0 }, "geometry": { "type": "Point", "coordinates": [ 112.207191586277801, -7.155655106182966 ] } },
{ "type": "Feature", "properties": { "field_1": 1082454, "field_2": "Lainnya", "field_3": "Potensi Terjatuh", "field_4": 633300.5, "field_5": 9208856.59 }, "geometry": { "type": "Point", "coordinates": [ 112.207191881242693, -7.155767340773034 ] } },
{ "type": "Feature", "properties": { "field_1": 1082455, "field_2": "Lainnya", "field_3": "Potensi Terjatuh", "field_4": 633300.5, "field_5": 9208844.0 }, "geometry": { "type": "Point", "coordinates": [ 112.207192180490708, -7.155881203261496 ] } },
{ "type": "Feature", "properties": { "field_1": 1082456, "field_2": "Lainnya", "field_3": "Potensi Terjatuh", "field_4": 633300.5, "field_5": 9208831.59 }, "geometry": { "type": "Point", "coordinates": [ 112.207192475465163, -7.15599343785044 ] } },
{ "type": "Feature", "properties": { "field_1": 1082457, "field_2": "Lainnya", "field_3": "Potensi Terjatuh", "field_4": 633300.5, "field_5": 9208819.0 }, "geometry": { "type": "Point", "coordinates": [ 112.207192774722884, -7.156107300337766 ] } },
{ "type": "Feature", "properties": { "field_1": 1082458, "field_2": "Lainnya", "field_3": "Potensi Terjatuh", "field_4": 633300.5, "field_5": 9208806.59 }, "geometry": { "type": "Point", "coordinates": [ 112.207193069706889, -7.156219534925585 ] } },
{ "type": "Feature", "properties": { "field_1": 1082459, "field_2": "Lainnya", "field_3": "Potensi Terjatuh", "field_4": 633300.5, "field_5": 9208794.0 }, "geometry": { "type": "Point", "coordinates": [ 112.20719336897433, -7.156333397411768 ] } },
{ "type": "Feature", "properties": { "field_1": 1082460, "field_2": "Lainnya", "field_3": "Potensi Terjatuh", "field_4": 633300.5, "field_5": 9208781.5 }, "geometry": { "type": "Point", "coordinates": [ 112.207193666107273, -7.15644644594792 ] } },
{ "type": "Feature", "properties": { "field_1": 1101464, "field_2": "Sungai / Rawa", "field_3": "Potensi Terjatuh", "field_4": 634300.5, "field_5": 9221531.5 }, "geometry": { "type": "Point", "coordinates": [ 112.215945636418184, -7.04111320308528 ] } },
{ "type": "Feature", "properties": { "field_1": 1101465, "field_2": "Sungai / Rawa", "field_3": "Potensi Terjatuh", "field_4": 634300.5, "field_5": 9221519.0 }, "geometry": { "type": "Point", "coordinates": [ 112.215945930837648, -7.041226251813615 ] } },
{ "type": "Feature", "properties": { "field_1": 1102746, "field_2": "Lainnya", "field_3": "Potensi Terjatuh", "field_4": 634300.5, "field_5": 9205506.5 }, "geometry": { "type": "Point", "coordinates": [ 112.216327063174063, -7.186041212138894 ] } },
{ "type": "Feature", "properties": { "field_1": 1191747, "field_2": "Sungai / Rawa", "field_3": "Potensi Terjatuh", "field_4": 632406.8, "field_5": 9217800.3 }, "geometry": { "type": "Point", "coordinates": [ 112.198889664081662, -7.074902232200356 ] } },
{ "type": "Feature", "properties": { "field_1": 1191748, "field_2": "Sungai / Rawa", "field_3": "Potensi Terjatuh", "field_4": 632419.3, "field_5": 9217800.39 }, "geometry": { "type": "Point", "coordinates": [ 112.199002827512345, -7.07490112683648 ] } }
]
}
