{
"type": "FeatureCollection",
"name": "Potensi_Kebakaran",
"crs": { "type": "name", "properties": { "name": "urn:ogc:def:crs:OGC:1.3:CRS84" } },
"features": [
{ "type": "Feature", "properties": { "field_1": 1102280, "field_2": "Pohon Lapuk", "field_3": "Potensi Kebakaran", "field_4": 634300.5, "field_5": 9211331.59 }, "geometry": { "type": "Point", "coordinates": [ 112.216187492397808, -7.133359965359659 ] } },
{ "type": "Feature", "properties": { "field_1": 1102298, "field_2": "Pohon Lapuk", "field_3": "Potensi Kebakaran", "field_4": 634300.5, "field_5": 9211106.59 }, "geometry": { "type": "Point", "coordinates": [ 112.216192863899082, -7.135394834145473 ] } },
{ "type": "Feature", "properties": { "field_1": 1102304, "field_2": "Pohon Lapuk", "field_3": "Potensi Kebakaran", "field_4": 634300.5, "field_5": 9211031.59 }, "geometry": { "type": "Point", "coordinates": [ 112.216194654748733, -7.136073123700096 ] } },
{ "type": "Feature", "properties": { "field_1": 1192151, "field_2": "Sungai/ Rawa", "field_3": "Potensi Kebakaran", "field_4": 637456.8, "field_5": 9217800.3 }, "geometry": { "type": "Point", "coordinates": [ 112.244608144629197, -7.074782265175826 ] } },
{ "type": "Feature", "properties": { "field_1": 1201359, "field_2": "Lainnya", "field_3": "Potensi Kebakaran", "field_4": 639300.5, "field_5": 9223344.0 }, "geometry": { "type": "Point", "coordinates": [ 112.261163662501261, -7.024601570306603 ] } },
{ "type": "Feature", "properties": { "field_1": 1242089, "field_2": "Lainnya", "field_3": "Potensi Kebakaran", "field_4": 641300.5, "field_5": 9215319.0 }, "geometry": { "type": "Point", "coordinates": [ 112.279467141006521, -7.097127984659942 ] } },
{ "type": "Feature", "properties": { "field_1": 1242090, "field_2": "Lainnya", "field_3": "Potensi Kebakaran", "field_4": 641300.5, "field_5": 9215306.59 }, "geometry": { "type": "Point", "coordinates": [ 112.27946745104525, -7.097240216440585 ] } },
{ "type": "Feature", "properties": { "field_1": 1242091, "field_2": "Lainnya", "field_3": "Potensi Kebakaran", "field_4": 641300.5, "field_5": 9215294.0 }, "geometry": { "type": "Point", "coordinates": [ 112.279467765586048, -7.097354076078878 ] } },
{ "type": "Feature", "properties": { "field_1": 1242092, "field_2": "Lainnya", "field_3": "Potensi Kebakaran", "field_4": 641300.5, "field_5": 9215281.59 }, "geometry": { "type": "Point", "coordinates": [ 112.279468075634909, -7.097466307858402 ] } },
{ "type": "Feature", "properties": { "field_1": 1242093, "field_2": "Lainnya", "field_3": "Potensi Kebakaran", "field_4": 641300.5, "field_5": 9215269.0 }, "geometry": { "type": "Point", "coordinates": [ 112.279468390185997, -7.097580167495562 ] } },
{ "type": "Feature", "properties": { "field_1": 1242094, "field_2": "Lainnya", "field_3": "Potensi Kebakaran", "field_4": 641300.5, "field_5": 9215256.59 }, "geometry": { "type": "Point", "coordinates": [ 112.279468700244976, -7.097692399273969 ] } },
{ "type": "Feature", "properties": { "field_1": 1242095, "field_2": "Lainnya", "field_3": "Potensi Kebakaran", "field_4": 641300.5, "field_5": 9215244.0 }, "geometry": { "type": "Point", "coordinates": [ 112.279469014806324, -7.097806258909994 ] } },
{ "type": "Feature", "properties": { "field_1": 1242096, "field_2": "Lainnya", "field_3": "Potensi Kebakaran", "field_4": 641300.5, "field_5": 9215231.59 }, "geometry": { "type": "Point", "coordinates": [ 112.279469324875436, -7.097918490687285 ] } },
{ "type": "Feature", "properties": { "field_1": 1242097, "field_2": "Lainnya", "field_3": "Potensi Kebakaran", "field_4": 641300.5, "field_5": 9215219.0 }, "geometry": { "type": "Point", "coordinates": [ 112.279469639447058, -7.098032350322176 ] } },
{ "type": "Feature", "properties": { "field_1": 1242098, "field_2": "Lainnya", "field_3": "Potensi Kebakaran", "field_4": 641300.5, "field_5": 9215206.59 }, "geometry": { "type": "Point", "coordinates": [ 112.279469949526302, -7.098144582098346 ] } },
{ "type": "Feature", "properties": { "field_1": 1242099, "field_2": "Lainnya", "field_3": "Potensi Kebakaran", "field_4": 641300.5, "field_5": 9215194.0 }, "geometry": { "type": "Point", "coordinates": [ 112.279470264108198, -7.098258441732104 ] } },
{ "type": "Feature", "properties": { "field_1": 1242100, "field_2": "Lainnya", "field_3": "Potensi Kebakaran", "field_4": 641300.5, "field_5": 9215181.59 }, "geometry": { "type": "Point", "coordinates": [ 112.279470574197575, -7.098370673507157 ] } },
{ "type": "Feature", "properties": { "field_1": 1242101, "field_2": "Lainnya", "field_3": "Potensi Kebakaran", "field_4": 641300.5, "field_5": 9215169.0 }, "geometry": { "type": "Point", "coordinates": [ 112.279470888789746, -7.09848453313978 ] } },
{ "type": "Feature", "properties": { "field_1": 1242102, "field_2": "Lainnya", "field_3": "Potensi Kebakaran", "field_4": 641300.5, "field_5": 9215156.59 }, "geometry": { "type": "Point", "coordinates": [ 112.279471198889254, -7.098596764913715 ] } },
{ "type": "Feature", "properties": { "field_1": 1242103, "field_2": "Lainnya", "field_3": "Potensi Kebakaran", "field_4": 641300.5, "field_5": 9215144.0 }, "geometry": { "type": "Point", "coordinates": [ 112.2794715134917, -7.098710624545205 ] } },
{ "type": "Feature", "properties": { "field_1": 1242104, "field_2": "Lainnya", "field_3": "Potensi Kebakaran", "field_4": 641300.5, "field_5": 9215131.59 }, "geometry": { "type": "Point", "coordinates": [ 112.279471823601341, -7.098822856318022 ] } },
{ "type": "Feature", "properties": { "field_1": 1242105, "field_2": "Lainnya", "field_3": "Potensi Kebakaran", "field_4": 641300.5, "field_5": 9215119.0 }, "geometry": { "type": "Point", "coordinates": [ 112.279472138214075, -7.098936715948377 ] } },
{ "type": "Feature", "properties": { "field_1": 1242106, "field_2": "Lainnya", "field_3": "Potensi Kebakaran", "field_4": 641300.5, "field_5": 9215106.59 }, "geometry": { "type": "Point", "coordinates": [ 112.27947244833382, -7.099048947720076 ] } },
{ "type": "Feature", "properties": { "field_1": 1242107, "field_2": "Lainnya", "field_3": "Potensi Kebakaran", "field_4": 641300.5, "field_5": 9215094.0 }, "geometry": { "type": "Point", "coordinates": [ 112.279472762956843, -7.099162807349297 ] } },
{ "type": "Feature", "properties": { "field_1": 1242108, "field_2": "Lainnya", "field_3": "Potensi Kebakaran", "field_4": 641300.5, "field_5": 9215081.59 }, "geometry": { "type": "Point", "coordinates": [ 112.27947307308672, -7.099275039119878 ] } },
{ "type": "Feature", "properties": { "field_1": 1242109, "field_2": "Lainnya", "field_3": "Potensi Kebakaran", "field_4": 641300.5, "field_5": 9215069.0 }, "geometry": { "type": "Point", "coordinates": [ 112.279473387720003, -7.099388898747964 ] } },
{ "type": "Feature", "properties": { "field_1": 1242110, "field_2": "Lainnya", "field_3": "Potensi Kebakaran", "field_4": 641300.5, "field_5": 9215056.59 }, "geometry": { "type": "Point", "coordinates": [ 112.279473697860027, -7.099501130517428 ] } },
{ "type": "Feature", "properties": { "field_1": 1242111, "field_2": "Lainnya", "field_3": "Potensi Kebakaran", "field_4": 641300.5, "field_5": 9215044.0 }, "geometry": { "type": "Point", "coordinates": [ 112.279474012503584, -7.09961499014438 ] } },
{ "type": "Feature", "properties": { "field_1": 1242112, "field_2": "Lainnya", "field_3": "Potensi Kebakaran", "field_4": 641300.5, "field_5": 9215031.59 }, "geometry": { "type": "Point", "coordinates": [ 112.279474322653712, -7.099727221912725 ] } },
{ "type": "Feature", "properties": { "field_1": 1242113, "field_2": "Lainnya", "field_3": "Potensi Kebakaran", "field_4": 641300.5, "field_5": 9215019.0 }, "geometry": { "type": "Point", "coordinates": [ 112.279474637307558, -7.099841081538542 ] } },
{ "type": "Feature", "properties": { "field_1": 1242114, "field_2": "Lainnya", "field_3": "Potensi Kebakaran", "field_4": 641300.5, "field_5": 9215006.59 }, "geometry": { "type": "Point", "coordinates": [ 112.279474947467833, -7.09995331330577 ] } },
{ "type": "Feature", "properties": { "field_1": 1242115, "field_2": "Lainnya", "field_3": "Potensi Kebakaran", "field_4": 641300.5, "field_5": 9214994.0 }, "geometry": { "type": "Point", "coordinates": [ 112.279475262131939, -7.100067172930454 ] } },
{ "type": "Feature", "properties": { "field_1": 1242116, "field_2": "Lainnya", "field_3": "Potensi Kebakaran", "field_4": 641300.5, "field_5": 9214981.59 }, "geometry": { "type": "Point", "coordinates": [ 112.279475572302346, -7.100179404696561 ] } },
{ "type": "Feature", "properties": { "field_1": 1242117, "field_2": "Lainnya", "field_3": "Potensi Kebakaran", "field_4": 641300.5, "field_5": 9214969.0 }, "geometry": { "type": "Point", "coordinates": [ 112.279475886976726, -7.100293264320111 ] } },
{ "type": "Feature", "properties": { "field_1": 1341434, "field_2": "Lainnya", "field_3": "Potensi Kebakaran", "field_4": 646300.5, "field_5": 9221456.5 }, "geometry": { "type": "Point", "coordinates": [ 112.324575607640725, -7.041496490945924 ] } },
{ "type": "Feature", "properties": { "field_1": 1341435, "field_2": "Lainnya", "field_3": "Potensi Kebakaran", "field_4": 646300.5, "field_5": 9221444.0 }, "geometry": { "type": "Point", "coordinates": [ 112.32457592837622, -7.04160953488879 ] } },
{ "type": "Feature", "properties": { "field_1": 1341436, "field_2": "Lainnya", "field_3": "Potensi Kebakaran", "field_4": 646300.5, "field_5": 9221431.5 }, "geometry": { "type": "Point", "coordinates": [ 112.324576249117015, -7.041722578831098 ] } },
{ "type": "Feature", "properties": { "field_1": 1341437, "field_2": "Lainnya", "field_3": "Potensi Kebakaran", "field_4": 646300.5, "field_5": 9221419.0 }, "geometry": { "type": "Point", "coordinates": [ 112.324576569863083, -7.041835622772846 ] } },
{ "type": "Feature", "properties": { "field_1": 1341438, "field_2": "Lainnya", "field_3": "Potensi Kebakaran", "field_4": 646300.5, "field_5": 9221406.5 }, "geometry": { "type": "Point", "coordinates": [ 112.324576890614438, -7.041948666714037 ] } },
{ "type": "Feature", "properties": { "field_1": 1341439, "field_2": "Lainnya", "field_3": "Potensi Kebakaran", "field_4": 646300.5, "field_5": 9221394.0 }, "geometry": { "type": "Point", "coordinates": [ 112.32457721137105, -7.042061710654665 ] } },
{ "type": "Feature", "properties": { "field_1": 1341440, "field_2": "Lainnya", "field_3": "Potensi Kebakaran", "field_4": 646300.5, "field_5": 9221381.5 }, "geometry": { "type": "Point", "coordinates": [ 112.324577532132963, -7.042174754594736 ] } },
{ "type": "Feature", "properties": { "field_1": 1341441, "field_2": "Lainnya", "field_3": "Potensi Kebakaran", "field_4": 646300.5, "field_5": 9221369.0 }, "geometry": { "type": "Point", "coordinates": [ 112.324577852900148, -7.042287798534246 ] } },
{ "type": "Feature", "properties": { "field_1": 1341442, "field_2": "Lainnya", "field_3": "Potensi Kebakaran", "field_4": 646300.5, "field_5": 9221356.5 }, "geometry": { "type": "Point", "coordinates": [ 112.324578173672606, -7.042400842473196 ] } },
{ "type": "Feature", "properties": { "field_1": 1341443, "field_2": "Lainnya", "field_3": "Potensi Kebakaran", "field_4": 646300.5, "field_5": 9221344.0 }, "geometry": { "type": "Point", "coordinates": [ 112.324578494450336, -7.042513886411587 ] } },
{ "type": "Feature", "properties": { "field_1": 1341444, "field_2": "Lainnya", "field_3": "Potensi Kebakaran", "field_4": 646300.5, "field_5": 9221331.5 }, "geometry": { "type": "Point", "coordinates": [ 112.324578815233366, -7.042626930349418 ] } },
{ "type": "Feature", "properties": { "field_1": 1341445, "field_2": "Lainnya", "field_3": "Potensi Kebakaran", "field_4": 646300.5, "field_5": 9221319.0 }, "geometry": { "type": "Point", "coordinates": [ 112.324579136021654, -7.04273997428669 ] } },
{ "type": "Feature", "properties": { "field_1": 1341446, "field_2": "Lainnya", "field_3": "Potensi Kebakaran", "field_4": 646300.5, "field_5": 9221306.5 }, "geometry": { "type": "Point", "coordinates": [ 112.324579456815229, -7.042853018223401 ] } },
{ "type": "Feature", "properties": { "field_1": 1341447, "field_2": "Lainnya", "field_3": "Potensi Kebakaran", "field_4": 646300.5, "field_5": 9221294.0 }, "geometry": { "type": "Point", "coordinates": [ 112.324579777614076, -7.042966062159554 ] } },
{ "type": "Feature", "properties": { "field_1": 1341448, "field_2": "Lainnya", "field_3": "Potensi Kebakaran", "field_4": 646300.5, "field_5": 9221281.5 }, "geometry": { "type": "Point", "coordinates": [ 112.32458009841821, -7.043079106095147 ] } },
{ "type": "Feature", "properties": { "field_1": 1341449, "field_2": "Lainnya", "field_3": "Potensi Kebakaran", "field_4": 646300.5, "field_5": 9221269.0 }, "geometry": { "type": "Point", "coordinates": [ 112.324580419227615, -7.043192150030179 ] } },
{ "type": "Feature", "properties": { "field_1": 1341450, "field_2": "Lainnya", "field_3": "Potensi Kebakaran", "field_4": 646300.5, "field_5": 9221256.5 }, "geometry": { "type": "Point", "coordinates": [ 112.324580740042308, -7.043305193964653 ] } },
{ "type": "Feature", "properties": { "field_1": 1341451, "field_2": "Lainnya", "field_3": "Potensi Kebakaran", "field_4": 646300.5, "field_5": 9221244.0 }, "geometry": { "type": "Point", "coordinates": [ 112.324581060862272, -7.043418237898566 ] } },
{ "type": "Feature", "properties": { "field_1": 1341452, "field_2": "Lainnya", "field_3": "Potensi Kebakaran", "field_4": 646300.5, "field_5": 9221231.5 }, "geometry": { "type": "Point", "coordinates": [ 112.324581381687523, -7.043531281831921 ] } },
{ "type": "Feature", "properties": { "field_1": 1341453, "field_2": "Lainnya", "field_3": "Potensi Kebakaran", "field_4": 646300.5, "field_5": 9221219.0 }, "geometry": { "type": "Point", "coordinates": [ 112.324581702518032, -7.043644325764714 ] } },
{ "type": "Feature", "properties": { "field_1": 1341454, "field_2": "Lainnya", "field_3": "Potensi Kebakaran", "field_4": 646300.5, "field_5": 9221206.5 }, "geometry": { "type": "Point", "coordinates": [ 112.324582023353841, -7.043757369696951 ] } },
{ "type": "Feature", "properties": { "field_1": 1341455, "field_2": "Lainnya", "field_3": "Potensi Kebakaran", "field_4": 646300.5, "field_5": 9221194.0 }, "geometry": { "type": "Point", "coordinates": [ 112.324582344194923, -7.043870413628624 ] } },
{ "type": "Feature", "properties": { "field_1": 1341456, "field_2": "Lainnya", "field_3": "Potensi Kebakaran", "field_4": 646300.5, "field_5": 9221181.5 }, "geometry": { "type": "Point", "coordinates": [ 112.324582665041291, -7.043983457559739 ] } },
{ "type": "Feature", "properties": { "field_1": 1341457, "field_2": "Lainnya", "field_3": "Potensi Kebakaran", "field_4": 646300.5, "field_5": 9221169.0 }, "geometry": { "type": "Point", "coordinates": [ 112.324582985892917, -7.044096501490294 ] } },
{ "type": "Feature", "properties": { "field_1": 1341458, "field_2": "Lainnya", "field_3": "Potensi Kebakaran", "field_4": 646300.5, "field_5": 9221156.5 }, "geometry": { "type": "Point", "coordinates": [ 112.32458330674983, -7.04420954542029 ] } },
{ "type": "Feature", "properties": { "field_1": 1341459, "field_2": "Lainnya", "field_3": "Potensi Kebakaran", "field_4": 646300.5, "field_5": 9221144.0 }, "geometry": { "type": "Point", "coordinates": [ 112.324583627612029, -7.044322589349726 ] } },
{ "type": "Feature", "properties": { "field_1": 1341460, "field_2": "Lainnya", "field_3": "Potensi Kebakaran", "field_4": 646300.5, "field_5": 9221131.5 }, "geometry": { "type": "Point", "coordinates": [ 112.3245839484795, -7.044435633278603 ] } },
{ "type": "Feature", "properties": { "field_1": 1341461, "field_2": "Lainnya", "field_3": "Potensi Kebakaran", "field_4": 646300.5, "field_5": 9221119.0 }, "geometry": { "type": "Point", "coordinates": [ 112.324584269352258, -7.044548677206916 ] } },
{ "type": "Feature", "properties": { "field_1": 1341462, "field_2": "Lainnya", "field_3": "Potensi Kebakaran", "field_4": 646300.5, "field_5": 9221106.5 }, "geometry": { "type": "Point", "coordinates": [ 112.324584590230288, -7.044661721134674 ] } },
{ "type": "Feature", "properties": { "field_1": 1341463, "field_2": "Lainnya", "field_3": "Potensi Kebakaran", "field_4": 646300.5, "field_5": 9221094.0 }, "geometry": { "type": "Point", "coordinates": [ 112.32458491111359, -7.04477476506187 ] } },
{ "type": "Feature", "properties": { "field_1": 1341464, "field_2": "Lainnya", "field_3": "Potensi Kebakaran", "field_4": 646300.5, "field_5": 9221081.5 }, "geometry": { "type": "Point", "coordinates": [ 112.324585232002178, -7.044887808988507 ] } },
{ "type": "Feature", "properties": { "field_1": 1341465, "field_2": "Lainnya", "field_3": "Potensi Kebakaran", "field_4": 646300.5, "field_5": 9221069.0 }, "geometry": { "type": "Point", "coordinates": [ 112.324585552896053, -7.045000852914584 ] } },
{ "type": "Feature", "properties": { "field_1": 1341466, "field_2": "Lainnya", "field_3": "Potensi Kebakaran", "field_4": 646300.5, "field_5": 9221056.5 }, "geometry": { "type": "Point", "coordinates": [ 112.324585873795186, -7.045113896840101 ] } },
{ "type": "Feature", "properties": { "field_1": 1341467, "field_2": "Lainnya", "field_3": "Potensi Kebakaran", "field_4": 646300.5, "field_5": 9221044.0 }, "geometry": { "type": "Point", "coordinates": [ 112.32458619469962, -7.045226940765059 ] } },
{ "type": "Feature", "properties": { "field_1": 1341468, "field_2": "Lainnya", "field_3": "Potensi Kebakaran", "field_4": 646300.5, "field_5": 9221031.5 }, "geometry": { "type": "Point", "coordinates": [ 112.324586515609312, -7.045339984689456 ] } },
{ "type": "Feature", "properties": { "field_1": 1341469, "field_2": "Lainnya", "field_3": "Potensi Kebakaran", "field_4": 646300.5, "field_5": 9221019.0 }, "geometry": { "type": "Point", "coordinates": [ 112.32458683652429, -7.045453028613293 ] } },
{ "type": "Feature", "properties": { "field_1": 1341470, "field_2": "Lainnya", "field_3": "Potensi Kebakaran", "field_4": 646300.5, "field_5": 9221006.5 }, "geometry": { "type": "Point", "coordinates": [ 112.324587157444554, -7.045566072536571 ] } },
{ "type": "Feature", "properties": { "field_1": 1341471, "field_2": "Lainnya", "field_3": "Potensi Kebakaran", "field_4": 646300.5, "field_5": 9220994.0 }, "geometry": { "type": "Point", "coordinates": [ 112.324587478370091, -7.04567911645929 ] } },
{ "type": "Feature", "properties": { "field_1": 1341472, "field_2": "Lainnya", "field_3": "Potensi Kebakaran", "field_4": 646300.5, "field_5": 9220981.5 }, "geometry": { "type": "Point", "coordinates": [ 112.3245877993009, -7.045792160381448 ] } },
{ "type": "Feature", "properties": { "field_1": 1341473, "field_2": "Lainnya", "field_3": "Potensi Kebakaran", "field_4": 646300.5, "field_5": 9220969.0 }, "geometry": { "type": "Point", "coordinates": [ 112.324588120236996, -7.045905204303046 ] } },
{ "type": "Feature", "properties": { "field_1": 1341474, "field_2": "Lainnya", "field_3": "Potensi Kebakaran", "field_4": 646300.5, "field_5": 9220956.5 }, "geometry": { "type": "Point", "coordinates": [ 112.324588441178378, -7.046018248224086 ] } },
{ "type": "Feature", "properties": { "field_1": 1341475, "field_2": "Lainnya", "field_3": "Potensi Kebakaran", "field_4": 646300.5, "field_5": 9220944.0 }, "geometry": { "type": "Point", "coordinates": [ 112.324588762125018, -7.046131292144563 ] } },
{ "type": "Feature", "properties": { "field_1": 1341476, "field_2": "Lainnya", "field_3": "Potensi Kebakaran", "field_4": 646300.5, "field_5": 9220931.5 }, "geometry": { "type": "Point", "coordinates": [ 112.324589083076958, -7.046244336064482 ] } },
{ "type": "Feature", "properties": { "field_1": 1341477, "field_2": "Lainnya", "field_3": "Potensi Kebakaran", "field_4": 646300.5, "field_5": 9220919.0 }, "geometry": { "type": "Point", "coordinates": [ 112.324589404034157, -7.046357379983839 ] } },
{ "type": "Feature", "properties": { "field_1": 1341478, "field_2": "Lainnya", "field_3": "Potensi Kebakaran", "field_4": 646300.5, "field_5": 9220906.5 }, "geometry": { "type": "Point", "coordinates": [ 112.324589724996656, -7.046470423902638 ] } },
{ "type": "Feature", "properties": { "field_1": 1341479, "field_2": "Lainnya", "field_3": "Potensi Kebakaran", "field_4": 646300.5, "field_5": 9220894.0 }, "geometry": { "type": "Point", "coordinates": [ 112.324590045964413, -7.046583467820875 ] } },
{ "type": "Feature", "properties": { "field_1": 1341480, "field_2": "Lainnya", "field_3": "Potensi Kebakaran", "field_4": 646300.5, "field_5": 9220881.5 }, "geometry": { "type": "Point", "coordinates": [ 112.324590366937457, -7.046696511738556 ] } },
{ "type": "Feature", "properties": { "field_1": 1341481, "field_2": "Lainnya", "field_3": "Potensi Kebakaran", "field_4": 646300.5, "field_5": 9220869.0 }, "geometry": { "type": "Point", "coordinates": [ 112.324590687915787, -7.046809555655674 ] } },
{ "type": "Feature", "properties": { "field_1": 1341482, "field_2": "Lainnya", "field_3": "Potensi Kebakaran", "field_4": 646300.5, "field_5": 9220856.5 }, "geometry": { "type": "Point", "coordinates": [ 112.32459100889939, -7.046922599572234 ] } },
{ "type": "Feature", "properties": { "field_1": 1341483, "field_2": "Lainnya", "field_3": "Potensi Kebakaran", "field_4": 646300.5, "field_5": 9220844.0 }, "geometry": { "type": "Point", "coordinates": [ 112.324591329888278, -7.047035643488232 ] } },
{ "type": "Feature", "properties": { "field_1": 1341484, "field_2": "Lainnya", "field_3": "Potensi Kebakaran", "field_4": 646300.5, "field_5": 9220831.5 }, "geometry": { "type": "Point", "coordinates": [ 112.324591650882439, -7.047148687403671 ] } },
{ "type": "Feature", "properties": { "field_1": 1341485, "field_2": "Lainnya", "field_3": "Potensi Kebakaran", "field_4": 646300.5, "field_5": 9220819.0 }, "geometry": { "type": "Point", "coordinates": [ 112.324591971881858, -7.047261731318549 ] } },
{ "type": "Feature", "properties": { "field_1": 1341486, "field_2": "Lainnya", "field_3": "Potensi Kebakaran", "field_4": 646300.5, "field_5": 9220806.5 }, "geometry": { "type": "Point", "coordinates": [ 112.324592292886578, -7.04737477523287 ] } },
{ "type": "Feature", "properties": { "field_1": 1341487, "field_2": "Lainnya", "field_3": "Potensi Kebakaran", "field_4": 646300.5, "field_5": 9220794.0 }, "geometry": { "type": "Point", "coordinates": [ 112.324592613896584, -7.047487819146629 ] } },
{ "type": "Feature", "properties": { "field_1": 1341488, "field_2": "Lainnya", "field_3": "Potensi Kebakaran", "field_4": 646300.5, "field_5": 9220781.59 }, "geometry": { "type": "Point", "coordinates": [ 112.324592932600524, -7.047600049143655 ] } },
{ "type": "Feature", "properties": { "field_1": 1341489, "field_2": "Lainnya", "field_3": "Potensi Kebakaran", "field_4": 646300.5, "field_5": 9220769.0 }, "geometry": { "type": "Point", "coordinates": [ 112.324593255932413, -7.047713906972465 ] } },
{ "type": "Feature", "properties": { "field_1": 1341490, "field_2": "Lainnya", "field_3": "Potensi Kebakaran", "field_4": 646300.5, "field_5": 9220756.59 }, "geometry": { "type": "Point", "coordinates": [ 112.32459357464684, -7.047826136968381 ] } },
{ "type": "Feature", "properties": { "field_1": 1341491, "field_2": "Lainnya", "field_3": "Potensi Kebakaran", "field_4": 646300.5, "field_5": 9220744.0 }, "geometry": { "type": "Point", "coordinates": [ 112.324593897989359, -7.047939994796063 ] } },
{ "type": "Feature", "properties": { "field_1": 1341492, "field_2": "Lainnya", "field_3": "Potensi Kebakaran", "field_4": 646300.5, "field_5": 9220731.59 }, "geometry": { "type": "Point", "coordinates": [ 112.32459421671426, -7.048052224790867 ] } },
{ "type": "Feature", "properties": { "field_1": 1341493, "field_2": "Lainnya", "field_3": "Potensi Kebakaran", "field_4": 646300.5, "field_5": 9220719.0 }, "geometry": { "type": "Point", "coordinates": [ 112.324594540067409, -7.048166082617422 ] } },
{ "type": "Feature", "properties": { "field_1": 1341494, "field_2": "Lainnya", "field_3": "Potensi Kebakaran", "field_4": 646300.5, "field_5": 9220706.59 }, "geometry": { "type": "Point", "coordinates": [ 112.324594858802797, -7.048278312611112 ] } },
{ "type": "Feature", "properties": { "field_1": 1341495, "field_2": "Lainnya", "field_3": "Potensi Kebakaran", "field_4": 646300.5, "field_5": 9220694.0 }, "geometry": { "type": "Point", "coordinates": [ 112.32459518216659, -7.048392170436538 ] } },
{ "type": "Feature", "properties": { "field_1": 1341496, "field_2": "Lainnya", "field_3": "Potensi Kebakaran", "field_4": 646300.5, "field_5": 9220681.59 }, "geometry": { "type": "Point", "coordinates": [ 112.324595500912451, -7.048504400429117 ] } },
{ "type": "Feature", "properties": { "field_1": 1341497, "field_2": "Lainnya", "field_3": "Potensi Kebakaran", "field_4": 646300.5, "field_5": 9220669.0 }, "geometry": { "type": "Point", "coordinates": [ 112.32459582428686, -7.048618258253414 ] } },
{ "type": "Feature", "properties": { "field_1": 1341498, "field_2": "Lainnya", "field_3": "Potensi Kebakaran", "field_4": 646300.5, "field_5": 9220656.59 }, "geometry": { "type": "Point", "coordinates": [ 112.324596143043223, -7.048730488244883 ] } },
{ "type": "Feature", "properties": { "field_1": 1341499, "field_2": "Lainnya", "field_3": "Potensi Kebakaran", "field_4": 646300.5, "field_5": 9220644.0 }, "geometry": { "type": "Point", "coordinates": [ 112.324596466428275, -7.048844346068051 ] } },
{ "type": "Feature", "properties": { "field_1": 1341500, "field_2": "Lainnya", "field_3": "Potensi Kebakaran", "field_4": 646300.5, "field_5": 9220631.59 }, "geometry": { "type": "Point", "coordinates": [ 112.324596785195098, -7.048956576058406 ] } },
{ "type": "Feature", "properties": { "field_1": 1341501, "field_2": "Lainnya", "field_3": "Potensi Kebakaran", "field_4": 646300.5, "field_5": 9220619.0 }, "geometry": { "type": "Point", "coordinates": [ 112.32459710859078, -7.049070433880447 ] } },
{ "type": "Feature", "properties": { "field_1": 1341502, "field_2": "Lainnya", "field_3": "Potensi Kebakaran", "field_4": 646300.5, "field_5": 9220606.59 }, "geometry": { "type": "Point", "coordinates": [ 112.324597427368104, -7.04918266386969 ] } },
{ "type": "Feature", "properties": { "field_1": 1341503, "field_2": "Lainnya", "field_3": "Potensi Kebakaran", "field_4": 646300.5, "field_5": 9220594.0 }, "geometry": { "type": "Point", "coordinates": [ 112.324597750774416, -7.049296521690602 ] } },
{ "type": "Feature", "properties": { "field_1": 1341504, "field_2": "Lainnya", "field_3": "Potensi Kebakaran", "field_4": 646300.5, "field_5": 9220581.59 }, "geometry": { "type": "Point", "coordinates": [ 112.324598069562214, -7.049408751678734 ] } },
{ "type": "Feature", "properties": { "field_1": 1341505, "field_2": "Lainnya", "field_3": "Potensi Kebakaran", "field_4": 646300.5, "field_5": 9220569.0 }, "geometry": { "type": "Point", "coordinates": [ 112.324598392979169, -7.049522609498517 ] } },
{ "type": "Feature", "properties": { "field_1": 1341506, "field_2": "Lainnya", "field_3": "Potensi Kebakaran", "field_4": 646300.5, "field_5": 9220556.59 }, "geometry": { "type": "Point", "coordinates": [ 112.324598711777455, -7.049634839485535 ] } },
{ "type": "Feature", "properties": { "field_1": 1341507, "field_2": "Lainnya", "field_3": "Potensi Kebakaran", "field_4": 646300.5, "field_5": 9220544.0 }, "geometry": { "type": "Point", "coordinates": [ 112.324599035205026, -7.049748697304191 ] } },
{ "type": "Feature", "properties": { "field_1": 1341508, "field_2": "Lainnya", "field_3": "Potensi Kebakaran", "field_4": 646300.5, "field_5": 9220531.59 }, "geometry": { "type": "Point", "coordinates": [ 112.324599354013785, -7.049860927290097 ] } },
{ "type": "Feature", "properties": { "field_1": 1341509, "field_2": "Lainnya", "field_3": "Potensi Kebakaran", "field_4": 646300.5, "field_5": 9220519.0 }, "geometry": { "type": "Point", "coordinates": [ 112.324599677452014, -7.049974785107624 ] } },
{ "type": "Feature", "properties": { "field_1": 1341510, "field_2": "Lainnya", "field_3": "Potensi Kebakaran", "field_4": 646300.5, "field_5": 9220506.59 }, "geometry": { "type": "Point", "coordinates": [ 112.324599996271246, -7.050087015092418 ] } },
{ "type": "Feature", "properties": { "field_1": 1381420, "field_2": "Lainnya", "field_3": "Potensi Kebakaran", "field_4": 648300.5, "field_5": 9221631.5 }, "geometry": { "type": "Point", "coordinates": [ 112.342675295172242, -7.039862268993576 ] } },
{ "type": "Feature", "properties": { "field_1": 1381421, "field_2": "Lainnya", "field_3": "Potensi Kebakaran", "field_4": 648300.5, "field_5": 9221619.0 }, "geometry": { "type": "Point", "coordinates": [ 112.34267562021347, -7.03997531210753 ] } },
{ "type": "Feature", "properties": { "field_1": 1381422, "field_2": "Lainnya", "field_3": "Potensi Kebakaran", "field_4": 648300.5, "field_5": 9221606.5 }, "geometry": { "type": "Point", "coordinates": [ 112.342675945260027, -7.040088355220925 ] } },
{ "type": "Feature", "properties": { "field_1": 1381423, "field_2": "Lainnya", "field_3": "Potensi Kebakaran", "field_4": 648300.5, "field_5": 9221594.0 }, "geometry": { "type": "Point", "coordinates": [ 112.342676270311955, -7.040201398333759 ] } },
{ "type": "Feature", "properties": { "field_1": 1381424, "field_2": "Lainnya", "field_3": "Potensi Kebakaran", "field_4": 648300.5, "field_5": 9221581.5 }, "geometry": { "type": "Point", "coordinates": [ 112.342676595369213, -7.040314441446032 ] } },
{ "type": "Feature", "properties": { "field_1": 1381425, "field_2": "Lainnya", "field_3": "Potensi Kebakaran", "field_4": 648300.5, "field_5": 9221569.0 }, "geometry": { "type": "Point", "coordinates": [ 112.342676920431828, -7.040427484557748 ] } },
{ "type": "Feature", "properties": { "field_1": 1381426, "field_2": "Lainnya", "field_3": "Potensi Kebakaran", "field_4": 648300.5, "field_5": 9221556.5 }, "geometry": { "type": "Point", "coordinates": [ 112.3426772454998, -7.040540527668905 ] } },
{ "type": "Feature", "properties": { "field_1": 1381427, "field_2": "Lainnya", "field_3": "Potensi Kebakaran", "field_4": 648300.5, "field_5": 9221544.0 }, "geometry": { "type": "Point", "coordinates": [ 112.342677570573116, -7.040653570779498 ] } },
{ "type": "Feature", "properties": { "field_1": 1381428, "field_2": "Lainnya", "field_3": "Potensi Kebakaran", "field_4": 648300.5, "field_5": 9221531.5 }, "geometry": { "type": "Point", "coordinates": [ 112.342677895651775, -7.040766613889534 ] } },
{ "type": "Feature", "properties": { "field_1": 1381429, "field_2": "Lainnya", "field_3": "Potensi Kebakaran", "field_4": 648300.5, "field_5": 9221519.0 }, "geometry": { "type": "Point", "coordinates": [ 112.342678220735806, -7.040879656999008 ] } },
{ "type": "Feature", "properties": { "field_1": 1381430, "field_2": "Lainnya", "field_3": "Potensi Kebakaran", "field_4": 648300.5, "field_5": 9221506.5 }, "geometry": { "type": "Point", "coordinates": [ 112.342678545825166, -7.040992700107924 ] } },
{ "type": "Feature", "properties": { "field_1": 1381431, "field_2": "Lainnya", "field_3": "Potensi Kebakaran", "field_4": 648300.5, "field_5": 9221494.0 }, "geometry": { "type": "Point", "coordinates": [ 112.342678870919883, -7.04110574321628 ] } },
{ "type": "Feature", "properties": { "field_1": 1381432, "field_2": "Lainnya", "field_3": "Potensi Kebakaran", "field_4": 648300.5, "field_5": 9221481.5 }, "geometry": { "type": "Point", "coordinates": [ 112.342679196019958, -7.041218786324076 ] } },
{ "type": "Feature", "properties": { "field_1": 1381433, "field_2": "Lainnya", "field_3": "Potensi Kebakaran", "field_4": 648300.5, "field_5": 9221469.0 }, "geometry": { "type": "Point", "coordinates": [ 112.342679521125376, -7.041331829431313 ] } },
{ "type": "Feature", "properties": { "field_1": 1381434, "field_2": "Lainnya", "field_3": "Potensi Kebakaran", "field_4": 648300.5, "field_5": 9221456.5 }, "geometry": { "type": "Point", "coordinates": [ 112.342679846236138, -7.041444872537987 ] } },
{ "type": "Feature", "properties": { "field_1": 1381435, "field_2": "Lainnya", "field_3": "Potensi Kebakaran", "field_4": 648300.5, "field_5": 9221444.0 }, "geometry": { "type": "Point", "coordinates": [ 112.342680171352271, -7.041557915644104 ] } },
{ "type": "Feature", "properties": { "field_1": 1381436, "field_2": "Lainnya", "field_3": "Potensi Kebakaran", "field_4": 648300.5, "field_5": 9221431.5 }, "geometry": { "type": "Point", "coordinates": [ 112.342680496473747, -7.041670958749658 ] } },
{ "type": "Feature", "properties": { "field_1": 1381437, "field_2": "Lainnya", "field_3": "Potensi Kebakaran", "field_4": 648300.5, "field_5": 9221419.0 }, "geometry": { "type": "Point", "coordinates": [ 112.342680821600567, -7.041784001854654 ] } },
{ "type": "Feature", "properties": { "field_1": 1381438, "field_2": "Lainnya", "field_3": "Potensi Kebakaran", "field_4": 648300.5, "field_5": 9221406.5 }, "geometry": { "type": "Point", "coordinates": [ 112.342681146732744, -7.041897044959091 ] } },
{ "type": "Feature", "properties": { "field_1": 1381439, "field_2": "Lainnya", "field_3": "Potensi Kebakaran", "field_4": 648300.5, "field_5": 9221394.0 }, "geometry": { "type": "Point", "coordinates": [ 112.342681471870264, -7.042010088062968 ] } },
{ "type": "Feature", "properties": { "field_1": 1381440, "field_2": "Lainnya", "field_3": "Potensi Kebakaran", "field_4": 648300.5, "field_5": 9221381.5 }, "geometry": { "type": "Point", "coordinates": [ 112.342681797013142, -7.042123131166283 ] } },
{ "type": "Feature", "properties": { "field_1": 1381441, "field_2": "Lainnya", "field_3": "Potensi Kebakaran", "field_4": 648300.5, "field_5": 9221369.0 }, "geometry": { "type": "Point", "coordinates": [ 112.342682122161349, -7.042236174269038 ] } },
{ "type": "Feature", "properties": { "field_1": 1381442, "field_2": "Lainnya", "field_3": "Potensi Kebakaran", "field_4": 648300.5, "field_5": 9221356.5 }, "geometry": { "type": "Point", "coordinates": [ 112.342682447314928, -7.042349217371235 ] } },
{ "type": "Feature", "properties": { "field_1": 1381443, "field_2": "Lainnya", "field_3": "Potensi Kebakaran", "field_4": 648300.5, "field_5": 9221344.0 }, "geometry": { "type": "Point", "coordinates": [ 112.34268277247385, -7.042462260472869 ] } },
{ "type": "Feature", "properties": { "field_1": 1381444, "field_2": "Lainnya", "field_3": "Potensi Kebakaran", "field_4": 648300.5, "field_5": 9221331.5 }, "geometry": { "type": "Point", "coordinates": [ 112.34268309763813, -7.042575303573948 ] } },
{ "type": "Feature", "properties": { "field_1": 1381445, "field_2": "Lainnya", "field_3": "Potensi Kebakaran", "field_4": 648300.5, "field_5": 9221319.0 }, "geometry": { "type": "Point", "coordinates": [ 112.342683422807752, -7.042688346674463 ] } },
{ "type": "Feature", "properties": { "field_1": 1381446, "field_2": "Lainnya", "field_3": "Potensi Kebakaran", "field_4": 648300.5, "field_5": 9221306.5 }, "geometry": { "type": "Point", "coordinates": [ 112.342683747982733, -7.042801389774419 ] } },
{ "type": "Feature", "properties": { "field_1": 1381447, "field_2": "Lainnya", "field_3": "Potensi Kebakaran", "field_4": 648300.5, "field_5": 9221294.0 }, "geometry": { "type": "Point", "coordinates": [ 112.342684073163056, -7.042914432873815 ] } },
{ "type": "Feature", "properties": { "field_1": 1381448, "field_2": "Lainnya", "field_3": "Potensi Kebakaran", "field_4": 648300.5, "field_5": 9221281.5 }, "geometry": { "type": "Point", "coordinates": [ 112.342684398348737, -7.043027475972651 ] } },
{ "type": "Feature", "properties": { "field_1": 1381449, "field_2": "Lainnya", "field_3": "Potensi Kebakaran", "field_4": 648300.5, "field_5": 9221269.0 }, "geometry": { "type": "Point", "coordinates": [ 112.342684723539762, -7.043140519070926 ] } },
{ "type": "Feature", "properties": { "field_1": 1381450, "field_2": "Lainnya", "field_3": "Potensi Kebakaran", "field_4": 648300.5, "field_5": 9221256.5 }, "geometry": { "type": "Point", "coordinates": [ 112.342685048736143, -7.043253562168644 ] } },
{ "type": "Feature", "properties": { "field_1": 1381451, "field_2": "Lainnya", "field_3": "Potensi Kebakaran", "field_4": 648300.5, "field_5": 9221244.0 }, "geometry": { "type": "Point", "coordinates": [ 112.342685373937869, -7.043366605265798 ] } },
{ "type": "Feature", "properties": { "field_1": 1381452, "field_2": "Lainnya", "field_3": "Potensi Kebakaran", "field_4": 648300.5, "field_5": 9221231.5 }, "geometry": { "type": "Point", "coordinates": [ 112.342685699144951, -7.043479648362393 ] } },
{ "type": "Feature", "properties": { "field_1": 1381453, "field_2": "Lainnya", "field_3": "Potensi Kebakaran", "field_4": 648300.5, "field_5": 9221219.0 }, "geometry": { "type": "Point", "coordinates": [ 112.342686024357377, -7.043592691458429 ] } },
{ "type": "Feature", "properties": { "field_1": 1381454, "field_2": "Lainnya", "field_3": "Potensi Kebakaran", "field_4": 648300.5, "field_5": 9221206.5 }, "geometry": { "type": "Point", "coordinates": [ 112.34268634957516, -7.043705734553905 ] } },
{ "type": "Feature", "properties": { "field_1": 1381455, "field_2": "Lainnya", "field_3": "Potensi Kebakaran", "field_4": 648300.5, "field_5": 9221194.0 }, "geometry": { "type": "Point", "coordinates": [ 112.342686674798301, -7.04381877764882 ] } },
{ "type": "Feature", "properties": { "field_1": 1381456, "field_2": "Lainnya", "field_3": "Potensi Kebakaran", "field_4": 648300.5, "field_5": 9221181.5 }, "geometry": { "type": "Point", "coordinates": [ 112.342687000026785, -7.043931820743176 ] } },
{ "type": "Feature", "properties": { "field_1": 1381457, "field_2": "Lainnya", "field_3": "Potensi Kebakaran", "field_4": 648300.5, "field_5": 9221169.0 }, "geometry": { "type": "Point", "coordinates": [ 112.342687325260613, -7.044044863836971 ] } },
{ "type": "Feature", "properties": { "field_1": 1381458, "field_2": "Lainnya", "field_3": "Potensi Kebakaran", "field_4": 648300.5, "field_5": 9221156.5 }, "geometry": { "type": "Point", "coordinates": [ 112.342687650499798, -7.044157906930205 ] } },
{ "type": "Feature", "properties": { "field_1": 1381459, "field_2": "Lainnya", "field_3": "Potensi Kebakaran", "field_4": 648300.5, "field_5": 9221144.0 }, "geometry": { "type": "Point", "coordinates": [ 112.342687975744326, -7.044270950022879 ] } },
{ "type": "Feature", "properties": { "field_1": 1381460, "field_2": "Lainnya", "field_3": "Potensi Kebakaran", "field_4": 648300.5, "field_5": 9221131.5 }, "geometry": { "type": "Point", "coordinates": [ 112.342688300994212, -7.044383993114995 ] } },
{ "type": "Feature", "properties": { "field_1": 1381461, "field_2": "Lainnya", "field_3": "Potensi Kebakaran", "field_4": 648300.5, "field_5": 9221119.0 }, "geometry": { "type": "Point", "coordinates": [ 112.342688626249455, -7.044497036206549 ] } },
{ "type": "Feature", "properties": { "field_1": 1381462, "field_2": "Lainnya", "field_3": "Potensi Kebakaran", "field_4": 648300.5, "field_5": 9221106.5 }, "geometry": { "type": "Point", "coordinates": [ 112.342688951510027, -7.044610079297543 ] } },
{ "type": "Feature", "properties": { "field_1": 1381463, "field_2": "Lainnya", "field_3": "Potensi Kebakaran", "field_4": 648300.5, "field_5": 9221094.0 }, "geometry": { "type": "Point", "coordinates": [ 112.342689276775971, -7.044723122387976 ] } },
{ "type": "Feature", "properties": { "field_1": 1381464, "field_2": "Lainnya", "field_3": "Potensi Kebakaran", "field_4": 648300.5, "field_5": 9221081.5 }, "geometry": { "type": "Point", "coordinates": [ 112.342689602047258, -7.04483616547785 ] } },
{ "type": "Feature", "properties": { "field_1": 1381465, "field_2": "Lainnya", "field_3": "Potensi Kebakaran", "field_4": 648300.5, "field_5": 9221069.0 }, "geometry": { "type": "Point", "coordinates": [ 112.342689927323903, -7.044949208567163 ] } },
{ "type": "Feature", "properties": { "field_1": 1381466, "field_2": "Lainnya", "field_3": "Potensi Kebakaran", "field_4": 648300.5, "field_5": 9221056.5 }, "geometry": { "type": "Point", "coordinates": [ 112.342690252605891, -7.045062251655916 ] } },
{ "type": "Feature", "properties": { "field_1": 1381467, "field_2": "Lainnya", "field_3": "Potensi Kebakaran", "field_4": 648300.5, "field_5": 9221044.0 }, "geometry": { "type": "Point", "coordinates": [ 112.342690577893237, -7.045175294744111 ] } },
{ "type": "Feature", "properties": { "field_1": 1381468, "field_2": "Lainnya", "field_3": "Potensi Kebakaran", "field_4": 648300.5, "field_5": 9221031.5 }, "geometry": { "type": "Point", "coordinates": [ 112.342690903185911, -7.045288337831744 ] } },
{ "type": "Feature", "properties": { "field_1": 1381469, "field_2": "Lainnya", "field_3": "Potensi Kebakaran", "field_4": 648300.5, "field_5": 9221019.0 }, "geometry": { "type": "Point", "coordinates": [ 112.342691228483957, -7.045401380918817 ] } },
{ "type": "Feature", "properties": { "field_1": 1381470, "field_2": "Lainnya", "field_3": "Potensi Kebakaran", "field_4": 648300.5, "field_5": 9221006.5 }, "geometry": { "type": "Point", "coordinates": [ 112.342691553787361, -7.045514424005329 ] } },
{ "type": "Feature", "properties": { "field_1": 1381471, "field_2": "Lainnya", "field_3": "Potensi Kebakaran", "field_4": 648300.5, "field_5": 9220994.0 }, "geometry": { "type": "Point", "coordinates": [ 112.342691879096094, -7.04562746709128 ] } },
{ "type": "Feature", "properties": { "field_1": 1381472, "field_2": "Lainnya", "field_3": "Potensi Kebakaran", "field_4": 648300.5, "field_5": 9220981.5 }, "geometry": { "type": "Point", "coordinates": [ 112.342692204410184, -7.045740510176673 ] } },
{ "type": "Feature", "properties": { "field_1": 1381473, "field_2": "Lainnya", "field_3": "Potensi Kebakaran", "field_4": 648300.5, "field_5": 9220969.0 }, "geometry": { "type": "Point", "coordinates": [ 112.342692529729632, -7.045853553261505 ] } },
{ "type": "Feature", "properties": { "field_1": 1381474, "field_2": "Lainnya", "field_3": "Potensi Kebakaran", "field_4": 648300.5, "field_5": 9220956.5 }, "geometry": { "type": "Point", "coordinates": [ 112.342692855054423, -7.045966596345776 ] } },
{ "type": "Feature", "properties": { "field_1": 1381475, "field_2": "Lainnya", "field_3": "Potensi Kebakaran", "field_4": 648300.5, "field_5": 9220944.0 }, "geometry": { "type": "Point", "coordinates": [ 112.342693180384572, -7.046079639429488 ] } },
{ "type": "Feature", "properties": { "field_1": 1381476, "field_2": "Lainnya", "field_3": "Potensi Kebakaran", "field_4": 648300.5, "field_5": 9220931.5 }, "geometry": { "type": "Point", "coordinates": [ 112.342693505720064, -7.046192682512638 ] } },
{ "type": "Feature", "properties": { "field_1": 1381477, "field_2": "Lainnya", "field_3": "Potensi Kebakaran", "field_4": 648300.5, "field_5": 9220919.0 }, "geometry": { "type": "Point", "coordinates": [ 112.342693831060913, -7.046305725595229 ] } },
{ "type": "Feature", "properties": { "field_1": 1381478, "field_2": "Lainnya", "field_3": "Potensi Kebakaran", "field_4": 648300.5, "field_5": 9220906.5 }, "geometry": { "type": "Point", "coordinates": [ 112.342694156407106, -7.046418768677259 ] } },
{ "type": "Feature", "properties": { "field_1": 1381479, "field_2": "Lainnya", "field_3": "Potensi Kebakaran", "field_4": 648300.5, "field_5": 9220894.0 }, "geometry": { "type": "Point", "coordinates": [ 112.342694481758656, -7.046531811758729 ] } },
{ "type": "Feature", "properties": { "field_1": 1381480, "field_2": "Lainnya", "field_3": "Potensi Kebakaran", "field_4": 648300.5, "field_5": 9220881.5 }, "geometry": { "type": "Point", "coordinates": [ 112.342694807115564, -7.046644854839639 ] } },
{ "type": "Feature", "properties": { "field_1": 1381481, "field_2": "Lainnya", "field_3": "Potensi Kebakaran", "field_4": 648300.5, "field_5": 9220869.0 }, "geometry": { "type": "Point", "coordinates": [ 112.3426951324778, -7.046757897919987 ] } },
{ "type": "Feature", "properties": { "field_1": 1381482, "field_2": "Lainnya", "field_3": "Potensi Kebakaran", "field_4": 648300.5, "field_5": 9220856.5 }, "geometry": { "type": "Point", "coordinates": [ 112.342695457845409, -7.046870940999777 ] } },
{ "type": "Feature", "properties": { "field_1": 1381483, "field_2": "Lainnya", "field_3": "Potensi Kebakaran", "field_4": 648300.5, "field_5": 9220844.0 }, "geometry": { "type": "Point", "coordinates": [ 112.342695783218346, -7.046983984079005 ] } },
{ "type": "Feature", "properties": { "field_1": 1381484, "field_2": "Lainnya", "field_3": "Potensi Kebakaran", "field_4": 648300.5, "field_5": 9220831.5 }, "geometry": { "type": "Point", "coordinates": [ 112.34269610859667, -7.047097027157673 ] } },
{ "type": "Feature", "properties": { "field_1": 1381485, "field_2": "Lainnya", "field_3": "Potensi Kebakaran", "field_4": 648300.5, "field_5": 9220819.0 }, "geometry": { "type": "Point", "coordinates": [ 112.342696433980308, -7.04721007023578 ] } },
{ "type": "Feature", "properties": { "field_1": 1381486, "field_2": "Lainnya", "field_3": "Potensi Kebakaran", "field_4": 648300.5, "field_5": 9220806.5 }, "geometry": { "type": "Point", "coordinates": [ 112.342696759369304, -7.04732311331333 ] } },
{ "type": "Feature", "properties": { "field_1": 1381487, "field_2": "Lainnya", "field_3": "Potensi Kebakaran", "field_4": 648300.5, "field_5": 9220794.0 }, "geometry": { "type": "Point", "coordinates": [ 112.342697084763671, -7.047436156390316 ] } },
{ "type": "Feature", "properties": { "field_1": 1381488, "field_2": "Lainnya", "field_3": "Potensi Kebakaran", "field_4": 648300.5, "field_5": 9220781.59 }, "geometry": { "type": "Point", "coordinates": [ 112.342697407820481, -7.047548385556595 ] } },
{ "type": "Feature", "properties": { "field_1": 1381489, "field_2": "Lainnya", "field_3": "Potensi Kebakaran", "field_4": 648300.5, "field_5": 9220769.0 }, "geometry": { "type": "Point", "coordinates": [ 112.342697735568436, -7.047662242542608 ] } },
{ "type": "Feature", "properties": { "field_1": 1381490, "field_2": "Lainnya", "field_3": "Potensi Kebakaran", "field_4": 648300.5, "field_5": 9220756.59 }, "geometry": { "type": "Point", "coordinates": [ 112.342698058635861, -7.047774471707775 ] } },
{ "type": "Feature", "properties": { "field_1": 1381491, "field_2": "Lainnya", "field_3": "Potensi Kebakaran", "field_4": 648300.5, "field_5": 9220744.0 }, "geometry": { "type": "Point", "coordinates": [ 112.342698386394588, -7.047888328692658 ] } },
{ "type": "Feature", "properties": { "field_1": 1381492, "field_2": "Lainnya", "field_3": "Potensi Kebakaran", "field_4": 648300.5, "field_5": 9220731.59 }, "geometry": { "type": "Point", "coordinates": [ 112.342698709472643, -7.048000557856713 ] } },
{ "type": "Feature", "properties": { "field_1": 1381493, "field_2": "Lainnya", "field_3": "Potensi Kebakaran", "field_4": 648300.5, "field_5": 9220719.0 }, "geometry": { "type": "Point", "coordinates": [ 112.34269903724217, -7.048114414840469 ] } },
{ "type": "Feature", "properties": { "field_1": 1381494, "field_2": "Lainnya", "field_3": "Potensi Kebakaran", "field_4": 648300.5, "field_5": 9220706.59 }, "geometry": { "type": "Point", "coordinates": [ 112.342699360330855, -7.04822664400341 ] } },
{ "type": "Feature", "properties": { "field_1": 1381495, "field_2": "Lainnya", "field_3": "Potensi Kebakaran", "field_4": 648300.5, "field_5": 9220694.0 }, "geometry": { "type": "Point", "coordinates": [ 112.342699688111125, -7.048340500986035 ] } },
{ "type": "Feature", "properties": { "field_1": 1381496, "field_2": "Lainnya", "field_3": "Potensi Kebakaran", "field_4": 648300.5, "field_5": 9220681.59 }, "geometry": { "type": "Point", "coordinates": [ 112.342700011210439, -7.048452730147865 ] } },
{ "type": "Feature", "properties": { "field_1": 1381497, "field_2": "Lainnya", "field_3": "Potensi Kebakaran", "field_4": 648300.5, "field_5": 9220669.0 }, "geometry": { "type": "Point", "coordinates": [ 112.34270033900151, -7.048566587129361 ] } },
{ "type": "Feature", "properties": { "field_1": 1381498, "field_2": "Lainnya", "field_3": "Potensi Kebakaran", "field_4": 648300.5, "field_5": 9220656.59 }, "geometry": { "type": "Point", "coordinates": [ 112.34270066211144, -7.048678816290077 ] } },
{ "type": "Feature", "properties": { "field_1": 1381499, "field_2": "Lainnya", "field_3": "Potensi Kebakaran", "field_4": 648300.5, "field_5": 9220644.0 }, "geometry": { "type": "Point", "coordinates": [ 112.342700989913283, -7.048792673270444 ] } },
{ "type": "Feature", "properties": { "field_1": 1381500, "field_2": "Lainnya", "field_3": "Potensi Kebakaran", "field_4": 648300.5, "field_5": 9220631.59 }, "geometry": { "type": "Point", "coordinates": [ 112.342701313033842, -7.048904902430047 ] } },
{ "type": "Feature", "properties": { "field_1": 1441573, "field_2": "Lainnya", "field_3": "Potensi Kebakaran", "field_4": 651300.5, "field_5": 9217719.0 }, "geometry": { "type": "Point", "coordinates": [ 112.36993536427714, -7.075165614099951 ] } },
{ "type": "Feature", "properties": { "field_1": 1441574, "field_2": "Lainnya", "field_3": "Potensi Kebakaran", "field_4": 651300.5, "field_5": 9217706.59 }, "geometry": { "type": "Point", "coordinates": [ 112.369935695196375, -7.075277841861702 ] } },
{ "type": "Feature", "properties": { "field_1": 1441575, "field_2": "Lainnya", "field_3": "Potensi Kebakaran", "field_4": 651300.5, "field_5": 9217694.0 }, "geometry": { "type": "Point", "coordinates": [ 112.369936030920897, -7.075391697422811 ] } },
{ "type": "Feature", "properties": { "field_1": 1441576, "field_2": "Lainnya", "field_3": "Potensi Kebakaran", "field_4": 651300.5, "field_5": 9217681.59 }, "geometry": { "type": "Point", "coordinates": [ 112.369936361850947, -7.075503925183444 ] } },
{ "type": "Feature", "properties": { "field_1": 1441577, "field_2": "Lainnya", "field_3": "Potensi Kebakaran", "field_4": 651300.5, "field_5": 9217669.0 }, "geometry": { "type": "Point", "coordinates": [ 112.369936697586468, -7.07561778074342 ] } },
{ "type": "Feature", "properties": { "field_1": 1441578, "field_2": "Lainnya", "field_3": "Potensi Kebakaran", "field_4": 651300.5, "field_5": 9217656.59 }, "geometry": { "type": "Point", "coordinates": [ 112.369937028527389, -7.075730008502934 ] } },
{ "type": "Feature", "properties": { "field_1": 1441579, "field_2": "Lainnya", "field_3": "Potensi Kebakaran", "field_4": 651300.5, "field_5": 9217644.0 }, "geometry": { "type": "Point", "coordinates": [ 112.369937364273909, -7.075843864061775 ] } },
{ "type": "Feature", "properties": { "field_1": 1441773, "field_2": "Lainnya", "field_3": "Potensi Kebakaran", "field_4": 651300.5, "field_5": 9215219.0 }, "geometry": { "type": "Point", "coordinates": [ 112.370002136779306, -7.097773935223566 ] } },
{ "type": "Feature", "properties": { "field_1": 1441774, "field_2": "Lainnya", "field_3": "Potensi Kebakaran", "field_4": 651300.5, "field_5": 9215206.59 }, "geometry": { "type": "Point", "coordinates": [ 112.370002468782914, -7.097886162873319 ] } },
{ "type": "Feature", "properties": { "field_1": 1441775, "field_2": "Lainnya", "field_3": "Potensi Kebakaran", "field_4": 651300.5, "field_5": 9215194.0 }, "geometry": { "type": "Point", "coordinates": [ 112.370002805607527, -7.098000018320804 ] } },
{ "type": "Feature", "properties": { "field_1": 1441776, "field_2": "Lainnya", "field_3": "Potensi Kebakaran", "field_4": 651300.5, "field_5": 9215181.59 }, "geometry": { "type": "Point", "coordinates": [ 112.370003137621978, -7.098112245969436 ] } },
{ "type": "Feature", "properties": { "field_1": 1342258, "field_2": "Pohon Lapuk", "field_3": "Potensi Kebakaran", "field_4": 646300.5, "field_5": 9211156.59 }, "geometry": { "type": "Point", "coordinates": [ 112.324841681721608, -7.134643695404594 ] } },
{ "type": "Feature", "properties": { "field_1": 1342259, "field_2": "Pohon Lapuk", "field_3": "Potensi Kebakaran", "field_4": 646300.5, "field_5": 9211144.0 }, "geometry": { "type": "Point", "coordinates": [ 112.324842009149251, -7.134757552796448 ] } },
{ "type": "Feature", "properties": { "field_1": 1342260, "field_2": "Pohon Lapuk", "field_3": "Potensi Kebakaran", "field_4": 646300.5, "field_5": 9211131.59 }, "geometry": { "type": "Point", "coordinates": [ 112.324842331900896, -7.134869782361646 ] } },
{ "type": "Feature", "properties": { "field_1": 1342261, "field_2": "Pohon Lapuk", "field_3": "Potensi Kebakaran", "field_4": 646300.5, "field_5": 9211119.0 }, "geometry": { "type": "Point", "coordinates": [ 112.324842659339197, -7.134983639752355 ] } },
{ "type": "Feature", "properties": { "field_1": 1321593, "field_2": "Pohon Lapuk", "field_3": "Potensi Kebakaran", "field_4": 645300.5, "field_5": 9219469.0 }, "geometry": { "type": "Point", "coordinates": [ 112.315574152086569, -7.059496083289806 ] } },
{ "type": "Feature", "properties": { "field_1": 1321593, "field_2": "Pohon Lapuk", "field_3": "Potensi Kebakaran", "field_4": 645300.5, "field_5": 9219469.0 }, "geometry": { "type": "Point", "coordinates": [ 112.315574152086569, -7.059496083289806 ] } },
{ "type": "Feature", "properties": { "field_1": 1321594, "field_2": "Pohon Lapuk", "field_3": "Potensi Kebakaran", "field_4": 645300.5, "field_5": 9219456.59 }, "geometry": { "type": "Point", "coordinates": [ 112.315574469165767, -7.059608313639018 ] } },
{ "type": "Feature", "properties": { "field_1": 1321595, "field_2": "Pohon Lapuk", "field_3": "Potensi Kebakaran", "field_4": 645300.5, "field_5": 9219444.0 }, "geometry": { "type": "Point", "coordinates": [ 112.315574790849325, -7.059722171825121 ] } },
{ "type": "Feature", "properties": { "field_1": 1321596, "field_2": "Pohon Lapuk", "field_3": "Potensi Kebakaran", "field_4": 645300.5, "field_5": 9219431.59 }, "geometry": { "type": "Point", "coordinates": [ 112.315575107938955, -7.059834402173218 ] } },
{ "type": "Feature", "properties": { "field_1": 1321597, "field_2": "Pohon Lapuk", "field_3": "Potensi Kebakaran", "field_4": 645300.5, "field_5": 9219419.0 }, "geometry": { "type": "Point", "coordinates": [ 112.315575429633057, -7.059948260358192 ] } },
{ "type": "Feature", "properties": { "field_1": 1321598, "field_2": "Pohon Lapuk", "field_3": "Potensi Kebakaran", "field_4": 645300.5, "field_5": 9219406.59 }, "geometry": { "type": "Point", "coordinates": [ 112.315575746733089, -7.060060490705174 ] } },
{ "type": "Feature", "properties": { "field_1": 1321599, "field_2": "Pohon Lapuk", "field_3": "Potensi Kebakaran", "field_4": 645300.5, "field_5": 9219394.0 }, "geometry": { "type": "Point", "coordinates": [ 112.315576068437764, -7.060174348889017 ] } },
{ "type": "Feature", "properties": { "field_1": 1321600, "field_2": "Pohon Lapuk", "field_3": "Potensi Kebakaran", "field_4": 645300.5, "field_5": 9219381.59 }, "geometry": { "type": "Point", "coordinates": [ 112.315576385548212, -7.06028657923489 ] } },
{ "type": "Feature", "properties": { "field_1": 1321601, "field_2": "Pohon Lapuk", "field_3": "Potensi Kebakaran", "field_4": 645300.5, "field_5": 9219369.0 }, "geometry": { "type": "Point", "coordinates": [ 112.315576707263446, -7.060400437417601 ] } },
{ "type": "Feature", "properties": { "field_1": 1321602, "field_2": "Pohon Lapuk", "field_3": "Potensi Kebakaran", "field_4": 645300.5, "field_5": 9219356.59 }, "geometry": { "type": "Point", "coordinates": [ 112.315577024384297, -7.060512667762359 ] } },
{ "type": "Feature", "properties": { "field_1": 1321603, "field_2": "Pohon Lapuk", "field_3": "Potensi Kebakaran", "field_4": 645300.5, "field_5": 9219344.0 }, "geometry": { "type": "Point", "coordinates": [ 112.315577346110089, -7.060626525943941 ] } },
{ "type": "Feature", "properties": { "field_1": 1321604, "field_2": "Pohon Lapuk", "field_3": "Potensi Kebakaran", "field_4": 645300.5, "field_5": 9219331.59 }, "geometry": { "type": "Point", "coordinates": [ 112.315577663241356, -7.060738756287585 ] } },
{ "type": "Feature", "properties": { "field_1": 1321605, "field_2": "Pohon Lapuk", "field_3": "Potensi Kebakaran", "field_4": 645300.5, "field_5": 9219319.0 }, "geometry": { "type": "Point", "coordinates": [ 112.315577984977708, -7.06085261446804 ] } },
{ "type": "Feature", "properties": { "field_1": 1321606, "field_2": "Pohon Lapuk", "field_3": "Potensi Kebakaran", "field_4": 645300.5, "field_5": 9219306.59 }, "geometry": { "type": "Point", "coordinates": [ 112.315578302119391, -7.06096484481057 ] } },
{ "type": "Feature", "properties": { "field_1": 1321607, "field_2": "Pohon Lapuk", "field_3": "Potensi Kebakaran", "field_4": 645300.5, "field_5": 9219294.0 }, "geometry": { "type": "Point", "coordinates": [ 112.315578623866315, -7.061078702989892 ] } },
{ "type": "Feature", "properties": { "field_1": 1321608, "field_2": "Pohon Lapuk", "field_3": "Potensi Kebakaran", "field_4": 645300.5, "field_5": 9219281.59 }, "geometry": { "type": "Point", "coordinates": [ 112.315578941018401, -7.06119093333131 ] } },
{ "type": "Feature", "properties": { "field_1": 1321609, "field_2": "Pohon Lapuk", "field_3": "Potensi Kebakaran", "field_4": 645300.5, "field_5": 9219269.0 }, "geometry": { "type": "Point", "coordinates": [ 112.315579262775884, -7.061304791509502 ] } },
{ "type": "Feature", "properties": { "field_1": 1321610, "field_2": "Pohon Lapuk", "field_3": "Potensi Kebakaran", "field_4": 645300.5, "field_5": 9219256.59 }, "geometry": { "type": "Point", "coordinates": [ 112.315579579938387, -7.061417021849805 ] } },
{ "type": "Feature", "properties": { "field_1": 1322314, "field_2": "Pohon Lapuk", "field_3": "Potensi Kebakaran", "field_4": 645300.5, "field_5": 9210456.59 }, "geometry": { "type": "Point", "coordinates": [ 112.315805783193781, -7.141000040456301 ] } },
{ "type": "Feature", "properties": { "field_1": 1321650, "field_2": "Lainnya", "field_3": "Potensi Kebakaran", "field_4": 645300.5, "field_5": 9218756.59 }, "geometry": { "type": "Point", "coordinates": [ 112.315592362742592, -7.065938791748477 ] } },
{ "type": "Feature", "properties": { "field_1": 1321651, "field_2": "Lainnya", "field_3": "Potensi Kebakaran", "field_4": 645300.5, "field_5": 9218744.0 }, "geometry": { "type": "Point", "coordinates": [ 112.315592684721878, -7.066052649902939 ] } },
{ "type": "Feature", "properties": { "field_1": 1321652, "field_2": "Lainnya", "field_3": "Potensi Kebakaran", "field_4": 645300.5, "field_5": 9218731.59 }, "geometry": { "type": "Point", "coordinates": [ 112.315593002103043, -7.066164880219843 ] } },
{ "type": "Feature", "properties": { "field_1": 1321653, "field_2": "Lainnya", "field_3": "Potensi Kebakaran", "field_4": 645300.5, "field_5": 9218719.0 }, "geometry": { "type": "Point", "coordinates": [ 112.315593324092887, -7.066278738373172 ] } },
{ "type": "Feature", "properties": { "field_1": 1321654, "field_2": "Lainnya", "field_3": "Potensi Kebakaran", "field_4": 645300.5, "field_5": 9218706.59 }, "geometry": { "type": "Point", "coordinates": [ 112.31559364148444, -7.066390968688966 ] } },
{ "type": "Feature", "properties": { "field_1": 1321655, "field_2": "Lainnya", "field_3": "Potensi Kebakaran", "field_4": 645300.5, "field_5": 9218694.0 }, "geometry": { "type": "Point", "coordinates": [ 112.315593963484872, -7.066504826841162 ] } },
{ "type": "Feature", "properties": { "field_1": 1321656, "field_2": "Lainnya", "field_3": "Potensi Kebakaran", "field_4": 645300.5, "field_5": 9218681.59 }, "geometry": { "type": "Point", "coordinates": [ 112.315594280886842, -7.066617057155839 ] } }
]
}
