{
"type": "FeatureCollection",
"name": "Sarang_Tawon",
"crs": { "type": "name", "properties": { "name": "urn:ogc:def:crs:OGC:1.3:CRS84" } },
"features": [
{ "type": "Feature", "properties": { "field_1": 1082537, "field_2": "Binatang berbahaya", "field_3": "Sarang Tawon", "field_4": 633300.5, "field_5": 9207819.0 }, "geometry": { "type": "Point", "coordinates": [ 112.207216559805488, -7.165151181531183 ] } },
{ "type": "Feature", "properties": { "field_1": 1082538, "field_2": "Binatang berbahaya", "field_3": "Sarang Tawon", "field_4": 633300.5, "field_5": 9207806.5 }, "geometry": { "type": "Point", "coordinates": [ 112.207216857314066, -7.165264230023158 ] } },
{ "type": "Feature", "properties": { "field_1": 1082539, "field_2": "Binatang berbahaya", "field_3": "Sarang Tawon", "field_4": 633300.5, "field_5": 9207794.0 }, "geometry": { "type": "Point", "coordinates": [ 112.207217154827447, -7.165377278514567 ] } },
{ "type": "Feature", "properties": { "field_1": 1082540, "field_2": "Binatang berbahaya", "field_3": "Sarang Tawon", "field_4": 633300.5, "field_5": 9207781.5 }, "geometry": { "type": "Point", "coordinates": [ 112.20721745234566, -7.16549032700541 ] } },
{ "type": "Feature", "properties": { "field_1": 1151786, "field_2": "Lainnya", "field_3": "Sarang Tawon", "field_4": 634394.3, "field_5": 9215800.39 }, "geometry": { "type": "Point", "coordinates": [ 112.216930354385312, -7.09294249591243 ] } },
{ "type": "Feature", "properties": { "field_1": 1151787, "field_2": "Lainnya", "field_3": "Sarang Tawon", "field_4": 634406.8, "field_5": 9215800.3 }, "geometry": { "type": "Point", "coordinates": [ 112.217043525696511, -7.092943013317649 ] } },
{ "type": "Feature", "properties": { "field_1": 1151788, "field_2": "Lainnya", "field_3": "Sarang Tawon", "field_4": 634419.3, "field_5": 9215800.39 }, "geometry": { "type": "Point", "coordinates": [ 112.217156692727855, -7.092941902797893 ] } }
]
}
