{
"type": "FeatureCollection",
"name": "Sungai",
"crs": { "type": "name", "properties": { "name": "urn:ogc:def:crs:OGC:1.3:CRS84" } },
"features": [
{ "type": "Feature", "properties": { "field_1": 1041139, "field_2": "Potensi banjir", "field_3": "Sungai", "field_4": 631300.5, "field_5": 9225294.0 }, "geometry": { "type": "Point", "coordinates": [ 112.188701484518987, -7.007154974812183 ] } },
{ "type": "Feature", "properties": { "field_1": 1041140, "field_2": "Potensi banjir", "field_3": "Sungai", "field_4": 631300.5, "field_5": 9225281.5 }, "geometry": { "type": "Point", "coordinates": [ 112.188701770940753, -7.007268024839375 ] } },
{ "type": "Feature", "properties": { "field_1": 1041141, "field_2": "Potensi banjir", "field_3": "Sungai", "field_4": 631300.5, "field_5": 9225269.0 }, "geometry": { "type": "Point", "coordinates": [ 112.188702057367266, -7.007381074866015 ] } },
{ "type": "Feature", "properties": { "field_1": 1041450, "field_2": "Sungai/ Rawa", "field_3": "Sungai", "field_4": 631300.5, "field_5": 9221406.5 }, "geometry": { "type": "Point", "coordinates": [ 112.188790790014366, -7.042313506514126 ] } },
{ "type": "Feature", "properties": { "field_1": 1041451, "field_2": "Sungai/ Rawa", "field_3": "Sungai", "field_4": 631300.5, "field_5": 9221394.0 }, "geometry": { "type": "Point", "coordinates": [ 112.188791077909286, -7.042426556368563 ] } },
{ "type": "Feature", "properties": { "field_1": 1041452, "field_2": "Sungai/ Rawa", "field_3": "Sungai", "field_4": 631300.5, "field_5": 9221381.5 }, "geometry": { "type": "Point", "coordinates": [ 112.188791365808953, -7.042539606222443 ] } },
{ "type": "Feature", "properties": { "field_1": 1041453, "field_2": "Sungai/ Rawa", "field_3": "Sungai", "field_4": 631300.5, "field_5": 9221369.0 }, "geometry": { "type": "Point", "coordinates": [ 112.188791653713338, -7.042652656075767 ] } },
{ "type": "Feature", "properties": { "field_1": 1041454, "field_2": "Sungai/ Rawa", "field_3": "Sungai", "field_4": 631300.5, "field_5": 9221356.5 }, "geometry": { "type": "Point", "coordinates": [ 112.188791941622455, -7.042765705928534 ] } },
{ "type": "Feature", "properties": { "field_1": 1041455, "field_2": "Sungai/ Rawa", "field_3": "Sungai", "field_4": 631300.5, "field_5": 9221344.0 }, "geometry": { "type": "Point", "coordinates": [ 112.188792229536332, -7.042878755780745 ] } },
{ "type": "Feature", "properties": { "field_1": 1041456, "field_2": "Sungai/ Rawa", "field_3": "Sungai", "field_4": 631300.5, "field_5": 9221331.5 }, "geometry": { "type": "Point", "coordinates": [ 112.188792517454942, -7.0429918056324 ] } },
{ "type": "Feature", "properties": { "field_1": 1041457, "field_2": "Sungai/ Rawa", "field_3": "Sungai", "field_4": 631300.5, "field_5": 9221319.0 }, "geometry": { "type": "Point", "coordinates": [ 112.18879280537827, -7.043104855483494 ] } },
{ "type": "Feature", "properties": { "field_1": 1061170, "field_2": "Sungai/ Rawa", "field_3": "Sungai", "field_4": 632300.5, "field_5": 9225106.5 }, "geometry": { "type": "Point", "coordinates": [ 112.197757761946221, -7.008827739028978 ] } },
{ "type": "Feature", "properties": { "field_1": 1061200, "field_2": "Sungai/ Rawa", "field_3": "Sungai", "field_4": 632300.5, "field_5": 9224731.5 }, "geometry": { "type": "Point", "coordinates": [ 112.197766424217818, -7.012219228124125 ] } },
{ "type": "Feature", "properties": { "field_1": 1061412, "field_2": "Sungai/ Rawa", "field_3": "Sungai", "field_4": 632300.5, "field_5": 9222081.5 }, "geometry": { "type": "Point", "coordinates": [ 112.197827760028858, -7.036185736820789 ] } },
{ "type": "Feature", "properties": { "field_1": 1101496, "field_2": "Sungai / Rawa", "field_3": "Sungai", "field_4": 634300.5, "field_5": 9221131.5 }, "geometry": { "type": "Point", "coordinates": [ 112.215955060245022, -7.044730762115604 ] } },
{ "type": "Feature", "properties": { "field_1": 1101497, "field_2": "Sungai / Rawa", "field_3": "Sungai", "field_4": 634300.5, "field_5": 9221119.0 }, "geometry": { "type": "Point", "coordinates": [ 112.21595535481957, -7.044843810826102 ] } },
{ "type": "Feature", "properties": { "field_1": 1101498, "field_2": "Sungai / Rawa", "field_3": "Sungai", "field_4": 634300.5, "field_5": 9221106.5 }, "geometry": { "type": "Point", "coordinates": [ 112.21595564939895, -7.044956859536045 ] } },
{ "type": "Feature", "properties": { "field_1": 1101499, "field_2": "Sungai / Rawa", "field_3": "Sungai", "field_4": 634300.5, "field_5": 9221094.0 }, "geometry": { "type": "Point", "coordinates": [ 112.215955943983204, -7.04506990824543 ] } },
{ "type": "Feature", "properties": { "field_1": 1101500, "field_2": "Sungai / Rawa", "field_3": "Sungai", "field_4": 634300.5, "field_5": 9221081.5 }, "geometry": { "type": "Point", "coordinates": [ 112.215956238572275, -7.045182956954256 ] } },
{ "type": "Feature", "properties": { "field_1": 1101501, "field_2": "Sungai / Rawa", "field_3": "Sungai", "field_4": 634300.5, "field_5": 9221069.0 }, "geometry": { "type": "Point", "coordinates": [ 112.215956533166207, -7.045296005662526 ] } },
{ "type": "Feature", "properties": { "field_1": 1101502, "field_2": "Sungai / Rawa", "field_3": "Sungai", "field_4": 634300.5, "field_5": 9221056.5 }, "geometry": { "type": "Point", "coordinates": [ 112.215956827764984, -7.045409054370237 ] } },
{ "type": "Feature", "properties": { "field_1": 1101503, "field_2": "Sungai / Rawa", "field_3": "Sungai", "field_4": 634300.5, "field_5": 9221044.0 }, "geometry": { "type": "Point", "coordinates": [ 112.215957122368607, -7.045522103077391 ] } },
{ "type": "Feature", "properties": { "field_1": 1101504, "field_2": "Sungai / Rawa", "field_3": "Sungai", "field_4": 634300.5, "field_5": 9221031.5 }, "geometry": { "type": "Point", "coordinates": [ 112.215957416977076, -7.045635151783986 ] } },
{ "type": "Feature", "properties": { "field_1": 1101505, "field_2": "Sungai / Rawa", "field_3": "Sungai", "field_4": 634300.5, "field_5": 9221019.0 }, "geometry": { "type": "Point", "coordinates": [ 112.215957711590391, -7.045748200490026 ] } },
{ "type": "Feature", "properties": { "field_1": 1101506, "field_2": "Sungai / Rawa", "field_3": "Sungai", "field_4": 634300.5, "field_5": 9221006.5 }, "geometry": { "type": "Point", "coordinates": [ 112.215958006208552, -7.045861249195507 ] } },
{ "type": "Feature", "properties": { "field_1": 1101507, "field_2": "Sungai / Rawa", "field_3": "Sungai", "field_4": 634300.5, "field_5": 9220994.0 }, "geometry": { "type": "Point", "coordinates": [ 112.215958300831559, -7.04597429790043 ] } },
{ "type": "Feature", "properties": { "field_1": 1101508, "field_2": "Sungai / Rawa", "field_3": "Sungai", "field_4": 634300.5, "field_5": 9220981.5 }, "geometry": { "type": "Point", "coordinates": [ 112.215958595459398, -7.046087346604795 ] } },
{ "type": "Feature", "properties": { "field_1": 1101509, "field_2": "Sungai / Rawa", "field_3": "Sungai", "field_4": 634300.5, "field_5": 9220969.0 }, "geometry": { "type": "Point", "coordinates": [ 112.215958890092111, -7.046200395308603 ] } },
{ "type": "Feature", "properties": { "field_1": 1101510, "field_2": "Sungai / Rawa", "field_3": "Sungai", "field_4": 634300.5, "field_5": 9220956.5 }, "geometry": { "type": "Point", "coordinates": [ 112.215959184729655, -7.046313444011855 ] } },
{ "type": "Feature", "properties": { "field_1": 1101511, "field_2": "Sungai / Rawa", "field_3": "Sungai", "field_4": 634300.5, "field_5": 9220944.0 }, "geometry": { "type": "Point", "coordinates": [ 112.215959479372032, -7.046426492714548 ] } },
{ "type": "Feature", "properties": { "field_1": 1101512, "field_2": "Sungai / Rawa", "field_3": "Sungai", "field_4": 634300.5, "field_5": 9220931.5 }, "geometry": { "type": "Point", "coordinates": [ 112.215959774019268, -7.046539541416682 ] } },
{ "type": "Feature", "properties": { "field_1": 1101513, "field_2": "Sungai / Rawa", "field_3": "Sungai", "field_4": 634300.5, "field_5": 9220919.0 }, "geometry": { "type": "Point", "coordinates": [ 112.21596006867135, -7.046652590118261 ] } },
{ "type": "Feature", "properties": { "field_1": 1101514, "field_2": "Sungai / Rawa", "field_3": "Sungai", "field_4": 634300.5, "field_5": 9220906.5 }, "geometry": { "type": "Point", "coordinates": [ 112.215960363328279, -7.046765638819279 ] } },
{ "type": "Feature", "properties": { "field_1": 1101515, "field_2": "Sungai / Rawa", "field_3": "Sungai", "field_4": 634300.5, "field_5": 9220894.0 }, "geometry": { "type": "Point", "coordinates": [ 112.215960657990053, -7.04687868751974 ] } },
{ "type": "Feature", "properties": { "field_1": 1101516, "field_2": "Sungai / Rawa", "field_3": "Sungai", "field_4": 634300.5, "field_5": 9220881.5 }, "geometry": { "type": "Point", "coordinates": [ 112.215960952656673, -7.046991736219644 ] } },
{ "type": "Feature", "properties": { "field_1": 1101517, "field_2": "Sungai / Rawa", "field_3": "Sungai", "field_4": 634300.5, "field_5": 9220869.0 }, "geometry": { "type": "Point", "coordinates": [ 112.215961247328138, -7.04710478491899 ] } },
{ "type": "Feature", "properties": { "field_1": 1101518, "field_2": "Sungai / Rawa", "field_3": "Sungai", "field_4": 634300.5, "field_5": 9220856.5 }, "geometry": { "type": "Point", "coordinates": [ 112.21596154200445, -7.047217833617779 ] } },
{ "type": "Feature", "properties": { "field_1": 1101519, "field_2": "Sungai / Rawa", "field_3": "Sungai", "field_4": 634300.5, "field_5": 9220844.0 }, "geometry": { "type": "Point", "coordinates": [ 112.215961836685608, -7.04733088231601 ] } },
{ "type": "Feature", "properties": { "field_1": 1101520, "field_2": "Sungai / Rawa", "field_3": "Sungai", "field_4": 634300.5, "field_5": 9220831.5 }, "geometry": { "type": "Point", "coordinates": [ 112.215962131371626, -7.047443931013683 ] } },
{ "type": "Feature", "properties": { "field_1": 1101521, "field_2": "Sungai / Rawa", "field_3": "Sungai", "field_4": 634300.5, "field_5": 9220819.0 }, "geometry": { "type": "Point", "coordinates": [ 112.215962426062461, -7.047556979710799 ] } },
{ "type": "Feature", "properties": { "field_1": 1101522, "field_2": "Sungai / Rawa", "field_3": "Sungai", "field_4": 634300.5, "field_5": 9220806.5 }, "geometry": { "type": "Point", "coordinates": [ 112.215962720758156, -7.047670028407357 ] } },
{ "type": "Feature", "properties": { "field_1": 1101523, "field_2": "Sungai / Rawa", "field_3": "Sungai", "field_4": 634300.5, "field_5": 9220794.0 }, "geometry": { "type": "Point", "coordinates": [ 112.215963015458698, -7.047783077103356 ] } },
{ "type": "Feature", "properties": { "field_1": 1101524, "field_2": "Sungai / Rawa", "field_3": "Sungai", "field_4": 634300.5, "field_5": 9220781.59 }, "geometry": { "type": "Point", "coordinates": [ 112.215963308042205, -7.047895311848194 ] } },
{ "type": "Feature", "properties": { "field_1": 1101525, "field_2": "Sungai / Rawa", "field_3": "Sungai", "field_4": 634300.5, "field_5": 9220769.0 }, "geometry": { "type": "Point", "coordinates": [ 112.215963604874318, -7.048009174493682 ] } },
{ "type": "Feature", "properties": { "field_1": 1101526, "field_2": "Sungai / Rawa", "field_3": "Sungai", "field_4": 634300.5, "field_5": 9220756.59 }, "geometry": { "type": "Point", "coordinates": [ 112.215963897467446, -7.048121409237413 ] } },
{ "type": "Feature", "properties": { "field_1": 1101527, "field_2": "Sungai / Rawa", "field_3": "Sungai", "field_4": 634300.5, "field_5": 9220744.0 }, "geometry": { "type": "Point", "coordinates": [ 112.215964194309336, -7.048235271881777 ] } },
{ "type": "Feature", "properties": { "field_1": 1101528, "field_2": "Sungai / Rawa", "field_3": "Sungai", "field_4": 634300.5, "field_5": 9220731.59 }, "geometry": { "type": "Point", "coordinates": [ 112.215964486912071, -7.0483475066244 ] } },
{ "type": "Feature", "properties": { "field_1": 1101529, "field_2": "Sungai / Rawa", "field_3": "Sungai", "field_4": 634300.5, "field_5": 9220719.0 }, "geometry": { "type": "Point", "coordinates": [ 112.215964783763724, -7.048461369267641 ] } },
{ "type": "Feature", "properties": { "field_1": 1101530, "field_2": "Sungai / Rawa", "field_3": "Sungai", "field_4": 634300.5, "field_5": 9220706.59 }, "geometry": { "type": "Point", "coordinates": [ 112.215965076376094, -7.048573604009155 ] } },
{ "type": "Feature", "properties": { "field_1": 1101531, "field_2": "Sungai / Rawa", "field_3": "Sungai", "field_4": 634300.5, "field_5": 9220694.0 }, "geometry": { "type": "Point", "coordinates": [ 112.215965373237495, -7.048687466651273 ] } },
{ "type": "Feature", "properties": { "field_1": 1101532, "field_2": "Sungai / Rawa", "field_3": "Sungai", "field_4": 634300.5, "field_5": 9220681.59 }, "geometry": { "type": "Point", "coordinates": [ 112.215965665859486, -7.048799701391681 ] } },
{ "type": "Feature", "properties": { "field_1": 1101533, "field_2": "Sungai / Rawa", "field_3": "Sungai", "field_4": 634300.5, "field_5": 9220669.0 }, "geometry": { "type": "Point", "coordinates": [ 112.215965962730664, -7.048913564032673 ] } },
{ "type": "Feature", "properties": { "field_1": 1101534, "field_2": "Sungai / Rawa", "field_3": "Sungai", "field_4": 634300.5, "field_5": 9220656.59 }, "geometry": { "type": "Point", "coordinates": [ 112.215966255362261, -7.049025798771972 ] } },
{ "type": "Feature", "properties": { "field_1": 1101535, "field_2": "Sungai / Rawa", "field_3": "Sungai", "field_4": 634300.5, "field_5": 9220644.0 }, "geometry": { "type": "Point", "coordinates": [ 112.215966552243202, -7.049139661411843 ] } },
{ "type": "Feature", "properties": { "field_1": 1101536, "field_2": "Sungai / Rawa", "field_3": "Sungai", "field_4": 634300.5, "field_5": 9220631.59 }, "geometry": { "type": "Point", "coordinates": [ 112.215966844884434, -7.049251896150034 ] } },
{ "type": "Feature", "properties": { "field_1": 1101537, "field_2": "Sungai / Rawa", "field_3": "Sungai", "field_4": 634300.5, "field_5": 9220619.0 }, "geometry": { "type": "Point", "coordinates": [ 112.215967141775138, -7.04936575878878 ] } },
{ "type": "Feature", "properties": { "field_1": 1101538, "field_2": "Sungai / Rawa", "field_3": "Sungai", "field_4": 634300.5, "field_5": 9220606.59 }, "geometry": { "type": "Point", "coordinates": [ 112.215967434425977, -7.049477993525865 ] } },
{ "type": "Feature", "properties": { "field_1": 1101539, "field_2": "Sungai / Rawa", "field_3": "Sungai", "field_4": 634300.5, "field_5": 9220594.0 }, "geometry": { "type": "Point", "coordinates": [ 112.215967731326444, -7.049591856163485 ] } },
{ "type": "Feature", "properties": { "field_1": 1101540, "field_2": "Sungai / Rawa", "field_3": "Sungai", "field_4": 634300.5, "field_5": 9220581.59 }, "geometry": { "type": "Point", "coordinates": [ 112.215968023986918, -7.049704090899463 ] } },
{ "type": "Feature", "properties": { "field_1": 1101541, "field_2": "Sungai / Rawa", "field_3": "Sungai", "field_4": 634300.5, "field_5": 9220569.0 }, "geometry": { "type": "Point", "coordinates": [ 112.215968320897161, -7.04981795353596 ] } },
{ "type": "Feature", "properties": { "field_1": 1101542, "field_2": "Sungai / Rawa", "field_3": "Sungai", "field_4": 634300.5, "field_5": 9220556.59 }, "geometry": { "type": "Point", "coordinates": [ 112.215968613567242, -7.049930188270829 ] } },
{ "type": "Feature", "properties": { "field_1": 1101543, "field_2": "Sungai / Rawa", "field_3": "Sungai", "field_4": 634300.5, "field_5": 9220544.0 }, "geometry": { "type": "Point", "coordinates": [ 112.215968910487234, -7.050044050906202 ] } },
{ "type": "Feature", "properties": { "field_1": 1101544, "field_2": "Sungai / Rawa", "field_3": "Sungai", "field_4": 634300.5, "field_5": 9220531.59 }, "geometry": { "type": "Point", "coordinates": [ 112.215969203166964, -7.050156285639963 ] } },
{ "type": "Feature", "properties": { "field_1": 1101545, "field_2": "Sungai / Rawa", "field_3": "Sungai", "field_4": 634300.5, "field_5": 9220519.0 }, "geometry": { "type": "Point", "coordinates": [ 112.215969500096691, -7.050270148274212 ] } },
{ "type": "Feature", "properties": { "field_1": 1101546, "field_2": "Sungai / Rawa", "field_3": "Sungai", "field_4": 634300.5, "field_5": 9220506.59 }, "geometry": { "type": "Point", "coordinates": [ 112.215969792786041, -7.050382383006865 ] } },
{ "type": "Feature", "properties": { "field_1": 1101547, "field_2": "Sungai / Rawa", "field_3": "Sungai", "field_4": 634300.5, "field_5": 9220494.0 }, "geometry": { "type": "Point", "coordinates": [ 112.215970089725559, -7.050496245639991 ] } },
{ "type": "Feature", "properties": { "field_1": 1101548, "field_2": "Sungai / Rawa", "field_3": "Sungai", "field_4": 634300.5, "field_5": 9220481.59 }, "geometry": { "type": "Point", "coordinates": [ 112.21597038242453, -7.050608480371535 ] } },
{ "type": "Feature", "properties": { "field_1": 1101549, "field_2": "Sungai / Rawa", "field_3": "Sungai", "field_4": 634300.5, "field_5": 9220469.0 }, "geometry": { "type": "Point", "coordinates": [ 112.215970679373797, -7.050722343003538 ] } },
{ "type": "Feature", "properties": { "field_1": 1101550, "field_2": "Sungai / Rawa", "field_3": "Sungai", "field_4": 634300.5, "field_5": 9220456.59 }, "geometry": { "type": "Point", "coordinates": [ 112.215970972082374, -7.050834577733974 ] } },
{ "type": "Feature", "properties": { "field_1": 1101551, "field_2": "Sungai / Rawa", "field_3": "Sungai", "field_4": 634300.5, "field_5": 9220444.0 }, "geometry": { "type": "Point", "coordinates": [ 112.215971269041418, -7.050948440364851 ] } },
{ "type": "Feature", "properties": { "field_1": 1101552, "field_2": "Sungai / Rawa", "field_3": "Sungai", "field_4": 634300.5, "field_5": 9220431.59 }, "geometry": { "type": "Point", "coordinates": [ 112.215971561759631, -7.051060675094179 ] } },
{ "type": "Feature", "properties": { "field_1": 1101553, "field_2": "Sungai / Rawa", "field_3": "Sungai", "field_4": 634300.5, "field_5": 9220419.0 }, "geometry": { "type": "Point", "coordinates": [ 112.215971858728437, -7.051174537723933 ] } },
{ "type": "Feature", "properties": { "field_1": 1101554, "field_2": "Sungai / Rawa", "field_3": "Sungai", "field_4": 634300.5, "field_5": 9220406.59 }, "geometry": { "type": "Point", "coordinates": [ 112.21597215145627, -7.051286772452153 ] } },
{ "type": "Feature", "properties": { "field_1": 1101555, "field_2": "Sungai / Rawa", "field_3": "Sungai", "field_4": 634300.5, "field_5": 9220394.0 }, "geometry": { "type": "Point", "coordinates": [ 112.215972448434826, -7.051400635080784 ] } },
{ "type": "Feature", "properties": { "field_1": 1101556, "field_2": "Sungai / Rawa", "field_3": "Sungai", "field_4": 634300.5, "field_5": 9220381.59 }, "geometry": { "type": "Point", "coordinates": [ 112.215972741172266, -7.051512869807897 ] } },
{ "type": "Feature", "properties": { "field_1": 1101557, "field_2": "Sungai / Rawa", "field_3": "Sungai", "field_4": 634300.5, "field_5": 9220369.0 }, "geometry": { "type": "Point", "coordinates": [ 112.215973038160598, -7.051626732435402 ] } },
{ "type": "Feature", "properties": { "field_1": 1101558, "field_2": "Sungai / Rawa", "field_3": "Sungai", "field_4": 634300.5, "field_5": 9220356.59 }, "geometry": { "type": "Point", "coordinates": [ 112.215973330907673, -7.051738967161405 ] } },
{ "type": "Feature", "properties": { "field_1": 1101559, "field_2": "Sungai / Rawa", "field_3": "Sungai", "field_4": 634300.5, "field_5": 9220344.0 }, "geometry": { "type": "Point", "coordinates": [ 112.215973627905768, -7.051852829787785 ] } },
{ "type": "Feature", "properties": { "field_1": 1101560, "field_2": "Sungai / Rawa", "field_3": "Sungai", "field_4": 634300.5, "field_5": 9220331.59 }, "geometry": { "type": "Point", "coordinates": [ 112.215973920662464, -7.051965064512681 ] } },
{ "type": "Feature", "properties": { "field_1": 1101561, "field_2": "Sungai / Rawa", "field_3": "Sungai", "field_4": 634300.5, "field_5": 9220319.0 }, "geometry": { "type": "Point", "coordinates": [ 112.215974217670322, -7.052078927137939 ] } },
{ "type": "Feature", "properties": { "field_1": 1101562, "field_2": "Sungai / Rawa", "field_3": "Sungai", "field_4": 634300.5, "field_5": 9220306.59 }, "geometry": { "type": "Point", "coordinates": [ 112.215974510436638, -7.052191161861726 ] } },
{ "type": "Feature", "properties": { "field_1": 1101563, "field_2": "Sungai / Rawa", "field_3": "Sungai", "field_4": 634300.5, "field_5": 9220294.0 }, "geometry": { "type": "Point", "coordinates": [ 112.215974807454245, -7.052305024485858 ] } },
{ "type": "Feature", "properties": { "field_1": 1101564, "field_2": "Sungai / Rawa", "field_3": "Sungai", "field_4": 634300.5, "field_5": 9220281.59 }, "geometry": { "type": "Point", "coordinates": [ 112.215975100230196, -7.052417259208539 ] } },
{ "type": "Feature", "properties": { "field_1": 1101565, "field_2": "Sungai / Rawa", "field_3": "Sungai", "field_4": 634300.5, "field_5": 9220269.0 }, "geometry": { "type": "Point", "coordinates": [ 112.215975397257566, -7.052531121831547 ] } },
{ "type": "Feature", "properties": { "field_1": 1101566, "field_2": "Sungai / Rawa", "field_3": "Sungai", "field_4": 634300.5, "field_5": 9220256.59 }, "geometry": { "type": "Point", "coordinates": [ 112.215975690043138, -7.052643356553117 ] } },
{ "type": "Feature", "properties": { "field_1": 1101567, "field_2": "Sungai / Rawa", "field_3": "Sungai", "field_4": 634300.5, "field_5": 9220244.0 }, "geometry": { "type": "Point", "coordinates": [ 112.215975987080284, -7.052757219175001 ] } },
{ "type": "Feature", "properties": { "field_1": 1101568, "field_2": "Sungai / Rawa", "field_3": "Sungai", "field_4": 634300.5, "field_5": 9220231.59 }, "geometry": { "type": "Point", "coordinates": [ 112.215976279875463, -7.052869453895465 ] } },
{ "type": "Feature", "properties": { "field_1": 1101569, "field_2": "Sungai / Rawa", "field_3": "Sungai", "field_4": 634300.5, "field_5": 9220219.0 }, "geometry": { "type": "Point", "coordinates": [ 112.215976576922358, -7.052983316516224 ] } },
{ "type": "Feature", "properties": { "field_1": 1101570, "field_2": "Sungai / Rawa", "field_3": "Sungai", "field_4": 634300.5, "field_5": 9220206.59 }, "geometry": { "type": "Point", "coordinates": [ 112.215976869727172, -7.053095551235579 ] } },
{ "type": "Feature", "properties": { "field_1": 1101571, "field_2": "Sungai / Rawa", "field_3": "Sungai", "field_4": 634300.5, "field_5": 9220194.0 }, "geometry": { "type": "Point", "coordinates": [ 112.215977166783844, -7.053209413855213 ] } },
{ "type": "Feature", "properties": { "field_1": 1101572, "field_2": "Sungai / Rawa", "field_3": "Sungai", "field_4": 634300.5, "field_5": 9220181.59 }, "geometry": { "type": "Point", "coordinates": [ 112.215977459598278, -7.053321648573459 ] } },
{ "type": "Feature", "properties": { "field_1": 1101573, "field_2": "Sungai / Rawa", "field_3": "Sungai", "field_4": 634300.5, "field_5": 9220169.0 }, "geometry": { "type": "Point", "coordinates": [ 112.215977756664714, -7.053435511191969 ] } },
{ "type": "Feature", "properties": { "field_1": 1101574, "field_2": "Sungai / Rawa", "field_3": "Sungai", "field_4": 634300.5, "field_5": 9220156.59 }, "geometry": { "type": "Point", "coordinates": [ 112.215978049488754, -7.053547745909108 ] } },
{ "type": "Feature", "properties": { "field_1": 1101575, "field_2": "Sungai / Rawa", "field_3": "Sungai", "field_4": 634300.5, "field_5": 9220144.0 }, "geometry": { "type": "Point", "coordinates": [ 112.215978346564953, -7.053661608526492 ] } },
{ "type": "Feature", "properties": { "field_1": 1101576, "field_2": "Sungai / Rawa", "field_3": "Sungai", "field_4": 634300.5, "field_5": 9220131.59 }, "geometry": { "type": "Point", "coordinates": [ 112.215978639398628, -7.053773843242523 ] } },
{ "type": "Feature", "properties": { "field_1": 1101577, "field_2": "Sungai / Rawa", "field_3": "Sungai", "field_4": 634300.5, "field_5": 9220119.0 }, "geometry": { "type": "Point", "coordinates": [ 112.215978936484589, -7.053887705858785 ] } },
{ "type": "Feature", "properties": { "field_1": 1101578, "field_2": "Sungai / Rawa", "field_3": "Sungai", "field_4": 634300.5, "field_5": 9220106.59 }, "geometry": { "type": "Point", "coordinates": [ 112.215979229327885, -7.053999940573704 ] } },
{ "type": "Feature", "properties": { "field_1": 1101579, "field_2": "Sungai / Rawa", "field_3": "Sungai", "field_4": 634300.5, "field_5": 9220094.0 }, "geometry": { "type": "Point", "coordinates": [ 112.215979526423595, -7.054113803188842 ] } },
{ "type": "Feature", "properties": { "field_1": 1101580, "field_2": "Sungai / Rawa", "field_3": "Sungai", "field_4": 634300.5, "field_5": 9220081.59 }, "geometry": { "type": "Point", "coordinates": [ 112.215979819276527, -7.054226037902653 ] } },
{ "type": "Feature", "properties": { "field_1": 1151834, "field_2": "Sungai/Rawa", "field_3": "Sungai", "field_4": 634994.3, "field_5": 9215800.39 }, "geometry": { "type": "Point", "coordinates": [ 112.222362469241517, -7.092928230737903 ] } },
{ "type": "Feature", "properties": { "field_1": 1151835, "field_2": "Sungai/Rawa", "field_3": "Sungai", "field_4": 635006.8, "field_5": 9215800.3 }, "geometry": { "type": "Point", "coordinates": [ 112.22247564032881, -7.092928746818615 ] } },
{ "type": "Feature", "properties": { "field_1": 1151836, "field_2": "Sungai/Rawa", "field_3": "Sungai", "field_4": 635019.3, "field_5": 9215800.39 }, "geometry": { "type": "Point", "coordinates": [ 112.222588807117191, -7.092927634977661 ] } },
{ "type": "Feature", "properties": { "field_1": 1201210, "field_2": "Sungai/ Rawa", "field_3": "Sungai", "field_4": 639300.5, "field_5": 9225206.5 }, "geometry": { "type": "Point", "coordinates": [ 112.261118326808173, -7.007757581009236 ] } },
{ "type": "Feature", "properties": { "field_1": 1201211, "field_2": "Sungai/ Rawa", "field_3": "Sungai", "field_4": 639300.5, "field_5": 9225194.0 }, "geometry": { "type": "Point", "coordinates": [ 112.26111863070274, -7.007870627958418 ] } },
{ "type": "Feature", "properties": { "field_1": 1201212, "field_2": "Sungai/ Rawa", "field_3": "Sungai", "field_4": 639300.5, "field_5": 9225181.5 }, "geometry": { "type": "Point", "coordinates": [ 112.261118934602351, -7.007983674907044 ] } },
{ "type": "Feature", "properties": { "field_1": 1201213, "field_2": "Sungai/ Rawa", "field_3": "Sungai", "field_4": 639300.5, "field_5": 9225169.0 }, "geometry": { "type": "Point", "coordinates": [ 112.261119238506978, -7.008096721855117 ] } },
{ "type": "Feature", "properties": { "field_1": 1201214, "field_2": "Sungai/ Rawa", "field_3": "Sungai", "field_4": 639300.5, "field_5": 9225156.5 }, "geometry": { "type": "Point", "coordinates": [ 112.261119542416623, -7.008209768802632 ] } },
{ "type": "Feature", "properties": { "field_1": 1201215, "field_2": "Sungai/ Rawa", "field_3": "Sungai", "field_4": 639300.5, "field_5": 9225144.0 }, "geometry": { "type": "Point", "coordinates": [ 112.261119846331312, -7.008322815749591 ] } },
{ "type": "Feature", "properties": { "field_1": 1201216, "field_2": "Sungai/ Rawa", "field_3": "Sungai", "field_4": 639300.5, "field_5": 9225131.5 }, "geometry": { "type": "Point", "coordinates": [ 112.261120150251003, -7.008435862695997 ] } },
{ "type": "Feature", "properties": { "field_1": 1201217, "field_2": "Sungai/ Rawa", "field_3": "Sungai", "field_4": 639300.5, "field_5": 9225119.0 }, "geometry": { "type": "Point", "coordinates": [ 112.261120454175725, -7.008548909641846 ] } },
{ "type": "Feature", "properties": { "field_1": 1201218, "field_2": "Sungai/ Rawa", "field_3": "Sungai", "field_4": 639300.5, "field_5": 9225106.5 }, "geometry": { "type": "Point", "coordinates": [ 112.261120758105477, -7.008661956587138 ] } },
{ "type": "Feature", "properties": { "field_1": 1201219, "field_2": "Sungai/ Rawa", "field_3": "Sungai", "field_4": 639300.5, "field_5": 9225094.0 }, "geometry": { "type": "Point", "coordinates": [ 112.26112106204026, -7.008775003531877 ] } },
{ "type": "Feature", "properties": { "field_1": 1201220, "field_2": "Sungai/ Rawa", "field_3": "Sungai", "field_4": 639300.5, "field_5": 9225081.5 }, "geometry": { "type": "Point", "coordinates": [ 112.26112136598006, -7.008888050476058 ] } },
{ "type": "Feature", "properties": { "field_1": 1201221, "field_2": "Sungai/ Rawa", "field_3": "Sungai", "field_4": 639300.5, "field_5": 9225069.0 }, "geometry": { "type": "Point", "coordinates": [ 112.26112166992489, -7.009001097419684 ] } },
{ "type": "Feature", "properties": { "field_1": 1201222, "field_2": "Sungai/ Rawa", "field_3": "Sungai", "field_4": 639300.5, "field_5": 9225056.5 }, "geometry": { "type": "Point", "coordinates": [ 112.261121973874722, -7.009114144362756 ] } },
{ "type": "Feature", "properties": { "field_1": 1231900, "field_2": "Sungai/ Rawa", "field_3": "Sungai", "field_4": 634169.3, "field_5": 9219800.39 }, "geometry": { "type": "Point", "coordinates": [ 112.214798724453701, -7.05677227318145 ] } },
{ "type": "Feature", "properties": { "field_1": 1231901, "field_2": "Sungai/ Rawa", "field_3": "Sungai", "field_4": 634181.8, "field_5": 9219800.3 }, "geometry": { "type": "Point", "coordinates": [ 112.214911887032045, -7.056772792609363 ] } },
{ "type": "Feature", "properties": { "field_1": 1231902, "field_2": "Sungai/ Rawa", "field_3": "Sungai", "field_4": 634194.3, "field_5": 9219800.39 }, "geometry": { "type": "Point", "coordinates": [ 112.215025045360036, -7.05677168410863 ] } },
{ "type": "Feature", "properties": { "field_1": 1231903, "field_2": "Sungai/ Rawa", "field_3": "Sungai", "field_4": 634206.8, "field_5": 9219800.3 }, "geometry": { "type": "Point", "coordinates": [ 112.215138207929101, -7.05677220348164 ] } },
{ "type": "Feature", "properties": { "field_1": 1231904, "field_2": "Sungai/ Rawa", "field_3": "Sungai", "field_4": 634219.3, "field_5": 9219800.39 }, "geometry": { "type": "Point", "coordinates": [ 112.215251366247003, -7.056771094926139 ] } },
{ "type": "Feature", "properties": { "field_1": 1231905, "field_2": "Sungai/ Rawa", "field_3": "Sungai", "field_4": 634231.8, "field_5": 9219800.3 }, "geometry": { "type": "Point", "coordinates": [ 112.215364528806774, -7.056771614244245 ] } },
{ "type": "Feature", "properties": { "field_1": 1231906, "field_2": "Sungai/ Rawa", "field_3": "Sungai", "field_4": 634244.3, "field_5": 9219800.39 }, "geometry": { "type": "Point", "coordinates": [ 112.2154776871146, -7.056770505633979 ] } },
{ "type": "Feature", "properties": { "field_1": 1231907, "field_2": "Sungai/ Rawa", "field_3": "Sungai", "field_4": 634256.8, "field_5": 9219800.3 }, "geometry": { "type": "Point", "coordinates": [ 112.215590849665062, -7.056771024897179 ] } },
{ "type": "Feature", "properties": { "field_1": 1231908, "field_2": "Sungai/ Rawa", "field_3": "Sungai", "field_4": 634269.3, "field_5": 9219800.39 }, "geometry": { "type": "Point", "coordinates": [ 112.215704007962813, -7.056769916232147 ] } },
{ "type": "Feature", "properties": { "field_1": 1231909, "field_2": "Sungai/ Rawa", "field_3": "Sungai", "field_4": 634281.8, "field_5": 9219800.3 }, "geometry": { "type": "Point", "coordinates": [ 112.215817170503996, -7.056770435440444 ] } },
{ "type": "Feature", "properties": { "field_1": 1231910, "field_2": "Sungai/ Rawa", "field_3": "Sungai", "field_4": 634294.3, "field_5": 9219800.39 }, "geometry": { "type": "Point", "coordinates": [ 112.215930328791643, -7.056769326720643 ] } },
{ "type": "Feature", "properties": { "field_1": 1231911, "field_2": "Sungai/ Rawa", "field_3": "Sungai", "field_4": 634306.8, "field_5": 9219800.3 }, "geometry": { "type": "Point", "coordinates": [ 112.216043491323532, -7.056769845874038 ] } },
{ "type": "Feature", "properties": { "field_1": 1231912, "field_2": "Sungai/ Rawa", "field_3": "Sungai", "field_4": 634319.3, "field_5": 9219800.39 }, "geometry": { "type": "Point", "coordinates": [ 112.216156649601089, -7.056768737099471 ] } },
{ "type": "Feature", "properties": { "field_1": 1341204, "field_2": "Sungai/ Rawa", "field_3": "Sungai", "field_4": 646300.5, "field_5": 9224331.5 }, "geometry": { "type": "Point", "coordinates": [ 112.324501978680587, -7.015496369239826 ] } },
{ "type": "Feature", "properties": { "field_1": 1341205, "field_2": "Sungai/ Rawa", "field_3": "Sungai", "field_4": 646300.5, "field_5": 9224319.0 }, "geometry": { "type": "Point", "coordinates": [ 112.324502298202248, -7.015609413311159 ] } },
{ "type": "Feature", "properties": { "field_1": 1341206, "field_2": "Sungai/ Rawa", "field_3": "Sungai", "field_4": 646300.5, "field_5": 9224306.5 }, "geometry": { "type": "Point", "coordinates": [ 112.324502617729166, -7.015722457381933 ] } },
{ "type": "Feature", "properties": { "field_1": 1382449, "field_2": "Sungai/ Rawa", "field_3": "Sungai", "field_4": 648300.5, "field_5": 9208769.0 }, "geometry": { "type": "Point", "coordinates": [ 112.343012593592604, -7.15618333556273 ] } },
{ "type": "Feature", "properties": { "field_1": 1441264, "field_2": "Sungai/ Rawa", "field_3": "Sungai", "field_4": 651300.5, "field_5": 9221581.5 }, "geometry": { "type": "Point", "coordinates": [ 112.369832630162904, -7.040235713701381 ] } },
{ "type": "Feature", "properties": { "field_1": 1441618, "field_2": "Sungai/ Rawa", "field_3": "Sungai", "field_4": 651300.5, "field_5": 9217156.59 }, "geometry": { "type": "Point", "coordinates": [ 112.369950366642954, -7.080251674419543 ] } }
]
}
