{
"type": "FeatureCollection",
"name": "Tambak",
"crs": { "type": "name", "properties": { "name": "urn:ogc:def:crs:OGC:1.3:CRS84" } },
"features": [
{ "type": "Feature", "properties": { "field_1": 1061269, "field_2": "Sungai/ Rawa", "field_3": "Tambak", "field_4": 632300.5, "field_5": 9223869.0 }, "geometry": { "type": "Point", "coordinates": [ 112.197786363742154, -7.020019651148057 ] } },
{ "type": "Feature", "properties": { "field_1": 1201501, "field_2": "Sungai/ Rawa", "field_3": "Tambak", "field_4": 639300.5, "field_5": 9221569.0 }, "geometry": { "type": "Point", "coordinates": [ 112.261206972153801, -7.040654219741916 ] } },
{ "type": "Feature", "properties": { "field_1": 1201502, "field_2": "Sungai/ Rawa", "field_3": "Tambak", "field_4": 639300.5, "field_5": 9221556.5 }, "geometry": { "type": "Point", "coordinates": [ 112.261207277510707, -7.040767266529047 ] } },
{ "type": "Feature", "properties": { "field_1": 1201503, "field_2": "Sungai/ Rawa", "field_3": "Tambak", "field_4": 639300.5, "field_5": 9221544.0 }, "geometry": { "type": "Point", "coordinates": [ 112.261207582872615, -7.040880313315618 ] } },
{ "type": "Feature", "properties": { "field_1": 1201504, "field_2": "Sungai/ Rawa", "field_3": "Tambak", "field_4": 639300.5, "field_5": 9221531.5 }, "geometry": { "type": "Point", "coordinates": [ 112.261207888239568, -7.040993360101633 ] } },
{ "type": "Feature", "properties": { "field_1": 1201505, "field_2": "Sungai/ Rawa", "field_3": "Tambak", "field_4": 639300.5, "field_5": 9221519.0 }, "geometry": { "type": "Point", "coordinates": [ 112.261208193611523, -7.041106406887089 ] } },
{ "type": "Feature", "properties": { "field_1": 1201506, "field_2": "Sungai/ Rawa", "field_3": "Tambak", "field_4": 639300.5, "field_5": 9221506.5 }, "geometry": { "type": "Point", "coordinates": [ 112.261208498988523, -7.041219453671987 ] } },
{ "type": "Feature", "properties": { "field_1": 1201507, "field_2": "Sungai/ Rawa", "field_3": "Tambak", "field_4": 639300.5, "field_5": 9221494.0 }, "geometry": { "type": "Point", "coordinates": [ 112.26120880437054, -7.041332500456327 ] } },
{ "type": "Feature", "properties": { "field_1": 1201508, "field_2": "Sungai/ Rawa", "field_3": "Tambak", "field_4": 639300.5, "field_5": 9221481.5 }, "geometry": { "type": "Point", "coordinates": [ 112.261209109757601, -7.04144554724011 ] } },
{ "type": "Feature", "properties": { "field_1": 1201509, "field_2": "Sungai/ Rawa", "field_3": "Tambak", "field_4": 639300.5, "field_5": 9221469.0 }, "geometry": { "type": "Point", "coordinates": [ 112.261209415149665, -7.041558594023333 ] } },
{ "type": "Feature", "properties": { "field_1": 1201510, "field_2": "Sungai/ Rawa", "field_3": "Tambak", "field_4": 639300.5, "field_5": 9221456.5 }, "geometry": { "type": "Point", "coordinates": [ 112.261209720546759, -7.041671640805998 ] } },
{ "type": "Feature", "properties": { "field_1": 1201511, "field_2": "Sungai/ Rawa", "field_3": "Tambak", "field_4": 639300.5, "field_5": 9221444.0 }, "geometry": { "type": "Point", "coordinates": [ 112.261210025948884, -7.041784687588104 ] } },
{ "type": "Feature", "properties": { "field_1": 1201512, "field_2": "Sungai/ Rawa", "field_3": "Tambak", "field_4": 639300.5, "field_5": 9221431.5 }, "geometry": { "type": "Point", "coordinates": [ 112.26121033135604, -7.041897734369654 ] } },
{ "type": "Feature", "properties": { "field_1": 1201513, "field_2": "Sungai/ Rawa", "field_3": "Tambak", "field_4": 639300.5, "field_5": 9221419.0 }, "geometry": { "type": "Point", "coordinates": [ 112.261210636768226, -7.042010781150644 ] } },
{ "type": "Feature", "properties": { "field_1": 1201514, "field_2": "Sungai/ Rawa", "field_3": "Tambak", "field_4": 639300.5, "field_5": 9221406.5 }, "geometry": { "type": "Point", "coordinates": [ 112.261210942185429, -7.042123827931077 ] } },
{ "type": "Feature", "properties": { "field_1": 1201515, "field_2": "Sungai/ Rawa", "field_3": "Tambak", "field_4": 639300.5, "field_5": 9221394.0 }, "geometry": { "type": "Point", "coordinates": [ 112.261211247607648, -7.042236874710951 ] } },
{ "type": "Feature", "properties": { "field_1": 1201516, "field_2": "Sungai/ Rawa", "field_3": "Tambak", "field_4": 639300.5, "field_5": 9221381.5 }, "geometry": { "type": "Point", "coordinates": [ 112.261211553034912, -7.042349921490266 ] } },
{ "type": "Feature", "properties": { "field_1": 1201517, "field_2": "Sungai/ Rawa", "field_3": "Tambak", "field_4": 639300.5, "field_5": 9221369.0 }, "geometry": { "type": "Point", "coordinates": [ 112.261211858467192, -7.042462968269024 ] } },
{ "type": "Feature", "properties": { "field_1": 1201518, "field_2": "Sungai/ Rawa", "field_3": "Tambak", "field_4": 639300.5, "field_5": 9221356.5 }, "geometry": { "type": "Point", "coordinates": [ 112.261212163904503, -7.042576015047223 ] } },
{ "type": "Feature", "properties": { "field_1": 1201519, "field_2": "Sungai/ Rawa", "field_3": "Tambak", "field_4": 639300.5, "field_5": 9221344.0 }, "geometry": { "type": "Point", "coordinates": [ 112.26121246934683, -7.042689061824864 ] } },
{ "type": "Feature", "properties": { "field_1": 1201520, "field_2": "Sungai/ Rawa", "field_3": "Tambak", "field_4": 639300.5, "field_5": 9221331.5 }, "geometry": { "type": "Point", "coordinates": [ 112.261212774794203, -7.042802108601945 ] } },
{ "type": "Feature", "properties": { "field_1": 1201521, "field_2": "Sungai/ Rawa", "field_3": "Tambak", "field_4": 639300.5, "field_5": 9221319.0 }, "geometry": { "type": "Point", "coordinates": [ 112.261213080246577, -7.042915155378471 ] } },
{ "type": "Feature", "properties": { "field_1": 1201522, "field_2": "Sungai/ Rawa", "field_3": "Tambak", "field_4": 639300.5, "field_5": 9221306.5 }, "geometry": { "type": "Point", "coordinates": [ 112.261213385703996, -7.043028202154437 ] } },
{ "type": "Feature", "properties": { "field_1": 1201523, "field_2": "Sungai/ Rawa", "field_3": "Tambak", "field_4": 639300.5, "field_5": 9221294.0 }, "geometry": { "type": "Point", "coordinates": [ 112.261213691166432, -7.043141248929844 ] } },
{ "type": "Feature", "properties": { "field_1": 1201524, "field_2": "Sungai/ Rawa", "field_3": "Tambak", "field_4": 639300.5, "field_5": 9221281.5 }, "geometry": { "type": "Point", "coordinates": [ 112.261213996633899, -7.043254295704692 ] } },
{ "type": "Feature", "properties": { "field_1": 1201525, "field_2": "Sungai/ Rawa", "field_3": "Tambak", "field_4": 639300.5, "field_5": 9221269.0 }, "geometry": { "type": "Point", "coordinates": [ 112.261214302106396, -7.043367342478984 ] } },
{ "type": "Feature", "properties": { "field_1": 1201526, "field_2": "Sungai/ Rawa", "field_3": "Tambak", "field_4": 639300.5, "field_5": 9221256.5 }, "geometry": { "type": "Point", "coordinates": [ 112.261214607583909, -7.043480389252716 ] } },
{ "type": "Feature", "properties": { "field_1": 1201527, "field_2": "Sungai/ Rawa", "field_3": "Tambak", "field_4": 639300.5, "field_5": 9221244.0 }, "geometry": { "type": "Point", "coordinates": [ 112.261214913066439, -7.04359343602589 ] } },
{ "type": "Feature", "properties": { "field_1": 1201528, "field_2": "Sungai/ Rawa", "field_3": "Tambak", "field_4": 639300.5, "field_5": 9221231.5 }, "geometry": { "type": "Point", "coordinates": [ 112.261215218554014, -7.043706482798505 ] } },
{ "type": "Feature", "properties": { "field_1": 1201529, "field_2": "Sungai/ Rawa", "field_3": "Tambak", "field_4": 639300.5, "field_5": 9221219.0 }, "geometry": { "type": "Point", "coordinates": [ 112.261215524046605, -7.043819529570563 ] } },
{ "type": "Feature", "properties": { "field_1": 1341103, "field_2": "Lainnya", "field_3": "Tambak", "field_4": 646300.5, "field_5": 9225594.0 }, "geometry": { "type": "Point", "coordinates": [ 112.324469734174514, -7.004078915165032 ] } },
{ "type": "Feature", "properties": { "field_1": 1341104, "field_2": "Lainnya", "field_3": "Tambak", "field_4": 646300.5, "field_5": 9225581.5 }, "geometry": { "type": "Point", "coordinates": [ 112.324470053163225, -7.004191959292629 ] } },
{ "type": "Feature", "properties": { "field_1": 1341105, "field_2": "Lainnya", "field_3": "Tambak", "field_4": 646300.5, "field_5": 9225569.0 }, "geometry": { "type": "Point", "coordinates": [ 112.324470372157208, -7.004305003419669 ] } },
{ "type": "Feature", "properties": { "field_1": 1341106, "field_2": "Lainnya", "field_3": "Tambak", "field_4": 646300.5, "field_5": 9225556.5 }, "geometry": { "type": "Point", "coordinates": [ 112.324470691156463, -7.004418047546153 ] } },
{ "type": "Feature", "properties": { "field_1": 1341107, "field_2": "Lainnya", "field_3": "Tambak", "field_4": 646300.5, "field_5": 9225544.0 }, "geometry": { "type": "Point", "coordinates": [ 112.324471010161005, -7.00453109167208 ] } },
{ "type": "Feature", "properties": { "field_1": 1342806, "field_2": "Lainnya", "field_3": "Tambak", "field_4": 646300.5, "field_5": 9204306.5 }, "geometry": { "type": "Point", "coordinates": [ 112.325020623830923, -7.19659225050926 ] } },
{ "type": "Feature", "properties": { "field_1": 1342806, "field_2": "Lainnya", "field_3": "Tambak", "field_4": 646300.5, "field_5": 9204306.5 }, "geometry": { "type": "Point", "coordinates": [ 112.325020623830923, -7.19659225050926 ] } },
{ "type": "Feature", "properties": { "field_1": 1342807, "field_2": "Lainnya", "field_3": "Tambak", "field_4": 646300.5, "field_5": 9204294.0 }, "geometry": { "type": "Point", "coordinates": [ 112.325020951814338, -7.19670529367613 ] } },
{ "type": "Feature", "properties": { "field_1": 1342808, "field_2": "Lainnya", "field_3": "Tambak", "field_4": 646300.5, "field_5": 9204281.5 }, "geometry": { "type": "Point", "coordinates": [ 112.325021279803025, -7.196818336842429 ] } },
{ "type": "Feature", "properties": { "field_1": 1342809, "field_2": "Lainnya", "field_3": "Tambak", "field_4": 646300.5, "field_5": 9204269.0 }, "geometry": { "type": "Point", "coordinates": [ 112.325021607797026, -7.196931380008153 ] } },
{ "type": "Feature", "properties": { "field_1": 1342850, "field_2": "Lainnya", "field_3": "Tambak", "field_4": 646300.5, "field_5": 9203756.5 }, "geometry": { "type": "Point", "coordinates": [ 112.325035060102763, -7.201566149310658 ] } },
{ "type": "Feature", "properties": { "field_1": 1441354, "field_2": "Sungai/ Rawa", "field_3": "Tambak", "field_4": 651300.5, "field_5": 9220456.59 }, "geometry": { "type": "Point", "coordinates": [ 112.369862496526778, -7.05040866273288 ] } },
{ "type": "Feature", "properties": { "field_1": 1441580, "field_2": "Lainnya", "field_3": "Tambak", "field_4": 651300.5, "field_5": 9217631.59 }, "geometry": { "type": "Point", "coordinates": [ 112.369937695225659, -7.075956091820172 ] } },
{ "type": "Feature", "properties": { "field_1": 1441581, "field_2": "Lainnya", "field_3": "Tambak", "field_4": 651300.5, "field_5": 9217619.0 }, "geometry": { "type": "Point", "coordinates": [ 112.369938030983178, -7.076069947377878 ] } },
{ "type": "Feature", "properties": { "field_1": 1441582, "field_2": "Lainnya", "field_3": "Tambak", "field_4": 651300.5, "field_5": 9217606.59 }, "geometry": { "type": "Point", "coordinates": [ 112.369938361945785, -7.076182175135155 ] } },
{ "type": "Feature", "properties": { "field_1": 1441583, "field_2": "Lainnya", "field_3": "Tambak", "field_4": 651300.5, "field_5": 9217594.0 }, "geometry": { "type": "Point", "coordinates": [ 112.369938697714289, -7.076296030691727 ] } },
{ "type": "Feature", "properties": { "field_1": 1441584, "field_2": "Lainnya", "field_3": "Tambak", "field_4": 651300.5, "field_5": 9217581.59 }, "geometry": { "type": "Point", "coordinates": [ 112.369939028687739, -7.076408258447888 ] } },
{ "type": "Feature", "properties": { "field_1": 1322489, "field_2": "Sungai/ Rawa", "field_3": "Tambak", "field_4": 645300.5, "field_5": 9208269.0 }, "geometry": { "type": "Point", "coordinates": [ 112.315862418570433, -7.160783521464381 ] } },
{ "type": "Feature", "properties": { "field_1": 1322490, "field_2": "Sungai/ Rawa", "field_3": "Tambak", "field_4": 645300.5, "field_5": 9208256.5 }, "geometry": { "type": "Point", "coordinates": [ 112.315862742649742, -7.160896565226342 ] } }
]
}
