{
"type": "FeatureCollection",
"name": "field_3_Ular",
"crs": { "type": "name", "properties": { "name": "urn:ogc:def:crs:EPSG::32749" } },
"xy_coordinate_resolution": 1e-15,
"features": [
{ "type": "Feature", "properties": { "field_1": 1061079, "field_2": "Lainnya", "field_3": "Ular", "field_4": 632300.5, "field_5": 9226244.0 }, "geometry": { "type": "Point", "coordinates": [ 632300.5, 9226244.0 ] } },
{ "type": "Feature", "properties": { "field_1": 1061082, "field_2": "Lainnya", "field_3": "Ular", "field_4": 632300.5, "field_5": 9226206.5 }, "geometry": { "type": "Point", "coordinates": [ 632300.5, 9226206.5 ] } },
{ "type": "Feature", "properties": { "field_1": 1101331, "field_2": "Binatang Berbahaya", "field_3": "Ular", "field_4": 634300.5, "field_5": 9223194.0 }, "geometry": { "type": "Point", "coordinates": [ 634300.5, 9223194.0 ] } },
{ "type": "Feature", "properties": { "field_1": 1101332, "field_2": "Binatang Berbahaya", "field_3": "Ular", "field_4": 634300.5, "field_5": 9223181.5 }, "geometry": { "type": "Point", "coordinates": [ 634300.5, 9223181.5 ] } },
{ "type": "Feature", "properties": { "field_1": 1142387, "field_2": "Binatang berbahaya", "field_3": "Ular", "field_4": 636300.5, "field_5": 9209694.0 }, "geometry": { "type": "Point", "coordinates": [ 636300.5, 9209694.0 ] } },
{ "type": "Feature", "properties": { "field_1": 1142388, "field_2": "Binatang berbahaya", "field_3": "Ular", "field_4": 636300.5, "field_5": 9209681.59 }, "geometry": { "type": "Point", "coordinates": [ 636300.5, 9209681.589999999850988 ] } },
{ "type": "Feature", "properties": { "field_1": 1171755, "field_2": "Binatang berbahaya", "field_3": "Ular", "field_4": 633456.8, "field_5": 9216800.3 }, "geometry": { "type": "Point", "coordinates": [ 633456.800000000046566, 9216800.300000000745058 ] } },
{ "type": "Feature", "properties": { "field_1": 1171756, "field_2": "Binatang berbahaya", "field_3": "Ular", "field_4": 633469.3, "field_5": 9216800.39 }, "geometry": { "type": "Point", "coordinates": [ 633469.300000000046566, 9216800.390000000596046 ] } },
{ "type": "Feature", "properties": { "field_1": 1191319, "field_2": "Binatang Berbahaya", "field_3": "Ular", "field_4": 627056.8, "field_5": 9217800.3 }, "geometry": { "type": "Point", "coordinates": [ 627056.800000000046566, 9217800.300000000745058 ] } },
{ "type": "Feature", "properties": { "field_1": 1191320, "field_2": "Binatang Berbahaya", "field_3": "Ular", "field_4": 627069.3, "field_5": 9217800.3 }, "geometry": { "type": "Point", "coordinates": [ 627069.300000000046566, 9217800.300000000745058 ] } },
{ "type": "Feature", "properties": { "field_1": 1191419, "field_2": "Binatang Berbahaya", "field_3": "Ular", "field_4": 628306.8, "field_5": 9217800.3 }, "geometry": { "type": "Point", "coordinates": [ 628306.800000000046566, 9217800.300000000745058 ] } },
{ "type": "Feature", "properties": { "field_1": 1191420, "field_2": "Binatang Berbahaya", "field_3": "Ular", "field_4": 628319.3, "field_5": 9217800.3 }, "geometry": { "type": "Point", "coordinates": [ 628319.300000000046566, 9217800.300000000745058 ] } },
{ "type": "Feature", "properties": { "field_1": 1231280, "field_2": "Binatang berbahaya", "field_3": "Ular", "field_4": 626419.3, "field_5": 9219800.3 }, "geometry": { "type": "Point", "coordinates": [ 626419.300000000046566, 9219800.300000000745058 ] } },
{ "type": "Feature", "properties": { "field_1": 1231281, "field_2": "Binatang berbahaya", "field_3": "Ular", "field_4": 626431.8, "field_5": 9219800.3 }, "geometry": { "type": "Point", "coordinates": [ 626431.800000000046566, 9219800.300000000745058 ] } }
]
}
